"Longitude (x)","Latitude (y)","Station Name","Climate ID","Date/Time (LST)","Year","Month","Day","Time (LST)","Flag","Temp (°C)","Temp Flag","Dew Point Temp (°C)","Dew Point Temp Flag","Rel Hum (%)","Rel Hum Flag","Precip. Amount (mm)","Precip. Amount Flag","Wind Dir (10s deg)","Wind Dir Flag","Wind Spd (km/h)","Wind Spd Flag","Visibility (km)","Visibility Flag","Stn Press (kPa)","Stn Press Flag","Hmdx","Hmdx Flag","Wind Chill","Wind Chill Flag","Weather"
"-71.39","46.79","QUEBEC INTL A","7016293","2020-05-01 00:00","2020","05","01","00:00","","5.9","","3.8","","86","","","","7","","15","","24.1","","100.61","","","","","","NA"
"-71.39","46.79","QUEBEC INTL A","7016293","2020-05-01 01:00","2020","05","01","01:00","","5.7","","4.0","","89","","","","5","","18","","16.1","","100.55","","","","","","Rain"
"-71.39","46.79","QUEBEC INTL A","7016293","2020-05-01 02:00","2020","05","01","02:00","","6.2","","3.8","","84","","","","7","","21","","24.1","","100.37","","","","","","NA"
"-71.39","46.79","QUEBEC INTL A","7016293","2020-05-01 03:00","2020","05","01","03:00","","5.9","","4.0","","87","","","","7","","22","","16.1","","100.30","","","","","","Rain"
"-71.39","46.79","QUEBEC INTL A","7016293","2020-05-01 04:00","2020","05","01","04:00","","6.1","","4.9","","92","","","","6","","26","","16.1","","100.10","","","","","","Rain"
"-71.39","46.79","QUEBEC INTL A","7016293","2020-05-01 05:00","2020","05","01","05:00","","6.4","","5.4","","94","","","","6","","21","","8.1","","100.05","","","","","","Rain,Fog"
"-71.39","46.79","QUEBEC INTL A","7016293","2020-05-01 06:00","2020","05","01","06:00","","6.7","","6.0","","95","","","","6","","18","","4.8","","100.05","","","","","","Rain,Fog"
"-71.39","46.79","QUEBEC INTL A","7016293","2020-05-01 07:00","2020","05","01","07:00","","7.1","","6.5","","96","","","","6","","16","","9.7","","99.98","","","","","","Rain,Fog"
"-71.39","46.79","QUEBEC INTL A","7016293","2020-05-01 08:00","2020","05","01","08:00","","7.6","","7.1","","97","","","","7","","17","","9.7","","99.90","","","","","","Rain,Fog"
"-71.39","46.79","QUEBEC INTL A","7016293","2020-05-01 09:00","2020","05","01","09:00","","8.1","","7.8","","98","","","","6","","16","","9.7","","99.84","","","","","","Rain,Fog"
"-71.39","46.79","QUEBEC INTL A","7016293","2020-05-01 10:00","2020","05","01","10:00","","8.7","","8.5","","99","","","","5","","13","","1.6","","99.83","","","","","","Rain,Fog"
"-71.39","46.79","QUEBEC INTL A","7016293","2020-05-01 11:00","2020","05","01","11:00","","9.1","","8.9","","99","","","","5","","12","","1.6","","99.74","","","","","","Rain,Fog"
"-71.39","46.79","QUEBEC INTL A","7016293","2020-05-01 12:00","2020","05","01","12:00","","9.6","","9.4","","99","","","","7","","9","","1.6","","99.70","","","","","","Rain,Fog"
"-71.39","46.79","QUEBEC INTL A","7016293","2020-05-01 13:00","2020","05","01","13:00","","10.1","","9.9","","99","","","","5","","8","","1.2","","99.66","","","","","","Rain,Drizzle,Fog"
"-71.39","46.79","QUEBEC INTL A","7016293","2020-05-01 14:00","2020","05","01","14:00","","10.5","","10.4","","99","","","","5","","5","","1.6","","99.61","","","","","","Rain,Fog"
"-71.39","46.79","QUEBEC INTL A","7016293","2020-05-01 15:00","2020","05","01","15:00","","11.4","","11.2","","99","","","","34","","4","","2.4","","99.57","","","","","","Rain,Fog"
"-71.39","46.79","QUEBEC INTL A","7016293","2020-05-01 16:00","2020","05","01","16:00","","13.1","","11.7","","91","","","","29","","10","","48.3","","99.48","","","","","","Mostly Cloudy"
"-71.39","46.79","QUEBEC INTL A","7016293","2020-05-01 17:00","2020","05","01","17:00","","13.1","","9.4","","78","","","","30","","10","","32.2","","99.45","","","","","","NA"
"-71.39","46.79","QUEBEC INTL A","7016293","2020-05-01 18:00","2020","05","01","18:00","","11.1","","7.0","","76","","","","30","","9","","32.2","","99.53","","","","","","NA"
"-71.39","46.79","QUEBEC INTL A","7016293","2020-05-01 19:00","2020","05","01","19:00","","9.1","","4.7","","74","","","","31","","10","","24.1","","99.63","","","","","","Mostly Cloudy"
"-71.39","46.79","QUEBEC INTL A","7016293","2020-05-01 20:00","2020","05","01","20:00","","7.6","","2.3","","69","","","","34","","7","","24.1","","99.74","","","","","","NA"
"-71.39","46.79","QUEBEC INTL A","7016293","2020-05-01 21:00","2020","05","01","21:00","","6.3","","1.6","","72","","","","31","","7","","24.1","","99.81","","","","","","NA"
"-71.39","46.79","QUEBEC INTL A","7016293","2020-05-01 22:00","2020","05","01","22:00","","5.6","","0.8","","71","","","","29","","9","","24.1","","99.86","","","","","","Mainly Clear"
"-71.39","46.79","QUEBEC INTL A","7016293","2020-05-01 23:00","2020","05","01","23:00","","5.3","","0.9","","73","","","","29","","9","","24.1","","99.92","","","","","","NA"
"-71.39","46.79","QUEBEC INTL A","7016293","2020-05-02 00:00","2020","05","02","00:00","","3.1","","0.5","","83","","","","25","","12","","24.1","","99.99","","","","","","NA"
"-71.39","46.79","QUEBEC INTL A","7016293","2020-05-02 01:00","2020","05","02","01:00","","3.0","","0.8","","86","","","","26","","17","","24.1","","100.01","","","","","","Mainly Clear"
"-71.39","46.79","QUEBEC INTL A","7016293","2020-05-02 02:00","2020","05","02","02:00","","3.7","","2.2","","90","","","","25","","18","","24.1","","100.03","","","","","","NA"
"-71.39","46.79","QUEBEC INTL A","7016293","2020-05-02 03:00","2020","05","02","03:00","","3.5","","2.1","","91","","","","25","","18","","24.1","","100.07","","","","","","NA"
"-71.39","46.79","QUEBEC INTL A","7016293","2020-05-02 04:00","2020","05","02","04:00","","3.7","","2.0","","89","","","","26","","21","","24.1","","100.10","","","","","","Mostly Cloudy"
"-71.39","46.79","QUEBEC INTL A","7016293","2020-05-02 05:00","2020","05","02","05:00","","3.8","","1.9","","87","","","","25","","18","","48.3","","100.18","","","","","","NA"
"-71.39","46.79","QUEBEC INTL A","7016293","2020-05-02 06:00","2020","05","02","06:00","","4.5","","2.1","","85","","","","26","","16","","48.3","","100.24","","","","","","NA"
"-71.39","46.79","QUEBEC INTL A","7016293","2020-05-02 07:00","2020","05","02","07:00","","7.6","","1.6","","66","","","","29","","7","","48.3","","100.29","","","","","","Mainly Clear"
"-71.39","46.79","QUEBEC INTL A","7016293","2020-05-02 08:00","2020","05","02","08:00","","8.8","","1.4","","60","","","","28","","12","","48.3","","100.33","","","","","","NA"
"-71.39","46.79","QUEBEC INTL A","7016293","2020-05-02 09:00","2020","05","02","09:00","","10.0","","0.8","","53","","","","30","","14","","48.3","","100.32","","","","","","NA"
"-71.39","46.79","QUEBEC INTL A","7016293","2020-05-02 10:00","2020","05","02","10:00","","11.4","","0.8","","48","","","","30","","17","","48.3","","100.28","","","","","","Mainly Clear"
"-71.39","46.79","QUEBEC INTL A","7016293","2020-05-02 11:00","2020","05","02","11:00","","13.1","","1.0","","44","","","","30","","16","","48.3","","100.21","","","","","","NA"
"-71.39","46.79","QUEBEC INTL A","7016293","2020-05-02 12:00","2020","05","02","12:00","","14.2","","0.3","","39","","","","32","","8","","48.3","","100.15","","","","","","NA"
"-71.39","46.79","QUEBEC INTL A","7016293","2020-05-02 13:00","2020","05","02","13:00","","14.8","","-1.7","","32","","","","30","","14","","48.3","","100.11","","","","","","Mainly Clear"
"-71.39","46.79","QUEBEC INTL A","7016293","2020-05-02 14:00","2020","05","02","14:00","","15.3","","-0.7","","33","","","","30","","13","","48.3","","100.04","","","","","","NA"
"-71.39","46.79","QUEBEC INTL A","7016293","2020-05-02 15:00","2020","05","02","15:00","","15.9","","-1.8","","30","","","","30","","20","","48.3","","100.00","","","","","","NA"
"-71.39","46.79","QUEBEC INTL A","7016293","2020-05-02 16:00","2020","05","02","16:00","","15.6","","-0.8","","33","","","","26","","18","","48.3","","99.95","","","","","","Mostly Cloudy"
"-71.39","46.79","QUEBEC INTL A","7016293","2020-05-02 17:00","2020","05","02","17:00","","15.7","","-1.7","","30","","","","29","","11","","48.3","","99.95","","","","","","NA"
"-71.39","46.79","QUEBEC INTL A","7016293","2020-05-02 18:00","2020","05","02","18:00","","14.6","","0.2","","37","","","","26","","9","","48.3","","99.94","","","","","","NA"
"-71.39","46.79","QUEBEC INTL A","7016293","2020-05-02 19:00","2020","05","02","19:00","","11.9","","1.5","","49","","","","26","","8","","48.3","","99.95","","","","","","Mainly Clear"
"-71.39","46.79","QUEBEC INTL A","7016293","2020-05-02 20:00","2020","05","02","20:00","","9.9","","1.9","","57","","","","23","","5","","24.1","","99.99","","","","","","NA"
"-71.39","46.79","QUEBEC INTL A","7016293","2020-05-02 21:00","2020","05","02","21:00","","7.6","","1.7","","66","","","","25","","8","","24.1","","99.99","","","","","","NA"
"-71.39","46.79","QUEBEC INTL A","7016293","2020-05-02 22:00","2020","05","02","22:00","","7.3","","1.1","","65","","","","36","","8","","24.1","","99.94","","","","","","Mainly Clear"
"-71.39","46.79","QUEBEC INTL A","7016293","2020-05-02 23:00","2020","05","02","23:00","","7.2","","0.1","","61","","","","3","","8","","24.1","","99.92","","","","","","NA"
"-71.39","46.79","QUEBEC INTL A","7016293","2020-05-03 00:00","2020","05","03","00:00","","6.6","","-0.2","","62","","","","36","","9","","24.1","","99.89","","","","","","NA"
"-71.39","46.79","QUEBEC INTL A","7016293","2020-05-03 01:00","2020","05","03","01:00","","6.0","","0.7","","69","","","","5","","5","","24.1","","99.81","","","","","","Mostly Cloudy"
"-71.39","46.79","QUEBEC INTL A","7016293","2020-05-03 02:00","2020","05","03","02:00","","6.3","","-0.5","","62","","","","2","","8","","24.1","","99.78","","","","","","NA"
"-71.39","46.79","QUEBEC INTL A","7016293","2020-05-03 03:00","2020","05","03","03:00","","6.0","","0.8","","69","","","","1","","3","","24.1","","99.75","","","","","","NA"
"-71.39","46.79","QUEBEC INTL A","7016293","2020-05-03 04:00","2020","05","03","04:00","","6.2","","0.0","","65","","","","1","","4","","24.1","","99.74","","","","","","Cloudy"
"-71.39","46.79","QUEBEC INTL A","7016293","2020-05-03 05:00","2020","05","03","05:00","","5.7","","1.4","","74","","","","36","","6","","48.3","","99.74","","","","","","NA"
"-71.39","46.79","QUEBEC INTL A","7016293","2020-05-03 06:00","2020","05","03","06:00","","5.2","","3.3","","87","","","","1","","6","","9.7","","99.78","","","","","","Rain,Fog"
"-71.39","46.79","QUEBEC INTL A","7016293","2020-05-03 07:00","2020","05","03","07:00","","5.7","","4.7","","93","","","","3","","7","","32.2","","99.77","","","","","","Rain"
"-71.39","46.79","QUEBEC INTL A","7016293","2020-05-03 08:00","2020","05","03","08:00","","6.3","","5.0","","91","","","","4","","9","","12.9","","99.73","","","","","","Rain"
"-71.39","46.79","QUEBEC INTL A","7016293","2020-05-03 09:00","2020","05","03","09:00","","7.1","","5.7","","91","","","","5","","13","","16.1","","99.66","","","","","","NA"
"-71.39","46.79","QUEBEC INTL A","7016293","2020-05-03 10:00","2020","05","03","10:00","","8.5","","7.0","","90","","","","6","","16","","16.1","","99.55","","","","","","Mostly Cloudy"
"-71.39","46.79","QUEBEC INTL A","7016293","2020-05-03 11:00","2020","05","03","11:00","","11.1","","7.7","","80","","","","8","","14","","32.2","","99.42","","","","","","NA"
"-71.39","46.79","QUEBEC INTL A","7016293","2020-05-03 12:00","2020","05","03","12:00","","12.0","","7.8","","75","","","","5","","18","","48.3","","99.37","","","","","","NA"
"-71.39","46.79","QUEBEC INTL A","7016293","2020-05-03 13:00","2020","05","03","13:00","","12.8","","8.3","","74","","","","7","","20","","48.3","","99.32","","","","","","Mostly Cloudy"
"-71.39","46.79","QUEBEC INTL A","7016293","2020-05-03 14:00","2020","05","03","14:00","","14.2","","8.2","","67","","","","10","","9","","48.3","","99.28","","","","","","NA"
"-71.39","46.79","QUEBEC INTL A","7016293","2020-05-03 15:00","2020","05","03","15:00","","15.2","","8.1","","62","","","","9","","16","","48.3","","99.24","","","","","","NA"
"-71.39","46.79","QUEBEC INTL A","7016293","2020-05-03 16:00","2020","05","03","16:00","","14.9","","8.2","","64","","","","8","","11","","48.3","","99.24","","","","","","Mostly Cloudy"
"-71.39","46.79","QUEBEC INTL A","7016293","2020-05-03 17:00","2020","05","03","17:00","","10.0","","8.4","","90","","","","4","","20","","12.9","","99.32","","","","","","Thunderstorms,Rain,Snow Pellets,Hail"
"-71.39","46.79","QUEBEC INTL A","7016293","2020-05-03 18:00","2020","05","03","18:00","","9.4","","8.3","","93","","","","7","","12","","48.3","","99.28","","","","","","NA"
"-71.39","46.79","QUEBEC INTL A","7016293","2020-05-03 19:00","2020","05","03","19:00","","8.4","","7.6","","95","","","","4","","15","","16.1","","99.33","","","","","","Cloudy"
"-71.39","46.79","QUEBEC INTL A","7016293","2020-05-03 20:00","2020","05","03","20:00","","8.1","","7.4","","95","","","","10","","17","","16.1","","99.35","","","","","","Rain Showers"
"-71.39","46.79","QUEBEC INTL A","7016293","2020-05-03 21:00","2020","05","03","21:00","","7.6","","7.1","","97","","","","","","0","","4.8","","99.37","","","","","","Rain Showers,Fog"
"-71.39","46.79","QUEBEC INTL A","7016293","2020-05-03 22:00","2020","05","03","22:00","","6.6","","6.0","","96","","","","10","","19","","12.9","","99.25","","","","","","Cloudy"
"-71.39","46.79","QUEBEC INTL A","7016293","2020-05-03 23:00","2020","05","03","23:00","","6.4","","5.8","","96","","","","3","","7","","12.9","","99.32","","","","","","Rain Showers"
"-71.39","46.79","QUEBEC INTL A","7016293","2020-05-04 00:00","2020","05","04","00:00","","6.5","","6.0","","96","","","","36","","7","","12.9","","99.30","","","","","","NA"
"-71.39","46.79","QUEBEC INTL A","7016293","2020-05-04 01:00","2020","05","04","01:00","","6.8","","6.2","","96","","","","14","","5","","16.1","","99.29","","","","","","Cloudy"
"-71.39","46.79","QUEBEC INTL A","7016293","2020-05-04 02:00","2020","05","04","02:00","","6.7","","6.3","","97","","","","4","","4","","9.7","","99.26","","","","","","Rain Showers"
"-71.39","46.79","QUEBEC INTL A","7016293","2020-05-04 03:00","2020","05","04","03:00","","6.7","","6.4","","98","","","","7","","3","","8.1","","99.26","","","","","","Fog"
"-71.39","46.79","QUEBEC INTL A","7016293","2020-05-04 04:00","2020","05","04","04:00","","6.1","","5.8","","98","","","","2","","5","","3.2","","99.26","","","","","","Fog"
"-71.39","46.79","QUEBEC INTL A","7016293","2020-05-04 05:00","2020","05","04","05:00","","6.0","","5.7","","98","","","","8","","7","","1.6","","99.27","","","","","","Fog"
"-71.39","46.79","QUEBEC INTL A","7016293","2020-05-04 06:00","2020","05","04","06:00","","6.1","","5.8","","98","","","","5","","4","","1.6","","99.31","","","","","","Fog"
"-71.39","46.79","QUEBEC INTL A","7016293","2020-05-04 07:00","2020","05","04","07:00","","7.1","","6.8","","98","","","","25","","5","","2.4","","99.30","","","","","","Fog"
"-71.39","46.79","QUEBEC INTL A","7016293","2020-05-04 08:00","2020","05","04","08:00","","8.6","","5.2","","79","","","","32","","10","","24.1","","99.30","","","","","","NA"
"-71.39","46.79","QUEBEC INTL A","7016293","2020-05-04 09:00","2020","05","04","09:00","","8.4","","6.5","","88","","","","5","","10","","24.1","","99.36","","","","","","Rain"
"-71.39","46.79","QUEBEC INTL A","7016293","2020-05-04 10:00","2020","05","04","10:00","","9.0","","4.7","","74","","","","33","","8","","48.3","","99.40","","","","","","Mostly Cloudy"
"-71.39","46.79","QUEBEC INTL A","7016293","2020-05-04 11:00","2020","05","04","11:00","","9.2","","3.8","","69","","","","33","","15","","48.3","","99.42","","","","","","Rain Showers"
"-71.39","46.79","QUEBEC INTL A","7016293","2020-05-04 12:00","2020","05","04","12:00","","9.1","","3.8","","69","","","","32","","13","","48.3","","99.46","","","","","","NA"
"-71.39","46.79","QUEBEC INTL A","7016293","2020-05-04 13:00","2020","05","04","13:00","","8.6","","2.8","","67","","","","31","","17","","48.3","","99.49","","","","","","Cloudy"
"-71.39","46.79","QUEBEC INTL A","7016293","2020-05-04 14:00","2020","05","04","14:00","","8.6","","2.6","","66","","","","34","","13","","48.3","","99.55","","","","","","NA"
"-71.39","46.79","QUEBEC INTL A","7016293","2020-05-04 15:00","2020","05","04","15:00","","8.5","","2.5","","66","","","","31","","7","","48.3","","99.58","","","","","","NA"
"-71.39","46.79","QUEBEC INTL A","7016293","2020-05-04 16:00","2020","05","04","16:00","","8.3","","2.1","","65","","","","34","","5","","24.1","","99.63","","","","","","Cloudy"
"-71.39","46.79","QUEBEC INTL A","7016293","2020-05-04 17:00","2020","05","04","17:00","","8.1","","0.9","","60","","","","33","","15","","24.1","","99.68","","","","","","Rain Showers"
"-71.39","46.79","QUEBEC INTL A","7016293","2020-05-04 18:00","2020","05","04","18:00","","7.3","","1.6","","67","","","","30","","10","","24.1","","99.75","","","","","","Rain Showers"
"-71.39","46.79","QUEBEC INTL A","7016293","2020-05-04 19:00","2020","05","04","19:00","","6.7","","1.3","","69","","","","32","","8","","24.1","","99.83","","","","","","Rain"
"-71.39","46.79","QUEBEC INTL A","7016293","2020-05-04 20:00","2020","05","04","20:00","","6.4","","1.0","","68","","","","30","","11","","24.1","","99.86","","","","","","Rain"
"-71.39","46.79","QUEBEC INTL A","7016293","2020-05-04 21:00","2020","05","04","21:00","","5.9","","0.8","","70","","","","28","","9","","24.1","","99.87","","","","","","NA"
"-71.39","46.79","QUEBEC INTL A","7016293","2020-05-04 22:00","2020","05","04","22:00","","5.7","","0.6","","69","","","","29","","8","","24.1","","99.87","","","","","","Cloudy"
"-71.39","46.79","QUEBEC INTL A","7016293","2020-05-04 23:00","2020","05","04","23:00","","5.5","","0.2","","69","","","","35","","4","","24.1","","99.91","","","","","","NA"
"-71.39","46.79","QUEBEC INTL A","7016293","2020-05-05 00:00","2020","05","05","00:00","","4.1","","2.8","","92","","","","9","","14","","24.1","","99.93","","","","","","NA"
"-71.39","46.79","QUEBEC INTL A","7016293","2020-05-05 01:00","2020","05","05","01:00","","3.7","","2.6","","93","","","","","","0","","24.1","","99.93","","","","","","Cloudy"
"-71.39","46.79","QUEBEC INTL A","7016293","2020-05-05 02:00","2020","05","05","02:00","","3.8","","0.7","","80","","","","32","","3","","24.1","","99.90","","","","","","NA"
"-71.39","46.79","QUEBEC INTL A","7016293","2020-05-05 03:00","2020","05","05","03:00","","3.7","","0.8","","81","","","","32","","4","","24.1","","99.89","","","","","","NA"
"-71.39","46.79","QUEBEC INTL A","7016293","2020-05-05 04:00","2020","05","05","04:00","","3.1","","2.1","","93","","","","","","0","","24.1","","99.89","","","","","","Cloudy"
"-71.39","46.79","QUEBEC INTL A","7016293","2020-05-05 05:00","2020","05","05","05:00","","3.6","","-0.4","","75","","","","32","","6","","48.3","","99.96","","","","","","NA"
"-71.39","46.79","QUEBEC INTL A","7016293","2020-05-05 06:00","2020","05","05","06:00","","4.1","","-0.7","","71","","","","33","","6","","48.3","","100.04","","","","","","NA"
"-71.39","46.79","QUEBEC INTL A","7016293","2020-05-05 07:00","2020","05","05","07:00","","4.2","","2.0","","85","","","","7","","11","","48.3","","100.10","","","","","","Cloudy"
"-71.39","46.79","QUEBEC INTL A","7016293","2020-05-05 08:00","2020","05","05","08:00","","4.6","","1.1","","78","","","","","","0","","48.3","","100.14","","","","","","NA"
"-71.39","46.79","QUEBEC INTL A","7016293","2020-05-05 09:00","2020","05","05","09:00","","6.9","","0.8","","65","","","","19","","6","","48.3","","100.15","","","","","","NA"
"-71.39","46.79","QUEBEC INTL A","7016293","2020-05-05 10:00","2020","05","05","10:00","","7.8","","0.5","","60","","","","28","","6","","48.3","","100.15","","","","","","Mostly Cloudy"
"-71.39","46.79","QUEBEC INTL A","7016293","2020-05-05 11:00","2020","05","05","11:00","","8.1","","1.4","","62","","","","22","","17","","48.3","","100.13","","","","","","NA"
"-71.39","46.79","QUEBEC INTL A","7016293","2020-05-05 12:00","2020","05","05","12:00","","6.7","","2.2","","73","","","","17","","13","","24.1","","100.17","","","","","","Rain Showers"
"-71.39","46.79","QUEBEC INTL A","7016293","2020-05-05 13:00","2020","05","05","13:00","","8.7","","1.8","","62","","","","","","0","","24.1","","100.21","","","","","","Mostly Cloudy"
"-71.39","46.79","QUEBEC INTL A","7016293","2020-05-05 14:00","2020","05","05","14:00","","7.5","","3.7","","77","","","","8","","16","","24.1","","100.23","","","","","","NA"
"-71.39","46.79","QUEBEC INTL A","7016293","2020-05-05 15:00","2020","05","05","15:00","","7.2","","4.6","","84","","","","7","","16","","24.1","","100.23","","","","","","Rain Showers"
"-71.39","46.79","QUEBEC INTL A","7016293","2020-05-05 16:00","2020","05","05","16:00","","8.0","","3.2","","72","","","","7","","5","","48.3","","100.26","","","","","","Mostly Cloudy"
"-71.39","46.79","QUEBEC INTL A","7016293","2020-05-05 17:00","2020","05","05","17:00","","7.2","","2.0","","69","","","","6","","20","","48.3","","100.33","","","","","","NA"
"-71.39","46.79","QUEBEC INTL A","7016293","2020-05-05 18:00","2020","05","05","18:00","","5.9","","1.4","","73","","","","8","","18","","48.3","","100.41","","","","","","NA"
"-71.39","46.79","QUEBEC INTL A","7016293","2020-05-05 19:00","2020","05","05","19:00","","4.7","","1.2","","78","","","","9","","11","","24.1","","100.48","","","","","","Mostly Cloudy"
"-71.39","46.79","QUEBEC INTL A","7016293","2020-05-05 20:00","2020","05","05","20:00","","4.7","","1.7","","81","","","","9","","8","","24.1","","100.53","","","","","","NA"
"-71.39","46.79","QUEBEC INTL A","7016293","2020-05-05 21:00","2020","05","05","21:00","","4.0","","2.1","","87","","","","","","0","","24.1","","100.54","","","","","","NA"
"-71.39","46.79","QUEBEC INTL A","7016293","2020-05-05 22:00","2020","05","05","22:00","","3.6","","2.1","","90","","","","30","","7","","24.1","","100.49","","","","","","Mostly Cloudy"
"-71.39","46.79","QUEBEC INTL A","7016293","2020-05-05 23:00","2020","05","05","23:00","","2.7","","1.8","","94","","","","32","","5","","24.1","","100.46","","","","","","NA"
"-71.39","46.79","QUEBEC INTL A","7016293","2020-05-06 00:00","2020","05","06","00:00","","1.0","","0.6","","97","","","","","","0","","24.1","","100.43","","","","","","NA"
"-71.39","46.79","QUEBEC INTL A","7016293","2020-05-06 01:00","2020","05","06","01:00","","0.5","","0.0","","96","","","","29","","5","","24.1","","100.41","","","","","","Mainly Clear"
"-71.39","46.79","QUEBEC INTL A","7016293","2020-05-06 02:00","2020","05","06","02:00","","-0.1","","-0.6","","97","","","","27","","4","","24.1","","100.38","","","","-1","","NA"
"-71.39","46.79","QUEBEC INTL A","7016293","2020-05-06 03:00","2020","05","06","03:00","","-0.2","","-0.5","","97","","","","24","","6","","24.1","","100.39","","","","-2","","NA"
"-71.39","46.79","QUEBEC INTL A","7016293","2020-05-06 04:00","2020","05","06","04:00","","-0.6","","-1.0","","97","","","","22","","5","","24.1","","100.42","","","","-2","","Mainly Clear"
"-71.39","46.79","QUEBEC INTL A","7016293","2020-05-06 05:00","2020","05","06","05:00","","0.2","","-1.3","","90","","","","24","","5","","48.3","","100.47","","","","","","NA"
"-71.39","46.79","QUEBEC INTL A","7016293","2020-05-06 06:00","2020","05","06","06:00","","3.7","","0.9","","82","","","","20","","8","","48.3","","100.48","","","","","","NA"
"-71.39","46.79","QUEBEC INTL A","7016293","2020-05-06 07:00","2020","05","06","07:00","","6.2","","-0.3","","63","","","","20","","6","","48.3","","100.47","","","","","","Clear"
"-71.39","46.79","QUEBEC INTL A","7016293","2020-05-06 08:00","2020","05","06","08:00","","8.3","","-1.6","","49","","","","23","","5","","48.3","","100.45","","","","","","NA"
"-71.39","46.79","QUEBEC INTL A","7016293","2020-05-06 09:00","2020","05","06","09:00","","9.7","","-2.5","","42","","","","25","","21","","48.3","","100.36","","","","","","NA"
"-71.39","46.79","QUEBEC INTL A","7016293","2020-05-06 10:00","2020","05","06","10:00","","11.2","","-2.3","","39","","","","30","","9","","48.3","","100.30","","","","","","Mainly Clear"
"-71.39","46.79","QUEBEC INTL A","7016293","2020-05-06 11:00","2020","05","06","11:00","","11.5","","-3.8","","34","","","","27","","16","","48.3","","100.21","","","","","","NA"
"-71.39","46.79","QUEBEC INTL A","7016293","2020-05-06 12:00","2020","05","06","12:00","","12.2","","-3.8","","32","","","","30","","10","","48.3","","100.17","","","","","","NA"
"-71.39","46.79","QUEBEC INTL A","7016293","2020-05-06 13:00","2020","05","06","13:00","","12.5","","-5.6","","28","","","","32","","9","","48.3","","100.12","","","","","","Mainly Clear"
"-71.39","46.79","QUEBEC INTL A","7016293","2020-05-06 14:00","2020","05","06","14:00","","13.3","","-6.8","","24","","","","29","","11","","48.3","","100.07","","","","","","NA"
"-71.39","46.79","QUEBEC INTL A","7016293","2020-05-06 15:00","2020","05","06","15:00","","13.6","","-6.1","","25","","","","29","","12","","48.3","","99.99","","","","","","NA"
"-71.39","46.79","QUEBEC INTL A","7016293","2020-05-06 16:00","2020","05","06","16:00","","13.8","","-7.1","","23","","","","28","","12","","48.3","","99.97","","","","","","Mainly Clear"
"-71.39","46.79","QUEBEC INTL A","7016293","2020-05-06 17:00","2020","05","06","17:00","","13.7","","-7.7","","22","","","","31","","11","","48.3","","99.95","","","","","","NA"
"-71.39","46.79","QUEBEC INTL A","7016293","2020-05-06 18:00","2020","05","06","18:00","","12.5","","-6.4","","26","","","","30","","8","","48.3","","99.95","","","","","","NA"
"-71.39","46.79","QUEBEC INTL A","7016293","2020-05-06 19:00","2020","05","06","19:00","","10.3","","-8.6","","26","","","","31","","8","","24.1","","99.98","","","","","","Mainly Clear"
"-71.39","46.79","QUEBEC INTL A","7016293","2020-05-06 20:00","2020","05","06","20:00","","8.2","","-8.2","","30","","","","36","","4","","24.1","","100.05","","","","","","NA"
"-71.39","46.79","QUEBEC INTL A","7016293","2020-05-06 21:00","2020","05","06","21:00","","7.6","","-8.8","","30","","","","35","","7","","24.1","","100.07","","","","","","NA"
"-71.39","46.79","QUEBEC INTL A","7016293","2020-05-06 22:00","2020","05","06","22:00","","6.3","","-8.4","","34","","","","1","","7","","24.1","","100.05","","","","","","Mainly Clear"
"-71.39","46.79","QUEBEC INTL A","7016293","2020-05-06 23:00","2020","05","06","23:00","","5.1","","-9.0","","35","","","","35","","5","","24.1","","100.01","","","","","","NA"
"-71.39","46.79","QUEBEC INTL A","7016293","2020-05-07 00:00","2020","05","07","00:00","","3.0","","-8.6","","42","","","","34","","7","","24.1","","99.97","","","","","","NA"
"-71.39","46.79","QUEBEC INTL A","7016293","2020-05-07 01:00","2020","05","07","01:00","","2.2","","-8.2","","46","","","","34","","6","","24.1","","99.93","","","","","","Mainly Clear"
"-71.39","46.79","QUEBEC INTL A","7016293","2020-05-07 02:00","2020","05","07","02:00","","2.1","","-8.2","","46","","","","1","","7","","24.1","","99.90","","","","","","NA"
"-71.39","46.79","QUEBEC INTL A","7016293","2020-05-07 03:00","2020","05","07","03:00","","2.1","","-8.2","","46","","","","35","","9","","24.1","","99.83","","","","","","NA"
"-71.39","46.79","QUEBEC INTL A","7016293","2020-05-07 04:00","2020","05","07","04:00","","1.3","","-7.9","","50","","","","34","","8","","24.1","","99.81","","","","","","Clear"
"-71.39","46.79","QUEBEC INTL A","7016293","2020-05-07 05:00","2020","05","07","05:00","","1.4","","-8.1","","50","","","","33","","7","","48.3","","99.80","","","","","","NA"
"-71.39","46.79","QUEBEC INTL A","7016293","2020-05-07 06:00","2020","05","07","06:00","","4.2","","-6.9","","44","","","","1","","5","","48.3","","99.80","","","","","","NA"
"-71.39","46.79","QUEBEC INTL A","7016293","2020-05-07 07:00","2020","05","07","07:00","","6.8","","-7.8","","35","","","","2","","6","","48.3","","99.79","","","","","","Mainly Clear"
"-71.39","46.79","QUEBEC INTL A","7016293","2020-05-07 08:00","2020","05","07","08:00","","8.4","","-9.1","","28","","","","11","","3","","48.3","","99.78","","","","","","NA"
"-71.39","46.79","QUEBEC INTL A","7016293","2020-05-07 09:00","2020","05","07","09:00","","10.0","","-9.0","","25","","","","15","","5","","48.3","","99.70","","","","","","NA"
"-71.39","46.79","QUEBEC INTL A","7016293","2020-05-07 10:00","2020","05","07","10:00","","11.4","","-6.0","","29","","","","19","","6","","48.3","","99.63","","","","","","Mainly Clear"
"-71.39","46.79","QUEBEC INTL A","7016293","2020-05-07 11:00","2020","05","07","11:00","","12.2","","-6.4","","27","","","","14","","13","","48.3","","99.53","","","","","","NA"
"-71.39","46.79","QUEBEC INTL A","7016293","2020-05-07 12:00","2020","05","07","12:00","","13.9","","-6.5","","24","","","","21","","16","","48.3","","99.48","","","","","","NA"
"-71.39","46.79","QUEBEC INTL A","7016293","2020-05-07 13:00","2020","05","07","13:00","","15.1","","-5.8","","23","","","","23","","25","","48.3","","99.39","","","","","","Mainly Clear"
"-71.39","46.79","QUEBEC INTL A","7016293","2020-05-07 14:00","2020","05","07","14:00","","15.0","","-5.9","","23","","","","23","","19","","48.3","","99.33","","","","","","NA"
"-71.39","46.79","QUEBEC INTL A","7016293","2020-05-07 15:00","2020","05","07","15:00","","14.7","","-5.7","","24","","","","22","","25","","40.2","","99.28","","","","","","NA"
"-71.39","46.79","QUEBEC INTL A","7016293","2020-05-07 16:00","2020","05","07","16:00","","14.7","","-5.2","","25","","","","22","","23","","48.3","","99.25","","","","","","Mainly Clear"
"-71.39","46.79","QUEBEC INTL A","7016293","2020-05-07 17:00","2020","05","07","17:00","","14.0","","-6.2","","24","","","","23","","17","","48.3","","99.25","","","","","","NA"
"-71.39","46.79","QUEBEC INTL A","7016293","2020-05-07 18:00","2020","05","07","18:00","","13.0","","-7.2","","24","","","","21","","9","","48.3","","99.24","","","","","","NA"
"-71.39","46.79","QUEBEC INTL A","7016293","2020-05-07 19:00","2020","05","07","19:00","","11.1","","-3.7","","35","","","","24","","9","","40.2","","99.24","","","","","","Mostly Cloudy"
"-71.39","46.79","QUEBEC INTL A","7016293","2020-05-07 20:00","2020","05","07","20:00","","9.2","","0.4","","54","","","","30","","10","","24.1","","99.32","","","","","","NA"
"-71.39","46.79","QUEBEC INTL A","7016293","2020-05-07 21:00","2020","05","07","21:00","","7.8","","1.2","","63","","","","32","","13","","22.5","","99.29","","","","","","NA"
"-71.39","46.79","QUEBEC INTL A","7016293","2020-05-07 22:00","2020","05","07","22:00","","7.1","","1.5","","68","","","","","","0","","24.1","","99.27","","","","","","Mostly Cloudy"
"-71.39","46.79","QUEBEC INTL A","7016293","2020-05-07 23:00","2020","05","07","23:00","","6.4","","1.9","","73","","","","27","","10","","24.1","","99.24","","","","","","NA"
"-71.39","46.79","QUEBEC INTL A","7016293","2020-05-08 00:00","2020","05","08","00:00","","3.8","","1.7","","86","","","","27","","23","","16.1","","99.22","","","","","","Rain"
"-71.39","46.79","QUEBEC INTL A","7016293","2020-05-08 01:00","2020","05","08","01:00","","1.5","","0.3","","92","","","","27","","20","","6.4","","99.33","","","","","","Rain,Snow"
"-71.39","46.79","QUEBEC INTL A","7016293","2020-05-08 02:00","2020","05","08","02:00","","1.4","","0.1","","92","","","","26","","19","","12.9","","99.33","","","","","","Snow"
"-71.39","46.79","QUEBEC INTL A","7016293","2020-05-08 03:00","2020","05","08","03:00","","1.2","","-1.0","","85","","","","27","","15","","24.1","","99.36","","","","","","NA"
"-71.39","46.79","QUEBEC INTL A","7016293","2020-05-08 04:00","2020","05","08","04:00","","-0.1","","-1.9","","87","","","","25","","22","","24.1","","99.40","","","","-6","","Cloudy"
"-71.39","46.79","QUEBEC INTL A","7016293","2020-05-08 05:00","2020","05","08","05:00","","-1.1","","-3.1","","86","","","","24","","19","","24.1","","99.46","","","","-6","","NA"
"-71.39","46.79","QUEBEC INTL A","7016293","2020-05-08 06:00","2020","05","08","06:00","","-0.4","","-3.1","","82","","","","27","","14","","24.1","","99.49","","","","-5","","NA"
"-71.39","46.79","QUEBEC INTL A","7016293","2020-05-08 07:00","2020","05","08","07:00","","0.2","","-3.2","","78","","","","24","","22","","48.3","","99.56","","","","","","Mainly Clear"
"-71.39","46.79","QUEBEC INTL A","7016293","2020-05-08 08:00","2020","05","08","08:00","","1.7","","-3.6","","68","","","","26","","19","","48.3","","99.58","","","","","","NA"
"-71.39","46.79","QUEBEC INTL A","7016293","2020-05-08 09:00","2020","05","08","09:00","","2.7","","-5.1","","56","","","","28","","13","","48.3","","99.59","","","","","","NA"
"-71.39","46.79","QUEBEC INTL A","7016293","2020-05-08 10:00","2020","05","08","10:00"
"-71.39","46.79","QUEBEC INTL A","7016293","2020-05-08 11:00","2020","05","08","11:00","","5.2","","-5.3","","46","","","","25","","22","","48.3","","99.61","","","","","","NA"
"-71.39","46.79","QUEBEC INTL A","7016293","2020-05-08 12:00","2020","05","08","12:00","","5.7","","-7.3","","38","","","","26","","29","","48.3","","99.60","","","","","","NA"
"-71.39","46.79","QUEBEC INTL A","7016293","2020-05-08 13:00","2020","05","08","13:00","","7.9","","-4.9","","40","","","","23","","32","","48.3","","99.55","","","","","","Mainly Clear"
"-71.39","46.79","QUEBEC INTL A","7016293","2020-05-08 14:00","2020","05","08","14:00","","7.6","","-7.1","","35","","","","22","","34","","48.3","","99.55","","","","","","NA"
"-71.39","46.79","QUEBEC INTL A","7016293","2020-05-08 15:00","2020","05","08","15:00","","7.5","","-8.1","","32","","","","23","","19","","48.3","","99.54","","","","","","NA"
"-71.39","46.79","QUEBEC INTL A","7016293","2020-05-08 16:00","2020","05","08","16:00","","6.6","","-7.3","","36","","","","22","","24","","48.3","","99.54","","","","","","Mainly Clear"
"-71.39","46.79","QUEBEC INTL A","7016293","2020-05-08 17:00","2020","05","08","17:00","","6.2","","-8.0","","35","","","","23","","22","","48.3","","99.54","","","","","","NA"
"-71.39","46.79","QUEBEC INTL A","7016293","2020-05-08 18:00","2020","05","08","18:00","","5.7","","-6.3","","42","","","","25","","19","","40.2","","99.56","","","","","","NA"
"-71.39","46.79","QUEBEC INTL A","7016293","2020-05-08 19:00","2020","05","08","19:00","","3.8","","-4.2","","56","","","","31","","11","","32.2","","99.61","","","","","","Mostly Cloudy"
"-71.39","46.79","QUEBEC INTL A","7016293","2020-05-08 20:00","2020","05","08","20:00","","2.3","","-2.4","","71","","","","29","","9","","24.1","","99.72","","","","","","NA"
"-71.39","46.79","QUEBEC INTL A","7016293","2020-05-08 21:00","2020","05","08","21:00","","0.6","","-1.6","","85","","","","35","","7","","24.1","","99.64","","","","","","NA"
"-71.39","46.79","QUEBEC INTL A","7016293","2020-05-08 22:00","2020","05","08","22:00","","0.6","","-2.0","","82","","","","1","","4","","24.1","","99.56","","","","","","Mainly Clear"
"-71.39","46.79","QUEBEC INTL A","7016293","2020-05-08 23:00","2020","05","08","23:00","","-0.3","","-2.0","","88","","","","","","0","","24.1","","99.51","","","","","","NA"
"-71.39","46.79","QUEBEC INTL A","7016293","2020-05-09 00:00","2020","05","09","00:00","","-1.0","","-2.9","","87","","","","","","0","","24.1","","99.48","","","","","","NA"
"-71.39","46.79","QUEBEC INTL A","7016293","2020-05-09 01:00","2020","05","09","01:00","","0.3","","-4.1","","72","","","","35","","5","","24.1","","99.44","","","","","","Mostly Cloudy"
"-71.39","46.79","QUEBEC INTL A","7016293","2020-05-09 02:00","2020","05","09","02:00","","0.3","","-4.8","","68","","","","35","","5","","24.1","","99.39","","","","","","NA"
"-71.39","46.79","QUEBEC INTL A","7016293","2020-05-09 03:00","2020","05","09","03:00","","0.2","","-5.7","","64","","","","35","","7","","24.1","","99.33","","","","","","NA"
"-71.39","46.79","QUEBEC INTL A","7016293","2020-05-09 04:00","2020","05","09","04:00","","0.3","","-7.2","","57","","","","35","","11","","24.1","","99.31","","","","","","Mostly Cloudy"
"-71.39","46.79","QUEBEC INTL A","7016293","2020-05-09 05:00","2020","05","09","05:00","","0.2","","-8.4","","53","","","","35","","9","","24.1","","99.32","","","","","","NA"
"-71.39","46.79","QUEBEC INTL A","7016293","2020-05-09 06:00","2020","05","09","06:00","","0.3","","-8.6","","51","","","","36","","10","","48.3","","99.32","","","","","","NA"
"-71.39","46.79","QUEBEC INTL A","7016293","2020-05-09 07:00","2020","05","09","07:00","","0.9","","-9.4","","46","","","","34","","13","","48.3","","99.28","","","","","","Mostly Cloudy"
"-71.39","46.79","QUEBEC INTL A","7016293","2020-05-09 08:00","2020","05","09","08:00","","2.8","","-8.5","","44","","","","29","","11","","48.3","","99.21","","","","","","NA"
"-71.39","46.79","QUEBEC INTL A","7016293","2020-05-09 09:00","2020","05","09","09:00","","3.8","","-9.3","","38","","","","28","","14","","48.3","","99.12","","","","","","NA"
"-71.39","46.79","QUEBEC INTL A","7016293","2020-05-09 10:00","2020","05","09","10:00","","5.1","","-8.5","","37","","","","27","","19","","48.3","","99.07","","","","","","Mostly Cloudy"
"-71.39","46.79","QUEBEC INTL A","7016293","2020-05-09 11:00","2020","05","09","11:00","","5.6","","-9.6","","33","","","","28","","23","","48.3","","99.00","","","","","","NA"
"-71.39","46.79","QUEBEC INTL A","7016293","2020-05-09 12:00","2020","05","09","12:00","","5.4","","-9.1","","34","","","","30","","16","","48.3","","98.96","","","","","","NA"
"-71.39","46.79","QUEBEC INTL A","7016293","2020-05-09 13:00","2020","05","09","13:00","","5.5","","-8.6","","35","","","","30","","22","","48.3","","98.95","","","","","","Cloudy"
"-71.39","46.79","QUEBEC INTL A","7016293","2020-05-09 14:00","2020","05","09","14:00","","5.1","","-7.9","","38","","","","29","","18","","48.3","","98.98","","","","","","NA"
"-71.39","46.79","QUEBEC INTL A","7016293","2020-05-09 15:00","2020","05","09","15:00","","4.5","","-8.6","","38","","","","30","","24","","32.2","","99.01","","","","","","NA"
"-71.39","46.79","QUEBEC INTL A","7016293","2020-05-09 16:00","2020","05","09","16:00","","4.0","","-6.9","","45","","","","31","","18","","32.2","","99.06","","","","","","Cloudy"
"-71.39","46.79","QUEBEC INTL A","7016293","2020-05-09 17:00","2020","05","09","17:00","","3.6","","-6.9","","46","","","","27","","17","","32.2","","99.07","","","","","","NA"
"-71.39","46.79","QUEBEC INTL A","7016293","2020-05-09 18:00","2020","05","09","18:00","","3.1","","-5.4","","54","","","","27","","32","","32.2","","99.17","","","","","","Snow Showers"
"-71.39","46.79","QUEBEC INTL A","7016293","2020-05-09 19:00","2020","05","09","19:00","","3.1","","-5.7","","52","","","","28","","23","","24.1","","99.22","","","","","","Cloudy"
"-71.39","46.79","QUEBEC INTL A","7016293","2020-05-09 20:00","2020","05","09","20:00","","2.6","","-5.8","","54","","","","28","","22","","24.1","","99.31","","","","","","NA"
"-71.39","46.79","QUEBEC INTL A","7016293","2020-05-09 21:00","2020","05","09","21:00","","1.4","","-7.7","","51","","","","30","","21","","24.1","","99.48","","","","","","NA"
"-71.39","46.79","QUEBEC INTL A","7016293","2020-05-09 22:00","2020","05","09","22:00","","0.6","","-8.1","","52","","","","30","","13","","19.3","","99.57","","","","","","Cloudy"
"-71.39","46.79","QUEBEC INTL A","7016293","2020-05-09 23:00","2020","05","09","23:00","","0.5","","-8.7","","50","","","","31","","22","","24.1","","99.62","","","","","","NA"
"-71.39","46.79","QUEBEC INTL A","7016293","2020-05-10 00:00","2020","05","10","00:00","","0.5","","-9.7","","47","","","","28","","21","","24.1","","99.65","","","","","","NA"
"-71.39","46.79","QUEBEC INTL A","7016293","2020-05-10 01:00","2020","05","10","01:00","","0.4","","-8.5","","51","","","","28","","19","","24.1","","99.65","","","","","","Cloudy"
"-71.39","46.79","QUEBEC INTL A","7016293","2020-05-10 02:00","2020","05","10","02:00","","0.2","","-9.5","","48","","","","27","","18","","24.1","","99.69","","","","","","NA"
"-71.39","46.79","QUEBEC INTL A","7016293","2020-05-10 03:00","2020","05","10","03:00","","-0.1","","-8.5","","53","","","","26","","24","","24.1","","99.71","","","","-6","","NA"
"-71.39","46.79","QUEBEC INTL A","7016293","2020-05-10 04:00","2020","05","10","04:00","","0.0","","-8.3","","54","","","","25","","22","","24.1","","99.71","","","","-6","","Cloudy"
"-71.39","46.79","QUEBEC INTL A","7016293","2020-05-10 05:00","2020","05","10","05:00","","0.4","","-7.6","","55","","","","25","","24","","24.1","","99.73","","","","","","NA"
"-71.39","46.79","QUEBEC INTL A","7016293","2020-05-10 06:00","2020","05","10","06:00","","0.8","","-6.6","","58","","","","26","","29","","40.2","","99.75","","","","","","NA"
"-71.39","46.79","QUEBEC INTL A","7016293","2020-05-10 07:00","2020","05","10","07:00","","2.1","","-6.0","","55","","","","26","","30","","32.2","","99.74","","","","","","Mostly Cloudy"
"-71.39","46.79","QUEBEC INTL A","7016293","2020-05-10 08:00","2020","05","10","08:00","","2.9","","-6.4","","50","","","","26","","35","","32.2","","99.71","","","","","","NA"
"-71.39","46.79","QUEBEC INTL A","7016293","2020-05-10 09:00","2020","05","10","09:00","","4.2","","-6.8","","45","","","","27","","33","","40.2","","99.66","","","","","","NA"
"-71.39","46.79","QUEBEC INTL A","7016293","2020-05-10 10:00","2020","05","10","10:00","","5.3","","-6.0","","44","","","","26","","26","","48.3","","99.64","","","","","","Mostly Cloudy"
"-71.39","46.79","QUEBEC INTL A","7016293","2020-05-10 11:00","2020","05","10","11:00","","5.8","","-5.8","","43","","","","27","","29","","48.3","","99.61","","","","","","NA"
"-71.39","46.79","QUEBEC INTL A","7016293","2020-05-10 12:00","2020","05","10","12:00","","6.5","","-5.6","","42","","","","25","","41","","40.2","","99.59","","","","","","NA"
"-71.39","46.79","QUEBEC INTL A","7016293","2020-05-10 13:00","2020","05","10","13:00","","7.4","","-3.7","","45","","","","26","","29","","48.3","","99.60","","","","","","Cloudy"
"-71.39","46.79","QUEBEC INTL A","7016293","2020-05-10 14:00","2020","05","10","14:00","","7.2","","-5.3","","41","","","","28","","37","","40.2","","99.55","","","","","","NA"
"-71.39","46.79","QUEBEC INTL A","7016293","2020-05-10 15:00","2020","05","10","15:00","","7.2","","-4.8","","42","","","","26","","38","","48.3","","99.58","","","","","","NA"
"-71.39","46.79","QUEBEC INTL A","7016293","2020-05-10 16:00","2020","05","10","16:00","","6.6","","-5.3","","42","","","","26","","32","","40.2","","99.62","","","","","","Cloudy"
"-71.39","46.79","QUEBEC INTL A","7016293","2020-05-10 17:00","2020","05","10","17:00","","6.5","","-4.5","","46","","","","27","","33","","48.3","","99.69","","","","","","NA"
"-71.39","46.79","QUEBEC INTL A","7016293","2020-05-10 18:00","2020","05","10","18:00","","5.7","","-3.5","","52","","","","27","","20","","48.3","","99.76","","","","","","NA"
"-71.39","46.79","QUEBEC INTL A","7016293","2020-05-10 19:00","2020","05","10","19:00","","4.7","","-2.9","","58","","","","27","","19","","48.3","","99.81","","","","","","Cloudy"
"-71.39","46.79","QUEBEC INTL A","7016293","2020-05-10 20:00","2020","05","10","20:00","","5.0","","-3.9","","53","","","","26","","28","","48.3","","99.84","","","","","","NA"
"-71.39","46.79","QUEBEC INTL A","7016293","2020-05-10 21:00","2020","05","10","21:00","","4.9","","-4.2","","52","","","","26","","27","","24.1","","99.86","","","","","","NA"
"-71.39","46.79","QUEBEC INTL A","7016293","2020-05-10 22:00","2020","05","10","22:00","","4.2","","-4.0","","56","","","","25","","24","","24.1","","99.86","","","","","","Mostly Cloudy"
"-71.39","46.79","QUEBEC INTL A","7016293","2020-05-10 23:00","2020","05","10","23:00","","4.0","","-4.3","","54","","","","26","","23","","24.1","","99.86","","","","","","NA"
"-71.39","46.79","QUEBEC INTL A","7016293","2020-05-11 00:00","2020","05","11","00:00","","3.7","","-4.2","","56","","","","25","","20","","24.1","","99.89","","","","","","NA"
"-71.39","46.79","QUEBEC INTL A","7016293","2020-05-11 01:00","2020","05","11","01:00","","3.4","","-3.8","","60","","","","25","","15","","24.1","","99.91","","","","","","Cloudy"
"-71.39","46.79","QUEBEC INTL A","7016293","2020-05-11 02:00","2020","05","11","02:00","","2.7","","-3.7","","63","","","","25","","21","","24.1","","99.93","","","","","","NA"
"-71.39","46.79","QUEBEC INTL A","7016293","2020-05-11 03:00","2020","05","11","03:00","","1.8","","-4.6","","62","","","","25","","11","","24.1","","99.98","","","","","","NA"
"-71.39","46.79","QUEBEC INTL A","7016293","2020-05-11 04:00","2020","05","11","04:00","","1.8","","-4.5","","63","","","","26","","18","","24.1","","100.01","","","","","","Mostly Cloudy"
"-71.39","46.79","QUEBEC INTL A","7016293","2020-05-11 05:00","2020","05","11","05:00","","2.1","","-4.3","","63","","","","26","","15","","48.3","","100.07","","","","","","NA"
"-71.39","46.79","QUEBEC INTL A","7016293","2020-05-11 06:00","2020","05","11","06:00","","3.6","","-4.3","","56","","","","26","","20","","48.3","","100.12","","","","","","NA"
"-71.39","46.79","QUEBEC INTL A","7016293","2020-05-11 07:00","2020","05","11","07:00","","4.7","","-3.4","","56","","","","26","","18","","48.3","","100.16","","","","","","Mostly Cloudy"
"-71.39","46.79","QUEBEC INTL A","7016293","2020-05-11 08:00","2020","05","11","08:00","","5.3","","-3.0","","55","","","","24","","16","","48.3","","100.18","","","","","","NA"
"-71.39","46.79","QUEBEC INTL A","7016293","2020-05-11 09:00","2020","05","11","09:00","","7.1","","-3.0","","49","","","","23","","21","","48.3","","100.18","","","","","","NA"
"-71.39","46.79","QUEBEC INTL A","7016293","2020-05-11 10:00","2020","05","11","10:00","","7.9","","-2.3","","48","","","","22","","25","","48.3","","100.16","","","","","","Mainly Clear"
"-71.39","46.79","QUEBEC INTL A","7016293","2020-05-11 11:00","2020","05","11","11:00","","8.6","","-2.4","","46","","","","21","","20","","48.3","","100.13","","","","","","NA"
"-71.39","46.79","QUEBEC INTL A","7016293","2020-05-11 12:00","2020","05","11","12:00","","9.8","","-2.0","","44","","","","20","","22","","48.3","","100.07","","","","","","NA"
"-71.39","46.79","QUEBEC INTL A","7016293","2020-05-11 13:00","2020","05","11","13:00","","10.8","","-2.0","","41","","","","22","","23","","48.3","","100.03","","","","","","Mainly Clear"
"-71.39","46.79","QUEBEC INTL A","7016293","2020-05-11 14:00","2020","05","11","14:00","","12.4","","-0.3","","41","","","","20","","23","","48.3","","100.00","","","","","","NA"
"-71.39","46.79","QUEBEC INTL A","7016293","2020-05-11 15:00","2020","05","11","15:00","","12.4","","-0.5","","41","","","","20","","13","","48.3","","99.94","","","","","","NA"
"-71.39","46.79","QUEBEC INTL A","7016293","2020-05-11 16:00","2020","05","11","16:00","","12.2","","-1.5","","39","","","","20","","15","","48.3","","99.89","","","","","","Mostly Cloudy"
"-71.39","46.79","QUEBEC INTL A","7016293","2020-05-11 17:00","2020","05","11","17:00","","11.4","","-2.1","","39","","","","21","","16","","48.3","","99.89","","","","","","NA"
"-71.39","46.79","QUEBEC INTL A","7016293","2020-05-11 18:00","2020","05","11","18:00","","10.5","","-1.5","","43","","","","22","","14","","48.3","","99.89","","","","","","NA"
"-71.39","46.79","QUEBEC INTL A","7016293","2020-05-11 19:00","2020","05","11","19:00","","9.7","","-2.8","","41","","","","31","","8","","48.3","","99.90","","","","","","Mostly Cloudy"
"-71.39","46.79","QUEBEC INTL A","7016293","2020-05-11 20:00","2020","05","11","20:00","","8.6","","-3.4","","43","","","","35","","8","","24.1","","99.94","","","","","","NA"
"-71.39","46.79","QUEBEC INTL A","7016293","2020-05-11 21:00","2020","05","11","21:00","","7.0","","1.1","","66","","","","9","","15","","32.2","","100.03","","","","","","NA"
"-71.39","46.79","QUEBEC INTL A","7016293","2020-05-11 22:00","2020","05","11","22:00","","6.8","","0.9","","66","","","","8","","13","","24.1","","99.99","","","","","","Rain"
"-71.39","46.79","QUEBEC INTL A","7016293","2020-05-11 23:00","2020","05","11","23:00","","5.2","","1.4","","77","","","","1","","5","","24.1","","100.01","","","","","","Rain"
"-71.39","46.79","QUEBEC INTL A","7016293","2020-05-12 00:00","2020","05","12","00:00","","3.5","","1.1","","84","","","","2","","10","","12.9","","100.04","","","","","","Rain"
"-71.39","46.79","QUEBEC INTL A","7016293","2020-05-12 01:00","2020","05","12","01:00","","1.3","","0.1","","92","","","","3","","10","","11.3","","100.08","","","","","","Snow"
"-71.39","46.79","QUEBEC INTL A","7016293","2020-05-12 02:00","2020","05","12","02:00","","-0.2","","-1.1","","93","","","","36","","9","","3.2","","100.11","","","","-3","","Snow"
"-71.39","46.79","QUEBEC INTL A","7016293","2020-05-12 03:00","2020","05","12","03:00","","-0.4","","-2.3","","87","","","","1","","10","","4.0","","100.16","","","","-4","","Snow"
"-71.39","46.79","QUEBEC INTL A","7016293","2020-05-12 04:00","2020","05","12","04:00","","-1.0","","-2.7","","88","","","","36","","7","","4.0","","100.19","","","","-4","","Snow,Fog"
"-71.39","46.79","QUEBEC INTL A","7016293","2020-05-12 05:00","2020","05","12","05:00","","-0.7","","-3.5","","81","","","","2","","7","","12.9","","100.23","","","","-3","","NA"
"-71.39","46.79","QUEBEC INTL A","7016293","2020-05-12 06:00","2020","05","12","06:00","","-0.4","","-4.1","","76","","","","2","","6","","48.3","","100.25","","","","-2","","NA"
"-71.39","46.79","QUEBEC INTL A","7016293","2020-05-12 07:00","2020","05","12","07:00","","0.2","","-5.3","","67","","","","2","","5","","48.3","","100.29","","","","","","Mostly Cloudy"
"-71.39","46.79","QUEBEC INTL A","7016293","2020-05-12 08:00","2020","05","12","08:00","","0.8","","-7.4","","54","","","","1","","6","","48.3","","100.29","","","","","","NA"
"-71.39","46.79","QUEBEC INTL A","7016293","2020-05-12 09:00","2020","05","12","09:00","","1.8","","-6.7","","53","","","","15","","6","","40.2","","100.28","","","","","","NA"
"-71.39","46.79","QUEBEC INTL A","7016293","2020-05-12 10:00","2020","05","12","10:00","","3.6","","-3.0","","62","","","","17","","9","","48.3","","100.23","","","","","","Mostly Cloudy"
"-71.39","46.79","QUEBEC INTL A","7016293","2020-05-12 11:00","2020","05","12","11:00","","5.5","","-6.4","","42","","","","18","","19","","48.3","","100.16","","","","","","NA"
"-71.39","46.79","QUEBEC INTL A","7016293","2020-05-12 12:00","2020","05","12","12:00","","8.3","","-10.2","","26","","","","32","","16","","48.3","","100.10","","","","","","NA"
"-71.39","46.79","QUEBEC INTL A","7016293","2020-05-12 13:00","2020","05","12","13:00","","8.1","","-9.8","","27","","","","31","","15","","48.3","","100.11","","","","","","Mostly Cloudy"
"-71.39","46.79","QUEBEC INTL A","7016293","2020-05-12 14:00","2020","05","12","14:00","","8.8","","-9.9","","26","","","","28","","21","","48.3","","100.11","","","","","","NA"
"-71.39","46.79","QUEBEC INTL A","7016293","2020-05-12 15:00","2020","05","12","15:00","","8.5","","-12.5","","21","","","","33","","16","","48.3","","100.16","","","","","","NA"
"-71.39","46.79","QUEBEC INTL A","7016293","2020-05-12 16:00","2020","05","12","16:00","","8.5","","-13.1","","20","","","","32","","18","","48.3","","100.19","","","","","","Mainly Clear"
"-71.39","46.79","QUEBEC INTL A","7016293","2020-05-12 17:00","2020","05","12","17:00","","8.3","","-12.4","","22","","","","28","","18","","48.3","","100.27","","","","","","NA"
"-71.39","46.79","QUEBEC INTL A","7016293","2020-05-12 18:00","2020","05","12","18:00","","7.5","","-11.7","","24","","","","30","","12","","48.3","","100.34","","","","","","NA"
"-71.39","46.79","QUEBEC INTL A","7016293","2020-05-12 19:00","2020","05","12","19:00","","5.5","","-11.1","","29","","","","31","","12","","48.3","","100.43","","","","","","Mainly Clear"
"-71.39","46.79","QUEBEC INTL A","7016293","2020-05-12 20:00","2020","05","12","20:00","","4.0","","-10.4","","34","","","","29","","9","","24.1","","100.52","","","","","","NA"
"-71.39","46.79","QUEBEC INTL A","7016293","2020-05-12 21:00","2020","05","12","21:00","","3.2","","-11.3","","34","","","","29","","9","","24.1","","100.59","","","","","","NA"
"-71.39","46.79","QUEBEC INTL A","7016293","2020-05-12 22:00","2020","05","12","22:00","","2.1","","-11.0","","37","","","","29","","7","","24.1","","100.62","","","","","","Clear"
"-71.39","46.79","QUEBEC INTL A","7016293","2020-05-12 23:00","2020","05","12","23:00","","1.7","","-11.3","","38","","","","29","","9","","24.1","","100.66","","","","","","NA"
"-71.39","46.79","QUEBEC INTL A","7016293","2020-05-13 00:00","2020","05","13","00:00","","-1.0","","-10.0","","51","","","","26","","9","","24.1","","100.70","","","","-4","","NA"
"-71.39","46.79","QUEBEC INTL A","7016293","2020-05-13 01:00","2020","05","13","01:00","","-1.2","","-9.9","","52","","","","29","","7","","24.1","","100.72","","","","-4","","Clear"
"-71.39","46.79","QUEBEC INTL A","7016293","2020-05-13 02:00","2020","05","13","02:00","","-1.5","","-9.8","","53","","","","24","","15","","24.1","","100.76","","","","-6","","NA"
"-71.39","46.79","QUEBEC INTL A","7016293","2020-05-13 03:00","2020","05","13","03:00","","-3.5","","-9.9","","62","","","","25","","13","","24.1","","100.82","","","","-8","","NA"
"-71.39","46.79","QUEBEC INTL A","7016293","2020-05-13 04:00","2020","05","13","04:00","","-2.9","","-10.0","","58","","","","27","","11","","24.1","","100.88","","","","-7","","Clear"
"-71.39","46.79","QUEBEC INTL A","7016293","2020-05-13 05:00","2020","05","13","05:00","","-2.0","","-8.6","","61","","","","26","","13","","48.3","","100.95","","","","-6","","NA"
"-71.39","46.79","QUEBEC INTL A","7016293","2020-05-13 06:00","2020","05","13","06:00","","0.6","","-9.1","","48","","","","29","","10","","48.3","","101.03","","","","","","NA"
"-71.39","46.79","QUEBEC INTL A","7016293","2020-05-13 07:00","2020","05","13","07:00","","2.1","","-9.2","","43","","","","31","","10","","48.3","","101.07","","","","","","Clear"
"-71.39","46.79","QUEBEC INTL A","7016293","2020-05-13 08:00","2020","05","13","08:00","","3.5","","-9.5","","38","","","","30","","16","","48.3","","101.10","","","","","","NA"
"-71.39","46.79","QUEBEC INTL A","7016293","2020-05-13 09:00","2020","05","13","09:00","","5.1","","-10.1","","32","","","","29","","18","","48.3","","101.07","","","","","","NA"
"-71.39","46.79","QUEBEC INTL A","7016293","2020-05-13 10:00","2020","05","13","10:00","","6.2","","-11.0","","28","","","","30","","14","","48.3","","101.06","","","","","","Clear"
"-71.39","46.79","QUEBEC INTL A","7016293","2020-05-13 11:00","2020","05","13","11:00","","8.4","","-8.1","","30","","","","28","","18","","48.3","","101.03","","","","","","NA"
"-71.39","46.79","QUEBEC INTL A","7016293","2020-05-13 12:00","2020","05","13","12:00","","9.4","","-9.7","","25","","","","27","","25","","48.3","","100.98","","","","","","NA"
"-71.39","46.79","QUEBEC INTL A","7016293","2020-05-13 13:00","2020","05","13","13:00","","10.6","","-10.8","","21","","","","27","","30","","48.3","","100.94","","","","","","Mostly Cloudy"
"-71.39","46.79","QUEBEC INTL A","7016293","2020-05-13 14:00","2020","05","13","14:00","","12.2","","-11.8","","18","","","","29","","20","","48.3","","100.91","","","","","","NA"
"-71.39","46.79","QUEBEC INTL A","7016293","2020-05-13 15:00","2020","05","13","15:00","","12.5","","-11.0","","18","","","","27","","25","","48.3","","100.90","","","","","","NA"
"-71.39","46.79","QUEBEC INTL A","7016293","2020-05-13 16:00","2020","05","13","16:00","","12.9","","-11.1","","18","","","","29","","20","","48.3","","100.92","","","","","","Mainly Clear"
"-71.39","46.79","QUEBEC INTL A","7016293","2020-05-13 17:00","2020","05","13","17:00","","12.3","","-10.7","","19","","","","28","","16","","48.3","","100.94","","","","","","NA"
"-71.39","46.79","QUEBEC INTL A","7016293","2020-05-13 18:00","2020","05","13","18:00","","11.5","","-11.9","","18","","","","31","","16","","48.3","","100.96","","","","","","NA"
"-71.39","46.79","QUEBEC INTL A","7016293","2020-05-13 19:00","2020","05","13","19:00","","9.6","","-11.6","","21","","","","29","","9","","48.3","","101.03","","","","","","Clear"
"-71.39","46.79","QUEBEC INTL A","7016293","2020-05-13 20:00","2020","05","13","20:00","","8.5","","-11.7","","23","","","","30","","10","","24.1","","101.11","","","","","","NA"
"-71.39","46.79","QUEBEC INTL A","7016293","2020-05-13 21:00","2020","05","13","21:00","","7.7","","-12.0","","23","","","","29","","11","","24.1","","101.19","","","","","","NA"
"-71.39","46.79","QUEBEC INTL A","7016293","2020-05-13 22:00","2020","05","13","22:00","","6.6","","-11.3","","27","","","","30","","9","","24.1","","101.23","","","","","","Clear"
"-71.39","46.79","QUEBEC INTL A","7016293","2020-05-13 23:00","2020","05","13","23:00","","1.7","","-8.4","","47","","","","21","","9","","24.1","","101.23","","","","","","NA"
"-71.39","46.79","QUEBEC INTL A","7016293","2020-05-14 00:00","2020","05","14","00:00","","0.6","","-8.6","","50","","","","23","","9","","24.1","","101.26","","","","","","NA"
"-71.39","46.79","QUEBEC INTL A","7016293","2020-05-14 01:00","2020","05","14","01:00","","1.5","","-9.2","","45","","","","22","","14","","24.1","","101.27","","","","","","Clear"
"-71.39","46.79","QUEBEC INTL A","7016293","2020-05-14 02:00","2020","05","14","02:00","","1.6","","-9.4","","44","","","","22","","16","","24.1","","101.28","","","","","","NA"
"-71.39","46.79","QUEBEC INTL A","7016293","2020-05-14 03:00","2020","05","14","03:00","","-0.1","","-9.1","","51","","","","23","","11","","24.1","","101.30","","","","-4","","NA"
"-71.39","46.79","QUEBEC INTL A","7016293","2020-05-14 04:00","2020","05","14","04:00","","0.2","","-9.8","","47","","","","24","","10","","48.3","","101.33","","","","","","Clear"
"-71.39","46.79","QUEBEC INTL A","7016293","2020-05-14 05:00","2020","05","14","05:00","","2.9","","-8.6","","43","","","","25","","16","","48.3","","101.41","","","","","","NA"
"-71.39","46.79","QUEBEC INTL A","7016293","2020-05-14 06:00","2020","05","14","06:00","","6.2","","-9.1","","33","","","","25","","14","","48.3","","101.46","","","","","","NA"
"-71.39","46.79","QUEBEC INTL A","7016293","2020-05-14 07:00","2020","05","14","07:00","","7.9","","-8.6","","30","","","","28","","8","","48.3","","101.47","","","","","","Clear"
"-71.39","46.79","QUEBEC INTL A","7016293","2020-05-14 08:00","2020","05","14","08:00","","9.6","","-10.2","","24","","","","33","","9","","48.3","","101.44","","","","","","NA"
"-71.39","46.79","QUEBEC INTL A","7016293","2020-05-14 09:00","2020","05","14","09:00","","11.3","","-9.5","","22","","","","29","","7","","48.3","","101.35","","","","","","NA"
"-71.39","46.79","QUEBEC INTL A","7016293","2020-05-14 10:00","2020","05","14","10:00","","13.1","","-8.3","","22","","","","28","","11","","48.3","","101.23","","","","","","Mainly Clear"
"-71.39","46.79","QUEBEC INTL A","7016293","2020-05-14 11:00","2020","05","14","11:00","","14.3","","-9.4","","18","","","","31","","12","","48.3","","101.16","","","","","","NA"
"-71.39","46.79","QUEBEC INTL A","7016293","2020-05-14 12:00","2020","05","14","12:00","","15.4","","-10.7","","15","","","","33","","14","","48.3","","101.09","","","","","","NA"
"-71.39","46.79","QUEBEC INTL A","7016293","2020-05-14 13:00","2020","05","14","13:00","","17.1","","-8.4","","17","","","","25","","21","","48.3","","101.00","","","","","","Mainly Clear"
"-71.39","46.79","QUEBEC INTL A","7016293","2020-05-14 14:00","2020","05","14","14:00","","16.7","","-9.2","","16","","","","24","","16","","48.3","","100.89","","","","","","NA"
"-71.39","46.79","QUEBEC INTL A","7016293","2020-05-14 15:00","2020","05","14","15:00","","17.6","","-10.8","","13","","","","24","","8","","48.3","","100.85","","","","","","NA"
"-71.39","46.79","QUEBEC INTL A","7016293","2020-05-14 16:00","2020","05","14","16:00"
"-71.39","46.79","QUEBEC INTL A","7016293","2020-05-14 17:00","2020","05","14","17:00","","17.5","","-7.8","","17","","","","21","","22","","48.3","","100.75","","","","","","NA"
"-71.39","46.79","QUEBEC INTL A","7016293","2020-05-14 18:00","2020","05","14","18:00","","16.7","","-6.2","","20","","","","23","","13","","48.3","","100.73","","","","","","NA"
"-71.39","46.79","QUEBEC INTL A","7016293","2020-05-14 19:00","2020","05","14","19:00","","15.6","","-7.9","","19","","","","21","","7","","48.3","","100.70","","","","","","Mainly Clear"
"-71.39","46.79","QUEBEC INTL A","7016293","2020-05-14 20:00","2020","05","14","20:00","","12.1","","-5.8","","28","","","","25","","9","","24.1","","100.72","","","","","","NA"
"-71.39","46.79","QUEBEC INTL A","7016293","2020-05-14 21:00","2020","05","14","21:00","","10.6","","-5.0","","33","","","","25","","7","","24.1","","100.72","","","","","","NA"
"-71.39","46.79","QUEBEC INTL A","7016293","2020-05-14 22:00","2020","05","14","22:00","","12.0","","-4.9","","30","","","","4","","8","","24.1","","100.71","","","","","","Mostly Cloudy"
"-71.39","46.79","QUEBEC INTL A","7016293","2020-05-14 23:00","2020","05","14","23:00","","10.5","","-4.6","","34","","","","6","","16","","24.1","","100.74","","","","","","NA"
"-71.39","46.79","QUEBEC INTL A","7016293","2020-05-15 00:00","2020","05","15","00:00","","9.1","","-2.3","","45","","","","5","","4","","24.1","","100.73","","","","","","NA"
"-71.39","46.79","QUEBEC INTL A","7016293","2020-05-15 01:00","2020","05","15","01:00","","8.8","","-3.7","","41","","","","7","","6","","24.1","","100.72","","","","","","Mostly Cloudy"
"-71.39","46.79","QUEBEC INTL A","7016293","2020-05-15 02:00","2020","05","15","02:00","","9.5","","-4.1","","38","","","","10","","6","","24.1","","100.74","","","","","","NA"
"-71.39","46.79","QUEBEC INTL A","7016293","2020-05-15 03:00","2020","05","15","03:00","","8.6","","-3.2","","43","","","","31","","8","","24.1","","100.79","","","","","","NA"
"-71.39","46.79","QUEBEC INTL A","7016293","2020-05-15 04:00","2020","05","15","04:00","","8.0","","-0.6","","54","","","","","","0","","19.3","","100.77","","","","","","Rain"
"-71.39","46.79","QUEBEC INTL A","7016293","2020-05-15 05:00","2020","05","15","05:00","","8.1","","3.0","","70","","","","4","","7","","32.2","","100.71","","","","","","NA"
"-71.39","46.79","QUEBEC INTL A","7016293","2020-05-15 06:00","2020","05","15","06:00","","7.9","","3.7","","74","","","","1","","8","","48.3","","100.71","","","","","","NA"
"-71.39","46.79","QUEBEC INTL A","7016293","2020-05-15 07:00","2020","05","15","07:00","","8.1","","3.9","","75","","","","3","","5","","32.2","","100.75","","","","","","Rain"
"-71.39","46.79","QUEBEC INTL A","7016293","2020-05-15 08:00","2020","05","15","08:00","","9.9","","5.2","","72","","","","4","","10","","32.2","","100.68","","","","","","NA"
"-71.39","46.79","QUEBEC INTL A","7016293","2020-05-15 09:00","2020","05","15","09:00","","11.7","","2.7","","54","","","","8","","14","","48.3","","100.57","","","","","","NA"
"-71.39","46.79","QUEBEC INTL A","7016293","2020-05-15 10:00","2020","05","15","10:00","","12.8","","2.4","","49","","","","6","","18","","48.3","","100.54","","","","","","Mostly Cloudy"
"-71.39","46.79","QUEBEC INTL A","7016293","2020-05-15 11:00","2020","05","15","11:00","","13.8","","2.2","","45","","","","7","","13","","48.3","","100.52","","","","","","NA"
"-71.39","46.79","QUEBEC INTL A","7016293","2020-05-15 12:00","2020","05","15","12:00","","14.9","","2.5","","43","","","","5","","19","","48.3","","100.40","","","","","","NA"
"-71.39","46.79","QUEBEC INTL A","7016293","2020-05-15 13:00","2020","05","15","13:00","","14.4","","2.3","","44","","","","7","","21","","48.3","","100.32","","","","","","Cloudy"
"-71.39","46.79","QUEBEC INTL A","7016293","2020-05-15 14:00","2020","05","15","14:00","","14.8","","3.0","","45","","","","6","","21","","48.3","","100.26","","","","","","NA"
"-71.39","46.79","QUEBEC INTL A","7016293","2020-05-15 15:00","2020","05","15","15:00","","14.0","","1.8","","43","","","","8","","21","","48.3","","100.17","","","","","","NA"
"-71.39","46.79","QUEBEC INTL A","7016293","2020-05-15 16:00","2020","05","15","16:00","","11.7","","2.4","","53","","","","7","","22","","32.2","","100.17","","","","","","Rain"
"-71.39","46.79","QUEBEC INTL A","7016293","2020-05-15 17:00","2020","05","15","17:00","","9.5","","5.1","","74","","","","7","","19","","24.1","","100.16","","","","","","Rain"
"-71.39","46.79","QUEBEC INTL A","7016293","2020-05-15 18:00","2020","05","15","18:00","","8.9","","5.0","","76","","","","8","","19","","16.1","","100.15","","","","","","Rain"
"-71.39","46.79","QUEBEC INTL A","7016293","2020-05-15 19:00","2020","05","15","19:00","","7.8","","5.6","","86","","","","7","","20","","16.1","","100.11","","","","","","Rain"
"-71.39","46.79","QUEBEC INTL A","7016293","2020-05-15 20:00","2020","05","15","20:00","","7.7","","4.8","","82","","","","6","","26","","24.1","","100.10","","","","","","NA"
"-71.39","46.79","QUEBEC INTL A","7016293","2020-05-15 21:00","2020","05","15","21:00","","8.3","","4.9","","79","","","","7","","21","","24.1","","100.14","","","","","","Rain"
"-71.39","46.79","QUEBEC INTL A","7016293","2020-05-15 22:00","2020","05","15","22:00","","7.5","","5.7","","89","","","","7","","21","","19.3","","100.20","","","","","","Cloudy"
"-71.39","46.79","QUEBEC INTL A","7016293","2020-05-15 23:00","2020","05","15","23:00","","7.1","","6.3","","94","","","","7","","13","","16.1","","100.19","","","","","","Rain"
"-71.39","46.79","QUEBEC INTL A","7016293","2020-05-16 00:00","2020","05","16","00:00","","7.2","","6.5","","95","","","","36","","5","","19.3","","100.20","","","","","","Rain"
"-71.39","46.79","QUEBEC INTL A","7016293","2020-05-16 01:00","2020","05","16","01:00","","7.5","","6.9","","96","","","","1","","6","","19.3","","100.24","","","","","","Rain"
"-71.39","46.79","QUEBEC INTL A","7016293","2020-05-16 02:00","2020","05","16","02:00","","7.4","","6.8","","96","","","","1","","8","","19.3","","100.26","","","","","","Rain"
"-71.39","46.79","QUEBEC INTL A","7016293","2020-05-16 03:00","2020","05","16","03:00","","7.2","","6.6","","96","","","","3","","6","","19.3","","100.34","","","","","","Moderate Rain"
"-71.39","46.79","QUEBEC INTL A","7016293","2020-05-16 04:00","2020","05","16","04:00","","7.3","","6.6","","96","","","","","","0","","24.1","","100.47","","","","","","Rain"
"-71.39","46.79","QUEBEC INTL A","7016293","2020-05-16 05:00","2020","05","16","05:00","","7.0","","6.7","","97","","","","6","","4","","32.2","","100.59","","","","","","NA"
"-71.39","46.79","QUEBEC INTL A","7016293","2020-05-16 06:00","2020","05","16","06:00","","7.5","","6.8","","95","","","","","","0","","32.2","","100.69","","","","","","NA"
"-71.39","46.79","QUEBEC INTL A","7016293","2020-05-16 07:00","2020","05","16","07:00","","8.2","","5.8","","85","","","","28","","4","","48.3","","100.84","","","","","","Mostly Cloudy"
"-71.39","46.79","QUEBEC INTL A","7016293","2020-05-16 08:00","2020","05","16","08:00","","8.9","","5.9","","81","","","","","","0","","48.3","","100.93","","","","","","NA"
"-71.39","46.79","QUEBEC INTL A","7016293","2020-05-16 09:00","2020","05","16","09:00","","10.3","","6.6","","78","","","","18","","5","","48.3","","100.97","","","","","","NA"
"-71.39","46.79","QUEBEC INTL A","7016293","2020-05-16 10:00","2020","05","16","10:00","","11.4","","5.2","","65","","","","7","","6","","48.3","","101.03","","","","","","Mostly Cloudy"
"-71.39","46.79","QUEBEC INTL A","7016293","2020-05-16 11:00","2020","05","16","11:00","","13.2","","6.4","","63","","","","17","","8","","48.3","","101.04","","","","","","NA"
"-71.39","46.79","QUEBEC INTL A","7016293","2020-05-16 12:00","2020","05","16","12:00","","14.4","","5.9","","56","","","","19","","16","","48.3","","101.06","","","","","","NA"
"-71.39","46.79","QUEBEC INTL A","7016293","2020-05-16 13:00","2020","05","16","13:00","","16.3","","5.6","","49","","","","21","","16","","48.3","","101.04","","","","","","Mainly Clear"
"-71.39","46.79","QUEBEC INTL A","7016293","2020-05-16 14:00","2020","05","16","14:00","","16.8","","4.3","","43","","","","21","","8","","48.3","","100.99","","","","","","NA"
"-71.39","46.79","QUEBEC INTL A","7016293","2020-05-16 15:00","2020","05","16","15:00","","18.5","","4.2","","38","","","","24","","24","","48.3","","101.04","","","","","","NA"
"-71.39","46.79","QUEBEC INTL A","7016293","2020-05-16 16:00","2020","05","16","16:00","","18.2","","4.9","","41","","","","25","","21","","48.3","","101.03","","","","","","Mostly Cloudy"
"-71.39","46.79","QUEBEC INTL A","7016293","2020-05-16 17:00","2020","05","16","17:00","","17.2","","5.4","","46","","","","24","","14","","48.3","","101.06","","","","","","NA"
"-71.39","46.79","QUEBEC INTL A","7016293","2020-05-16 18:00","2020","05","16","18:00","","17.3","","3.3","","39","","","","27","","16","","48.3","","101.09","","","","","","NA"
"-71.39","46.79","QUEBEC INTL A","7016293","2020-05-16 19:00","2020","05","16","19:00","","14.3","","5.7","","56","","","","26","","13","","48.3","","101.16","","","","","","Mostly Cloudy"
"-71.39","46.79","QUEBEC INTL A","7016293","2020-05-16 20:00","2020","05","16","20:00","","12.0","","5.9","","66","","","","23","","12","","24.1","","101.22","","","","","","NA"
"-71.39","46.79","QUEBEC INTL A","7016293","2020-05-16 21:00","2020","05","16","21:00","","12.0","","5.9","","66","","","","21","","10","","24.1","","101.26","","","","","","NA"
"-71.39","46.79","QUEBEC INTL A","7016293","2020-05-16 22:00","2020","05","16","22:00","","12.4","","5.9","","64","","","","24","","14","","24.1","","101.27","","","","","","Mainly Clear"
"-71.39","46.79","QUEBEC INTL A","7016293","2020-05-16 23:00","2020","05","16","23:00","","10.4","","5.9","","74","","","","22","","16","","24.1","","101.28","","","","","","NA"
"-71.39","46.79","QUEBEC INTL A","7016293","2020-05-17 00:00","2020","05","17","00:00","","9.5","","6.1","","79","","","","6","","8","","24.1","","101.34","","","","","","NA"
"-71.39","46.79","QUEBEC INTL A","7016293","2020-05-17 01:00","2020","05","17","01:00","","10.3","","3.1","","61","","","","2","","10","","24.1","","101.36","","","","","","Mainly Clear"
"-71.39","46.79","QUEBEC INTL A","7016293","2020-05-17 02:00","2020","05","17","02:00","","9.7","","1.4","","56","","","","4","","9","","24.1","","101.38","","","","","","NA"
"-71.39","46.79","QUEBEC INTL A","7016293","2020-05-17 03:00","2020","05","17","03:00","","6.6","","1.7","","71","","","","23","","3","","24.1","","101.46","","","","","","NA"
"-71.39","46.79","QUEBEC INTL A","7016293","2020-05-17 04:00","2020","05","17","04:00","","6.3","","0.7","","67","","","","29","","4","","48.3","","101.52","","","","","","Mainly Clear"
"-71.39","46.79","QUEBEC INTL A","7016293","2020-05-17 05:00","2020","05","17","05:00","","6.9","","0.9","","65","","","","32","","8","","48.3","","101.58","","","","","","NA"
"-71.39","46.79","QUEBEC INTL A","7016293","2020-05-17 06:00","2020","05","17","06:00","","10.0","","2.6","","60","","","","33","","5","","56.3","","101.65","","","","","","NA"
"-71.39","46.79","QUEBEC INTL A","7016293","2020-05-17 07:00","2020","05","17","07:00","","12.1","","1.5","","48","","","","36","","7","","56.3","","101.69","","","","","","Mostly Cloudy"
"-71.39","46.79","QUEBEC INTL A","7016293","2020-05-17 08:00","2020","05","17","08:00","","13.6","","1.1","","42","","","","33","","8","","56.3","","101.66","","","","","","NA"
"-71.39","46.79","QUEBEC INTL A","7016293","2020-05-17 09:00","2020","05","17","09:00","","15.1","","0.9","","38","","","","30","","14","","56.3","","101.62","","","","","","NA"
"-71.39","46.79","QUEBEC INTL A","7016293","2020-05-17 10:00","2020","05","17","10:00","","16.1","","1.5","","37","","","","30","","11","","48.3","","101.55","","","","","","Mainly Clear"
"-71.39","46.79","QUEBEC INTL A","7016293","2020-05-17 11:00","2020","05","17","11:00","","17.2","","1.0","","33","","","","35","","8","","56.3","","101.51","","","","","","NA"
"-71.39","46.79","QUEBEC INTL A","7016293","2020-05-17 12:00","2020","05","17","12:00","","17.9","","-1.9","","26","","","","34","","10","","48.3","","101.46","","","","","","NA"
"-71.39","46.79","QUEBEC INTL A","7016293","2020-05-17 13:00","2020","05","17","13:00","","18.8","","-1.0","","26","","","","32","","13","","48.3","","101.38","","","","","","Mostly Cloudy"
"-71.39","46.79","QUEBEC INTL A","7016293","2020-05-17 14:00","2020","05","17","14:00","","19.3","","-2.4","","23","","","","34","","12","","56.3","","101.35","","","","","","NA"
"-71.39","46.79","QUEBEC INTL A","7016293","2020-05-17 15:00","2020","05","17","15:00","","19.6","","-0.6","","25","","","","30","","12","","48.3","","101.34","","","","","","NA"
"-71.39","46.79","QUEBEC INTL A","7016293","2020-05-17 16:00","2020","05","17","16:00","","19.0","","-5.1","","19","","","","28","","20","","56.3","","101.34","","","","","","Mostly Cloudy"
"-71.39","46.79","QUEBEC INTL A","7016293","2020-05-17 17:00","2020","05","17","17:00","","18.9","","-5.1","","19","","","","32","","9","","56.3","","101.36","","","","","","NA"
"-71.39","46.79","QUEBEC INTL A","7016293","2020-05-17 18:00","2020","05","17","18:00","","18.0","","-5.4","","20","","","","32","","8","","48.3","","101.37","","","","","","NA"
"-71.39","46.79","QUEBEC INTL A","7016293","2020-05-17 19:00","2020","05","17","19:00","","15.4","","-6.5","","21","","","","35","","5","","48.3","","101.40","","","","","","Mostly Cloudy"
"-71.39","46.79","QUEBEC INTL A","7016293","2020-05-17 20:00","2020","05","17","20:00","","12.6","","-1.2","","38","","","","6","","14","","24.1","","101.45","","","","","","NA"
"-71.39","46.79","QUEBEC INTL A","7016293","2020-05-17 21:00","2020","05","17","21:00","","10.9","","-3.2","","37","","","","6","","12","","24.1","","101.51","","","","","","NA"
"-71.39","46.79","QUEBEC INTL A","7016293","2020-05-17 22:00","2020","05","17","22:00","","10.9","","-6.8","","28","","","","1","","14","","24.1","","101.55","","","","","","Mainly Clear"
"-71.39","46.79","QUEBEC INTL A","7016293","2020-05-17 23:00","2020","05","17","23:00","","9.4","","-7.4","","30","","","","1","","7","","24.1","","101.58","","","","","","NA"
"-71.39","46.79","QUEBEC INTL A","7016293","2020-05-18 00:00","2020","05","18","00:00","","8.1","","-7.6","","32","","","","1","","4","","24.1","","101.63","","","","","","NA"
"-71.39","46.79","QUEBEC INTL A","7016293","2020-05-18 01:00","2020","05","18","01:00","","7.0","","-8.4","","33","","","","35","","6","","24.1","","101.62","","","","","","Mainly Clear"
"-71.39","46.79","QUEBEC INTL A","7016293","2020-05-18 02:00","2020","05","18","02:00","","6.1","","-7.3","","37","","","","3","","5","","24.1","","101.63","","","","","","NA"
"-71.39","46.79","QUEBEC INTL A","7016293","2020-05-18 03:00","2020","05","18","03:00","","5.4","","-7.9","","38","","","","1","","8","","24.1","","101.66","","","","","","NA"
"-71.39","46.79","QUEBEC INTL A","7016293","2020-05-18 04:00","2020","05","18","04:00","","4.4","","-8.3","","39","","","","34","","7","","48.3","","101.68","","","","","","Mainly Clear"
"-71.39","46.79","QUEBEC INTL A","7016293","2020-05-18 05:00","2020","05","18","05:00","","5.1","","-6.9","","42","","","","36","","9","","48.3","","101.74","","","","","","NA"
"-71.39","46.79","QUEBEC INTL A","7016293","2020-05-18 06:00","2020","05","18","06:00","","6.8","","-6.2","","39","","","","1","","9","","48.3","","101.79","","","","","","NA"
"-71.39","46.79","QUEBEC INTL A","7016293","2020-05-18 07:00","2020","05","18","07:00","","9.4","","-4.3","","38","","","","6","","14","","48.3","","101.81","","","","","","Clear"
"-71.39","46.79","QUEBEC INTL A","7016293","2020-05-18 08:00","2020","05","18","08:00","","10.5","","-5.5","","32","","","","5","","9","","48.3","","101.82","","","","","","NA"
"-71.39","46.79","QUEBEC INTL A","7016293","2020-05-18 09:00","2020","05","18","09:00"
"-71.39","46.79","QUEBEC INTL A","7016293","2020-05-18 10:00","2020","05","18","10:00","","13.1","","-5.5","","27","","","","10","","8","","48.3","","101.73","","","","","","Clear"
"-71.39","46.79","QUEBEC INTL A","7016293","2020-05-18 11:00","2020","05","18","11:00","","14.8","","-3.5","","28","","","","8","","16","","48.3","","101.70","","","","","","NA"
"-71.39","46.79","QUEBEC INTL A","7016293","2020-05-18 12:00","2020","05","18","12:00","","15.4","","-3.8","","26","","","","10","","15","","48.3","","101.65","","","","","","NA"
"-71.39","46.79","QUEBEC INTL A","7016293","2020-05-18 13:00","2020","05","18","13:00","","15.5","","-5.2","","24","","","","9","","12","","48.3","","101.62","","","","","","Mainly Clear"
"-71.39","46.79","QUEBEC INTL A","7016293","2020-05-18 14:00","2020","05","18","14:00","","15.9","","-3.1","","27","","","","9","","12","","48.3","","101.59","","","","","","NA"
"-71.39","46.79","QUEBEC INTL A","7016293","2020-05-18 15:00","2020","05","18","15:00","","16.2","","-2.8","","27","","","","8","","17","","48.3","","101.62","","","","","","NA"
"-71.39","46.79","QUEBEC INTL A","7016293","2020-05-18 16:00","2020","05","18","16:00","","15.6","","-4.5","","25","","","","7","","20","","48.3","","101.64","","","","","","Mainly Clear"
"-71.39","46.79","QUEBEC INTL A","7016293","2020-05-18 17:00","2020","05","18","17:00","","15.1","","-4.0","","26","","","","9","","26","","48.3","","101.70","","","","","","NA"
"-71.39","46.79","QUEBEC INTL A","7016293","2020-05-18 18:00","2020","05","18","18:00","","14.0","","-2.6","","32","","","","7","","28","","48.3","","101.76","","","","","","NA"
"-71.39","46.79","QUEBEC INTL A","7016293","2020-05-18 19:00","2020","05","18","19:00","","12.3","","-3.3","","33","","","","7","","26","","48.3","","101.81","","","","","","Mainly Clear"
"-71.39","46.79","QUEBEC INTL A","7016293","2020-05-18 20:00","2020","05","18","20:00","","11.0","","-2.6","","38","","","","7","","20","","24.1","","101.91","","","","","","NA"
"-71.39","46.79","QUEBEC INTL A","7016293","2020-05-18 21:00","2020","05","18","21:00","","9.8","","-0.6","","48","","","","6","","27","","24.1","","101.96","","","","","","NA"
"-71.39","46.79","QUEBEC INTL A","7016293","2020-05-18 22:00","2020","05","18","22:00","","9.4","","-0.7","","49","","","","7","","25","","24.1","","101.99","","","","","","Clear"
"-71.39","46.79","QUEBEC INTL A","7016293","2020-05-18 23:00","2020","05","18","23:00","","8.5","","-0.9","","52","","","","6","","18","","24.1","","102.06","","","","","","NA"
"-71.39","46.79","QUEBEC INTL A","7016293","2020-05-19 00:00","2020","05","19","00:00","","6.0","","-1.2","","60","","","","6","","10","","24.1","","102.12","","","","","","NA"
"-71.39","46.79","QUEBEC INTL A","7016293","2020-05-19 01:00","2020","05","19","01:00","","5.5","","-1.7","","60","","","","5","","12","","24.1","","102.15","","","","","","Clear"
"-71.39","46.79","QUEBEC INTL A","7016293","2020-05-19 02:00","2020","05","19","02:00","","6.1","","-1.4","","59","","","","2","","11","","24.1","","102.15","","","","","","NA"
"-71.39","46.79","QUEBEC INTL A","7016293","2020-05-19 03:00","2020","05","19","03:00","","5.4","","-0.9","","63","","","","3","","12","","24.1","","102.19","","","","","","NA"
"-71.39","46.79","QUEBEC INTL A","7016293","2020-05-19 04:00","2020","05","19","04:00","","5.0","","0.2","","71","","","","4","","17","","48.3","","102.22","","","","","","Clear"
"-71.39","46.79","QUEBEC INTL A","7016293","2020-05-19 05:00","2020","05","19","05:00","","6.1","","1.2","","71","","","","4","","16","","48.3","","102.31","","","","","","NA"
"-71.39","46.79","QUEBEC INTL A","7016293","2020-05-19 06:00","2020","05","19","06:00","","8.5","","0.4","","57","","","","7","","21","","48.3","","102.34","","","","","","NA"
"-71.39","46.79","QUEBEC INTL A","7016293","2020-05-19 07:00","2020","05","19","07:00","","9.9","","-1.1","","46","","","","7","","35","","48.3","","102.39","","","","","","Mainly Clear"
"-71.39","46.79","QUEBEC INTL A","7016293","2020-05-19 08:00","2020","05","19","08:00","","11.5","","-0.8","","42","","","","8","","27","","48.3","","102.43","","","","","","NA"
"-71.39","46.79","QUEBEC INTL A","7016293","2020-05-19 09:00","2020","05","19","09:00","","12.6","","-0.9","","39","","","","5","","27","","48.3","","102.42","","","","","","NA"
"-71.39","46.79","QUEBEC INTL A","7016293","2020-05-19 10:00","2020","05","19","10:00","","13.5","","-1.8","","34","","","","5","","21","","48.3","","102.38","","","","","","Mainly Clear"
"-71.39","46.79","QUEBEC INTL A","7016293","2020-05-19 11:00","2020","05","19","11:00","","14.9","","-2.3","","30","","","","7","","15","","48.3","","102.34","","","","","","NA"
"-71.39","46.79","QUEBEC INTL A","7016293","2020-05-19 12:00","2020","05","19","12:00","","15.4","","-2.7","","29","","","","6","","23","","48.3","","102.29","","","","","","NA"
"-71.39","46.79","QUEBEC INTL A","7016293","2020-05-19 13:00","2020","05","19","13:00","","15.8","","-1.9","","29","","","","8","","27","","48.3","","102.22","","","","","","Cloudy"
"-71.39","46.79","QUEBEC INTL A","7016293","2020-05-19 14:00","2020","05","19","14:00","","16.3","","-4.0","","24","","","","8","","26","","48.3","","102.18","","","","","","NA"
"-71.39","46.79","QUEBEC INTL A","7016293","2020-05-19 15:00","2020","05","19","15:00","","15.3","","-2.2","","30","","","","8","","21","","48.3","","102.15","","","","","","NA"
"-71.39","46.79","QUEBEC INTL A","7016293","2020-05-19 16:00","2020","05","19","16:00","","15.8","","-1.5","","30","","","","8","","19","","48.3","","102.10","","","","","","Cloudy"
"-71.39","46.79","QUEBEC INTL A","7016293","2020-05-19 17:00","2020","05","19","17:00","","14.9","","-2.6","","30","","","","7","","23","","48.3","","102.09","","","","","","NA"
"-71.39","46.79","QUEBEC INTL A","7016293","2020-05-19 18:00","2020","05","19","18:00","","14.9","","-2.9","","29","","","","7","","21","","48.3","","102.09","","","","","","NA"
"-71.39","46.79","QUEBEC INTL A","7016293","2020-05-19 19:00","2020","05","19","19:00","","12.4","","-1.3","","38","","","","5","","12","","48.3","","102.10","","","","","","Mainly Clear"
"-71.39","46.79","QUEBEC INTL A","7016293","2020-05-19 20:00","2020","05","19","20:00","","10.8","","-0.3","","46","","","","4","","9","","24.1","","102.16","","","","","","NA"
"-71.39","46.79","QUEBEC INTL A","7016293","2020-05-19 21:00","2020","05","19","21:00","","9.2","","0.8","","56","","","","4","","9","","24.1","","102.20","","","","","","NA"
"-71.39","46.79","QUEBEC INTL A","7016293","2020-05-19 22:00","2020","05","19","22:00","","7.6","","0.4","","60","","","","1","","7","","24.1","","102.21","","","","","","Clear"
"-71.39","46.79","QUEBEC INTL A","7016293","2020-05-19 23:00","2020","05","19","23:00","","6.5","","0.0","","63","","","","4","","9","","24.1","","102.21","","","","","","NA"
"-71.39","46.79","QUEBEC INTL A","7016293","2020-05-20 00:00","2020","05","20","00:00","","7.8","","-1.8","","51","","","","1","","7","","24.1","","102.22","","","","","","NA"
"-71.39","46.79","QUEBEC INTL A","7016293","2020-05-20 01:00","2020","05","20","01:00","","7.8","","-2.3","","49","","","","2","","11","","24.1","","102.23","","","","","","Clear"
"-71.39","46.79","QUEBEC INTL A","7016293","2020-05-20 02:00","2020","05","20","02:00","","5.4","","-2.3","","58","","","","4","","5","","24.1","","102.20","","","","","","NA"
"-71.39","46.79","QUEBEC INTL A","7016293","2020-05-20 03:00","2020","05","20","03:00","","5.4","","-2.1","","58","","","","35","","7","","24.1","","102.20","","","","","","NA"
"-71.39","46.79","QUEBEC INTL A","7016293","2020-05-20 04:00","2020","05","20","04:00","","5.4","","-2.1","","58","","","","36","","12","","48.3","","102.24","","","","","","Mainly Clear"
"-71.39","46.79","QUEBEC INTL A","7016293","2020-05-20 05:00","2020","05","20","05:00","","5.7","","-1.9","","58","","","","2","","7","","48.3","","102.24","","","","","","NA"
"-71.39","46.79","QUEBEC INTL A","7016293","2020-05-20 06:00","2020","05","20","06:00","","8.0","","-1.4","","51","","","","2","","9","","48.3","","102.29","","","","","","NA"
"-71.39","46.79","QUEBEC INTL A","7016293","2020-05-20 07:00","2020","05","20","07:00","","11.5","","-0.8","","43","","","","7","","8","","48.3","","102.30","","","","","","Mainly Clear"
"-71.39","46.79","QUEBEC INTL A","7016293","2020-05-20 08:00","2020","05","20","08:00","","14.3","","-1.3","","34","","","","4","","5","","48.3","","102.30","","","","","","NA"
"-71.39","46.79","QUEBEC INTL A","7016293","2020-05-20 09:00","2020","05","20","09:00","","16.5","","-1.5","","29","","","","8","","5","","48.3","","102.27","","","","","","NA"
"-71.39","46.79","QUEBEC INTL A","7016293","2020-05-20 10:00","2020","05","20","10:00","","18.2","","-1.3","","26","","","","9","","8","","48.3","","102.22","","","","","","Mainly Clear"
"-71.39","46.79","QUEBEC INTL A","7016293","2020-05-20 11:00","2020","05","20","11:00","","20.1","","-2.4","","22","","","","17","","9","","48.3","","102.15","","","","","","NA"
"-71.39","46.79","QUEBEC INTL A","7016293","2020-05-20 12:00","2020","05","20","12:00","","21.2","","0.1","","24","","","","20","","5","","48.3","","102.07","","","","","","NA"
"-71.39","46.79","QUEBEC INTL A","7016293","2020-05-20 13:00","2020","05","20","13:00","","22.1","","-0.7","","22","","","","21","","9","","48.3","","102.00","","","","","","Mainly Clear"
"-71.39","46.79","QUEBEC INTL A","7016293","2020-05-20 14:00","2020","05","20","14:00","","22.9","","-1.6","","19","","","","21","","16","","48.3","","101.92","","","","","","NA"
"-71.39","46.79","QUEBEC INTL A","7016293","2020-05-20 15:00","2020","05","20","15:00","","23.3","","-1.7","","19","","","","21","","19","","48.3","","101.84","","","","","","NA"
"-71.39","46.79","QUEBEC INTL A","7016293","2020-05-20 16:00","2020","05","20","16:00","","23.6","","-3.2","","16","","","","21","","21","","48.3","","101.77","","","","","","Mostly Cloudy"
"-71.39","46.79","QUEBEC INTL A","7016293","2020-05-20 17:00","2020","05","20","17:00","","23.4","","-4.2","","15","","","","23","","18","","48.3","","101.69","","","","","","NA"
"-71.39","46.79","QUEBEC INTL A","7016293","2020-05-20 18:00","2020","05","20","18:00","","22.2","","-3.0","","18","","","","22","","15","","48.3","","101.64","","","","","","NA"
"-71.39","46.79","QUEBEC INTL A","7016293","2020-05-20 19:00","2020","05","20","19:00","","19.4","","-2.5","","22","","","","24","","9","","48.3","","101.62","","","","","","Mostly Cloudy"
"-71.39","46.79","QUEBEC INTL A","7016293","2020-05-20 20:00","2020","05","20","20:00","","16.3","","-2.4","","27","","","","25","","8","","24.1","","101.61","","","","","","NA"
"-71.39","46.79","QUEBEC INTL A","7016293","2020-05-20 21:00","2020","05","20","21:00","","15.1","","-1.2","","32","","","","25","","16","","24.1","","101.63","","","","","","NA"
"-71.39","46.79","QUEBEC INTL A","7016293","2020-05-20 22:00","2020","05","20","22:00","","14.7","","-2.2","","31","","","","23","","10","","24.1","","101.61","","","","","","Mostly Cloudy"
"-71.39","46.79","QUEBEC INTL A","7016293","2020-05-20 23:00","2020","05","20","23:00","","14.6","","-2.2","","31","","","","24","","14","","24.1","","101.58","","","","","","NA"
"-71.39","46.79","QUEBEC INTL A","7016293","2020-05-21 00:00","2020","05","21","00:00","","10.1","","0.4","","51","","","","","","0","","24.1","","101.58","","","","","","NA"
"-71.39","46.79","QUEBEC INTL A","7016293","2020-05-21 01:00","2020","05","21","01:00","","9.1","","0.9","","57","","","","22","","7","","24.1","","101.56","","","","","","Mainly Clear"
"-71.39","46.79","QUEBEC INTL A","7016293","2020-05-21 02:00","2020","05","21","02:00","","12.7","","0.5","","43","","","","24","","17","","24.1","","101.53","","","","","","NA"
"-71.39","46.79","QUEBEC INTL A","7016293","2020-05-21 03:00","2020","05","21","03:00","","11.3","","1.2","","49","","","","25","","19","","24.1","","101.54","","","","","","NA"
"-71.39","46.79","QUEBEC INTL A","7016293","2020-05-21 04:00","2020","05","21","04:00","","12.0","","1.7","","49","","","","24","","15","","48.3","","101.55","","","","","","Mainly Clear"
"-71.39","46.79","QUEBEC INTL A","7016293","2020-05-21 05:00","2020","05","21","05:00","","11.4","","2.4","","54","","","","24","","8","","48.3","","101.56","","","","","","NA"
"-71.39","46.79","QUEBEC INTL A","7016293","2020-05-21 06:00","2020","05","21","06:00","","12.8","","2.8","","51","","","","23","","17","","48.3","","101.55","","","","","","NA"
"-71.39","46.79","QUEBEC INTL A","7016293","2020-05-21 07:00","2020","05","21","07:00","","14.8","","3.4","","46","","","","25","","19","","48.3","","101.55","","","","","","Mostly Cloudy"
"-71.39","46.79","QUEBEC INTL A","7016293","2020-05-21 08:00","2020","05","21","08:00","","17.3","","4.7","","43","","","","26","","21","","48.3","","101.53","","","","","","NA"
"-71.39","46.79","QUEBEC INTL A","7016293","2020-05-21 09:00","2020","05","21","09:00","","20.6","","4.8","","35","","","","25","","22","","48.3","","101.45","","","","","","NA"
"-71.39","46.79","QUEBEC INTL A","7016293","2020-05-21 10:00","2020","05","21","10:00","","22.0","","3.3","","29","","","","25","","30","","48.3","","101.37","","","","","","Mostly Cloudy"
"-71.39","46.79","QUEBEC INTL A","7016293","2020-05-21 11:00","2020","05","21","11:00","","23.5","","5.0","","30","","","","26","","29","","48.3","","101.34","","","","","","NA"
"-71.39","46.79","QUEBEC INTL A","7016293","2020-05-21 12:00","2020","05","21","12:00","","25.2","","5.0","","27","","","","26","","26","","48.3","","101.20","","","","","","NA"
"-71.39","46.79","QUEBEC INTL A","7016293","2020-05-21 13:00","2020","05","21","13:00","","26.7","","4.2","","23","","","","23","","34","","48.3","","101.08","","26","","","","Mainly Clear"
"-71.39","46.79","QUEBEC INTL A","7016293","2020-05-21 14:00","2020","05","21","14:00","","27.2","","3.2","","21","","","","23","","40","","48.3","","100.95","","26","","","","NA"
"-71.39","46.79","QUEBEC INTL A","7016293","2020-05-21 15:00","2020","05","21","15:00","","27.1","","2.6","","20","","","","23","","36","","48.3","","100.87","","26","","","","NA"
"-71.39","46.79","QUEBEC INTL A","7016293","2020-05-21 16:00","2020","05","21","16:00","","26.8","","3.5","","22","","","","24","","30","","48.3","","100.78","","26","","","","Mostly Cloudy"
"-71.39","46.79","QUEBEC INTL A","7016293","2020-05-21 17:00","2020","05","21","17:00","","25.5","","3.0","","23","","","","24","","31","","48.3","","100.74","","","","","","NA"
"-71.39","46.79","QUEBEC INTL A","7016293","2020-05-21 18:00","2020","05","21","18:00","","24.9","","3.0","","24","","","","25","","26","","48.3","","100.70","","","","","","NA"
"-71.39","46.79","QUEBEC INTL A","7016293","2020-05-21 19:00","2020","05","21","19:00","","22.7","","1.8","","25","","","","24","","22","","48.3","","100.71","","","","","","Mostly Cloudy"
"-71.39","46.79","QUEBEC INTL A","7016293","2020-05-21 20:00","2020","05","21","20:00","","19.1","","1.8","","31","","","","25","","18","","24.1","","100.71","","","","","","NA"
"-71.39","46.79","QUEBEC INTL A","7016293","2020-05-21 21:00","2020","05","21","21:00","","17.7","","1.6","","34","","","","25","","19","","24.1","","100.69","","","","","","NA"
"-71.39","46.79","QUEBEC INTL A","7016293","2020-05-21 22:00","2020","05","21","22:00","","17.5","","1.9","","35","","","","26","","23","","24.1","","100.66","","","","","","Mainly Clear"
"-71.39","46.79","QUEBEC INTL A","7016293","2020-05-21 23:00","2020","05","21","23:00","","16.4","","1.2","","35","","","","25","","24","","24.1","","100.67","","","","","","NA"
"-71.39","46.79","QUEBEC INTL A","7016293","2020-05-22 00:00","2020","05","22","00:00","","16.4","","0.5","","34","","","","24","","25","","24.1","","100.66","","","","","","NA"
"-71.39","46.79","QUEBEC INTL A","7016293","2020-05-22 01:00","2020","05","22","01:00","","15.1","","-0.4","","34","","","","24","","22","","24.1","","100.64","","","","","","Clear"
"-71.39","46.79","QUEBEC INTL A","7016293","2020-05-22 02:00","2020","05","22","02:00","","14.9","","-0.8","","34","","","","24","","22","","24.1","","100.61","","","","","","NA"
"-71.39","46.79","QUEBEC INTL A","7016293","2020-05-22 03:00","2020","05","22","03:00","","13.3","","-0.2","","39","","","","26","","11","","24.1","","100.61","","","","","","NA"
"-71.39","46.79","QUEBEC INTL A","7016293","2020-05-22 04:00","2020","05","22","04:00","","11.7","","0.3","","46","","","","25","","20","","32.2","","100.58","","","","","","Mainly Clear"
"-71.39","46.79","QUEBEC INTL A","7016293","2020-05-22 05:00","2020","05","22","05:00","","11.7","","0.7","","47","","","","25","","22","","32.2","","100.59","","","","","","NA"
"-71.39","46.79","QUEBEC INTL A","7016293","2020-05-22 06:00","2020","05","22","06:00","","13.5","","0.3","","40","","","","26","","25","","40.2","","100.62","","","","","","NA"
"-71.39","46.79","QUEBEC INTL A","7016293","2020-05-22 07:00","2020","05","22","07:00","","15.7","","1.5","","38","","","","26","","22","","40.2","","100.63","","","","","","Mostly Cloudy"
"-71.39","46.79","QUEBEC INTL A","7016293","2020-05-22 08:00","2020","05","22","08:00","","18.9","","1.5","","31","","","","25","","23","","40.2","","100.67","","","","","","NA"
"-71.39","46.79","QUEBEC INTL A","7016293","2020-05-22 09:00","2020","05","22","09:00","","21.4","","4.9","","34","","","","23","","17","","40.2","","100.65","","","","","","NA"
"-71.39","46.79","QUEBEC INTL A","7016293","2020-05-22 10:00","2020","05","22","10:00","","23.1","","5.3","","31","","","","20","","16","","40.2","","100.66","","","","","","Mostly Cloudy"
"-71.39","46.79","QUEBEC INTL A","7016293","2020-05-22 11:00","2020","05","22","11:00","","22.2","","8.9","","42","","","","32","","8","","40.2","","100.64","","","","","","NA"
"-71.39","46.79","QUEBEC INTL A","7016293","2020-05-22 12:00","2020","05","22","12:00","","22.3","","8.2","","40","","","","28","","13","","40.2","","100.59","","","","","","NA"
"-71.39","46.79","QUEBEC INTL A","7016293","2020-05-22 13:00","2020","05","22","13:00","","23.9","","8.4","","37","","","","25","","18","","40.2","","100.53","","","","","","Mainly Clear"
"-71.39","46.79","QUEBEC INTL A","7016293","2020-05-22 14:00","2020","05","22","14:00","","25.5","","7.7","","32","","","","25","","22","","40.2","","100.45","","26","","","","NA"
"-71.39","46.79","QUEBEC INTL A","7016293","2020-05-22 15:00","2020","05","22","15:00","","26.1","","8.4","","32","","","","24","","25","","40.2","","100.40","","27","","","","NA"
"-71.39","46.79","QUEBEC INTL A","7016293","2020-05-22 16:00","2020","05","22","16:00","","26.7","","5.0","","24","","","","29","","16","","40.2","","100.35","","26","","","","Mainly Clear"
"-71.39","46.79","QUEBEC INTL A","7016293","2020-05-22 17:00","2020","05","22","17:00","","26.3","","5.5","","26","","","","29","","16","","40.2","","100.36","","26","","","","NA"
"-71.39","46.79","QUEBEC INTL A","7016293","2020-05-22 18:00","2020","05","22","18:00","","25.4","","3.7","","24","","","","30","","16","","40.2","","100.38","","","","","","NA"
"-71.39","46.79","QUEBEC INTL A","7016293","2020-05-22 19:00","2020","05","22","19:00","","22.9","","2.6","","26","","","","1","","6","","40.2","","100.41","","","","","","Clear"
"-71.39","46.79","QUEBEC INTL A","7016293","2020-05-22 20:00","2020","05","22","20:00","","20.0","","-0.6","","25","","","","36","","4","","24.1","","100.52","","","","","","NA"
"-71.39","46.79","QUEBEC INTL A","7016293","2020-05-22 21:00","2020","05","22","21:00","","19.0","","-3.9","","21","","","","36","","8","","24.1","","100.63","","","","","","NA"
"-71.39","46.79","QUEBEC INTL A","7016293","2020-05-22 22:00","2020","05","22","22:00","","16.7","","-4.7","","23","","","","3","","13","","24.1","","100.70","","","","","","Clear"
"-71.39","46.79","QUEBEC INTL A","7016293","2020-05-22 23:00","2020","05","22","23:00","","16.3","","-7.8","","18","","","","2","","11","","24.1","","100.79","","","","","","NA"
"-71.39","46.79","QUEBEC INTL A","7016293","2020-05-23 00:00","2020","05","23","00:00","","14.6","","-6.8","","22","","","","2","","12","","24.1","","100.87","","","","","","NA"
"-71.39","46.79","QUEBEC INTL A","7016293","2020-05-23 01:00","2020","05","23","01:00","","11.2","","-5.9","","30","","","","4","","7","","24.1","","100.99","","","","","","Clear"
"-71.39","46.79","QUEBEC INTL A","7016293","2020-05-23 02:00","2020","05","23","02:00","","10.3","","-6.0","","31","","","","4","","14","","24.1","","101.06","","","","","","NA"
"-71.39","46.79","QUEBEC INTL A","7016293","2020-05-23 03:00","2020","05","23","03:00","","10.4","","-1.3","","44","","","","7","","22","","24.1","","101.18","","","","","","NA"
"-71.39","46.79","QUEBEC INTL A","7016293","2020-05-23 04:00","2020","05","23","04:00","","8.2","","-0.9","","52","","","","7","","45","","24.1","","101.32","","","","","","Clear"
"-71.39","46.79","QUEBEC INTL A","7016293","2020-05-23 05:00","2020","05","23","05:00","","7.5","","-2.0","","51","","","","7","","38","","32.2","","101.44","","","","","","NA"
"-71.39","46.79","QUEBEC INTL A","7016293","2020-05-23 06:00","2020","05","23","06:00","","7.4","","-2.9","","48","","","","7","","36","","48.3","","101.54","","","","","","NA"
"-71.39","46.79","QUEBEC INTL A","7016293","2020-05-23 07:00","2020","05","23","07:00","","7.9","","-3.3","","45","","","","7","","42","","48.3","","101.56","","","","","","Clear"
"-71.39","46.79","QUEBEC INTL A","7016293","2020-05-23 08:00","2020","05","23","08:00","","8.9","","-2.5","","44","","","","7","","30","","48.3","","101.63","","","","","","NA"
"-71.39","46.79","QUEBEC INTL A","7016293","2020-05-23 09:00","2020","05","23","09:00","","9.9","","-3.3","","39","","","","6","","37","","48.3","","101.62","","","","","","NA"
"-71.39","46.79","QUEBEC INTL A","7016293","2020-05-23 10:00","2020","05","23","10:00","","10.8","","-3.2","","37","","","","7","","27","","48.3","","101.67","","","","","","Clear"
"-71.39","46.79","QUEBEC INTL A","7016293","2020-05-23 11:00","2020","05","23","11:00","","11.9","","-3.6","","34","","","","8","","27","","48.3","","101.62","","","","","","NA"
"-71.39","46.79","QUEBEC INTL A","7016293","2020-05-23 12:00","2020","05","23","12:00","","13.3","","-2.6","","33","","","","10","","31","","48.3","","101.61","","","","","","NA"
"-71.39","46.79","QUEBEC INTL A","7016293","2020-05-23 13:00","2020","05","23","13:00","","13.7","","-1.5","","35","","","","7","","21","","48.3","","101.57","","","","","","Clear"
"-71.39","46.79","QUEBEC INTL A","7016293","2020-05-23 14:00","2020","05","23","14:00","","14.4","","-4.7","","26","","","","8","","30","","48.3","","101.55","","","","","","NA"
"-71.39","46.79","QUEBEC INTL A","7016293","2020-05-23 15:00","2020","05","23","15:00","","14.5","","-1.9","","32","","","","8","","28","","48.3","","101.52","","","","","","NA"
"-71.39","46.79","QUEBEC INTL A","7016293","2020-05-23 16:00","2020","05","23","16:00","","14.3","","-3.0","","30","","","","6","","29","","48.3","","101.52","","","","","","Clear"
"-71.39","46.79","QUEBEC INTL A","7016293","2020-05-23 17:00","2020","05","23","17:00","","13.2","","-2.1","","34","","","","8","","26","","48.3","","101.51","","","","","","NA"
"-71.39","46.79","QUEBEC INTL A","7016293","2020-05-23 18:00","2020","05","23","18:00","","11.8","","-2.3","","37","","","","8","","22","","48.3","","101.51","","","","","","NA"
"-71.39","46.79","QUEBEC INTL A","7016293","2020-05-23 19:00","2020","05","23","19:00","","10.2","","-4.5","","35","","","","7","","30","","40.2","","101.51","","","","","","Clear"
"-71.39","46.79","QUEBEC INTL A","7016293","2020-05-23 20:00","2020","05","23","20:00","","9.3","","-6.8","","32","","","","6","","26","","40.2","","101.53","","","","","","NA"
"-71.39","46.79","QUEBEC INTL A","7016293","2020-05-23 21:00","2020","05","23","21:00","","9.0","","-12.0","","21","","","","6","","23","","24.1","","101.55","","","","","","NA"
"-71.39","46.79","QUEBEC INTL A","7016293","2020-05-23 22:00","2020","05","23","22:00","","8.6","","-10.4","","25","","","","6","","16","","24.1","","101.55","","","","","","Clear"
"-71.39","46.79","QUEBEC INTL A","7016293","2020-05-23 23:00","2020","05","23","23:00","","8.0","","-7.4","","33","","","","6","","22","","24.1","","101.51","","","","","","NA"
"-71.39","46.79","QUEBEC INTL A","7016293","2020-05-24 00:00","2020","05","24","00:00","","7.4","","-7.3","","34","","","","4","","12","","24.1","","101.54","","","","","","NA"
"-71.39","46.79","QUEBEC INTL A","7016293","2020-05-24 01:00","2020","05","24","01:00","","6.2","","-6.5","","40","","","","4","","14","","24.1","","101.53","","","","","","Clear"
"-71.39","46.79","QUEBEC INTL A","7016293","2020-05-24 02:00","2020","05","24","02:00","","5.8","","-5.8","","43","","","","3","","9","","24.1","","101.53","","","","","","NA"
"-71.39","46.79","QUEBEC INTL A","7016293","2020-05-24 03:00","2020","05","24","03:00","","4.7","","-4.4","","52","","","","3","","5","","24.1","","101.53","","","","","","NA"
"-71.39","46.79","QUEBEC INTL A","7016293","2020-05-24 04:00","2020","05","24","04:00","","3.5","","-3.1","","62","","","","3","","5","","48.3","","101.60","","","","","","Mainly Clear"
"-71.39","46.79","QUEBEC INTL A","7016293","2020-05-24 05:00","2020","05","24","05:00","","5.3","","-1.6","","61","","","","3","","5","","48.3","","101.65","","","","","","NA"
"-71.39","46.79","QUEBEC INTL A","7016293","2020-05-24 06:00","2020","05","24","06:00","","8.7","","0.1","","55","","","","5","","12","","48.3","","101.65","","","","","","NA"
"-71.39","46.79","QUEBEC INTL A","7016293","2020-05-24 07:00","2020","05","24","07:00","","11.0","","1.9","","53","","","","6","","10","","48.3","","101.65","","","","","","Clear"
"-71.39","46.79","QUEBEC INTL A","7016293","2020-05-24 08:00","2020","05","24","08:00","","13.0","","1.7","","46","","","","6","","11","","48.3","","101.62","","","","","","NA"
"-71.39","46.79","QUEBEC INTL A","7016293","2020-05-24 09:00","2020","05","24","09:00","","14.8","","2.3","","43","","","","13","","5","","48.3","","101.57","","","","","","NA"
"-71.39","46.79","QUEBEC INTL A","7016293","2020-05-24 10:00","2020","05","24","10:00","","17.4","","4.0","","41","","","","10","","8","","48.3","","101.55","","","","","","Mainly Clear"
"-71.39","46.79","QUEBEC INTL A","7016293","2020-05-24 11:00","2020","05","24","11:00","","18.8","","2.4","","33","","","","5","","6","","48.3","","101.48","","","","","","NA"
"-71.39","46.79","QUEBEC INTL A","7016293","2020-05-24 12:00","2020","05","24","12:00","","20.6","","4.1","","34","","","","11","","7","","48.3","","101.39","","","","","","NA"
"-71.39","46.79","QUEBEC INTL A","7016293","2020-05-24 13:00","2020","05","24","13:00","","22.3","","4.9","","32","","","","27","","4","","48.3","","101.31","","","","","","Mostly Cloudy"
"-71.39","46.79","QUEBEC INTL A","7016293","2020-05-24 14:00","2020","05","24","14:00","","24.1","","4.3","","27","","","","19","","9","","40.2","","101.21","","","","","","NA"
"-71.39","46.79","QUEBEC INTL A","7016293","2020-05-24 15:00","2020","05","24","15:00","","24.4","","2.9","","24","","","","","","0","","40.2","","101.15","","","","","","NA"
"-71.39","46.79","QUEBEC INTL A","7016293","2020-05-24 16:00","2020","05","24","16:00","","24.8","","3.1","","24","","","","27","","9","","40.2","","101.10","","","","","","Mostly Cloudy"
"-71.39","46.79","QUEBEC INTL A","7016293","2020-05-24 17:00","2020","05","24","17:00","","24.3","","4.3","","27","","","","27","","4","","48.3","","101.06","","","","","","NA"
"-71.39","46.79","QUEBEC INTL A","7016293","2020-05-24 18:00","2020","05","24","18:00","","22.5","","6.5","","35","","","","26","","8","","48.3","","101.03","","","","","","NA"
"-71.39","46.79","QUEBEC INTL A","7016293","2020-05-24 19:00","2020","05","24","19:00","","21.8","","6.5","","37","","","","24","","4","","48.3","","101.03","","","","","","Mostly Cloudy"
"-71.39","46.79","QUEBEC INTL A","7016293","2020-05-24 20:00","2020","05","24","20:00","","17.4","","6.2","","47","","","","","","0","","48.3","","101.03","","","","","","NA"
"-71.39","46.79","QUEBEC INTL A","7016293","2020-05-24 21:00","2020","05","24","21:00","","14.4","","7.6","","63","","","","34","","3","","24.1","","101.05","","","","","","NA"
"-71.39","46.79","QUEBEC INTL A","7016293","2020-05-24 22:00","2020","05","24","22:00","","15.1","","6.4","","56","","","","8","","7","","24.1","","101.06","","","","","","Clear"
"-71.39","46.79","QUEBEC INTL A","7016293","2020-05-24 23:00","2020","05","24","23:00","","12.0","","6.6","","69","","","","","","0","","24.1","","101.10","","","","","","NA"
"-71.39","46.79","QUEBEC INTL A","7016293","2020-05-25 00:00","2020","05","25","00:00","","11.0","","6.2","","72","","","","35","","5","","24.1","","101.08","","","","","","NA"
"-71.39","46.79","QUEBEC INTL A","7016293","2020-05-25 01:00","2020","05","25","01:00","","11.3","","5.1","","65","","","","2","","4","","24.1","","101.09","","","","","","Mainly Clear"
"-71.39","46.79","QUEBEC INTL A","7016293","2020-05-25 02:00","2020","05","25","02:00","","11.6","","5.2","","64","","","","","","0","","24.1","","101.10","","","","","","NA"
"-71.39","46.79","QUEBEC INTL A","7016293","2020-05-25 03:00","2020","05","25","03:00","","11.7","","4.7","","62","","","","3","","3","","24.1","","101.10","","","","","","NA"
"-71.39","46.79","QUEBEC INTL A","7016293","2020-05-25 04:00","2020","05","25","04:00","","10.7","","4.8","","67","","","","3","","3","","40.2","","101.14","","","","","","Mostly Cloudy"
"-71.39","46.79","QUEBEC INTL A","7016293","2020-05-25 05:00","2020","05","25","05:00","","10.5","","5.4","","71","","","","4","","6","","40.2","","101.15","","","","","","NA"
"-71.39","46.79","QUEBEC INTL A","7016293","2020-05-25 06:00","2020","05","25","06:00","","12.7","","6.1","","64","","","","","","0","","40.2","","101.19","","","","","","NA"
"-71.39","46.79","QUEBEC INTL A","7016293","2020-05-25 07:00","2020","05","25","07:00","","14.3","","6.5","","59","","","","5","","4","","32.2","","101.18","","","","","","Mostly Cloudy"
"-71.39","46.79","QUEBEC INTL A","7016293","2020-05-25 08:00","2020","05","25","08:00","","17.3","","6.1","","47","","","","","","0","","40.2","","101.18","","","","","","NA"
"-71.39","46.79","QUEBEC INTL A","7016293","2020-05-25 09:00","2020","05","25","09:00","","19.4","","6.5","","43","","","","27","","10","","40.2","","101.11","","","","","","NA"
"-71.39","46.79","QUEBEC INTL A","7016293","2020-05-25 10:00","2020","05","25","10:00","","21.2","","7.8","","42","","","","24","","10","","40.2","","101.07","","","","","","Mostly Cloudy"
"-71.39","46.79","QUEBEC INTL A","7016293","2020-05-25 11:00","2020","05","25","11:00","","24.0","","9.3","","39","","","","25","","16","","40.2","","101.01","","25","","","","NA"
"-71.39","46.79","QUEBEC INTL A","7016293","2020-05-25 12:00","2020","05","25","12:00","","23.9","","8.3","","36","","","","22","","14","","40.2","","100.94","","","","","","NA"
"-71.39","46.79","QUEBEC INTL A","7016293","2020-05-25 13:00","2020","05","25","13:00","","23.9","","9.3","","39","","","","26","","18","","40.2","","100.91","","25","","","","Mostly Cloudy"
"-71.39","46.79","QUEBEC INTL A","7016293","2020-05-25 14:00","2020","05","25","14:00","","23.9","","9.2","","39","","","","27","","16","","40.2","","100.88","","25","","","","NA"
"-71.39","46.79","QUEBEC INTL A","7016293","2020-05-25 15:00","2020","05","25","15:00","","23.9","","9.5","","39","","","","28","","15","","40.2","","100.86","","25","","","","NA"
"-71.39","46.79","QUEBEC INTL A","7016293","2020-05-25 16:00","2020","05","25","16:00","","24.3","","10.5","","41","","","","26","","18","","40.2","","100.82","","26","","","","Cloudy"
"-71.39","46.79","QUEBEC INTL A","7016293","2020-05-25 17:00","2020","05","25","17:00","","22.9","","9.7","","42","","","","27","","13","","40.2","","100.82","","","","","","NA"
"-71.39","46.79","QUEBEC INTL A","7016293","2020-05-25 18:00","2020","05","25","18:00","","22.1","","10.3","","47","","","","25","","15","","40.2","","100.83","","","","","","NA"
"-71.39","46.79","QUEBEC INTL A","7016293","2020-05-25 19:00","2020","05","25","19:00","","21.3","","10.7","","50","","","","23","","3","","40.2","","100.84","","","","","","Mostly Cloudy"
"-71.39","46.79","QUEBEC INTL A","7016293","2020-05-25 20:00","2020","05","25","20:00","","19.5","","12.0","","62","","","","","","0","","24.1","","100.88","","","","","","NA"
"-71.39","46.79","QUEBEC INTL A","7016293","2020-05-25 21:00","2020","05","25","21:00","","19.8","","11.6","","59","","","","22","","9","","24.1","","100.91","","","","","","NA"
"-71.39","46.79","QUEBEC INTL A","7016293","2020-05-25 22:00","2020","05","25","22:00","","19.6","","12.8","","65","","","","23","","9","","24.1","","100.94","","","","","","Mostly Cloudy"
"-71.39","46.79","QUEBEC INTL A","7016293","2020-05-25 23:00","2020","05","25","23:00","","19.1","","13.8","","71","","","","23","","7","","24.1","","100.96","","","","","","NA"
"-71.39","46.79","QUEBEC INTL A","7016293","2020-05-26 00:00","2020","05","26","00:00","","18.3","","14.4","","78","","","","22","","12","","24.1","","100.97","","","","","","NA"
"-71.39","46.79","QUEBEC INTL A","7016293","2020-05-26 01:00","2020","05","26","01:00","","17.3","","14.7","","84","","","","25","","7","","24.1","","100.95","","","","","","Mainly Clear"
"-71.39","46.79","QUEBEC INTL A","7016293","2020-05-26 02:00","2020","05","26","02:00","","14.9","","13.8","","94","","","","","","0","","24.1","","100.97","","","","","","NA"
"-71.39","46.79","QUEBEC INTL A","7016293","2020-05-26 03:00","2020","05","26","03:00","","14.5","","13.8","","95","","","","21","","4","","24.1","","100.99","","","","","","NA"
"-71.39","46.79","QUEBEC INTL A","7016293","2020-05-26 04:00","2020","05","26","04:00","","13.3","","13.0","","98","","","","5","","4","","32.2","","101.08","","","","","","Mostly Cloudy"
"-71.39","46.79","QUEBEC INTL A","7016293","2020-05-26 05:00","2020","05","26","05:00","","13.8","","13.4","","97","","","","","","0","","32.2","","101.12","","","","","","NA"
"-71.39","46.79","QUEBEC INTL A","7016293","2020-05-26 06:00","2020","05","26","06:00","","16.8","","14.9","","88","","","","","","0","","24.1","","101.16","","","","","","NA"
"-71.39","46.79","QUEBEC INTL A","7016293","2020-05-26 07:00","2020","05","26","07:00","","19.7","","15.9","","78","","","","22","","6","","24.1","","101.16","","","","","","Mainly Clear"
"-71.39","46.79","QUEBEC INTL A","7016293","2020-05-26 08:00","2020","05","26","08:00","","20.8","","15.9","","73","","","","25","","10","","32.2","","101.16","","25","","","","NA"
"-71.39","46.79","QUEBEC INTL A","7016293","2020-05-26 09:00","2020","05","26","09:00","","23.1","","16.4","","66","","","","25","","14","","32.2","","101.10","","28","","","","NA"
"-71.39","46.79","QUEBEC INTL A","7016293","2020-05-26 10:00","2020","05","26","10:00","","24.4","","16.8","","62","","","","28","","8","","32.2","","101.11","","30","","","","Mostly Cloudy"
"-71.39","46.79","QUEBEC INTL A","7016293","2020-05-26 11:00","2020","05","26","11:00","","26.4","","17.0","","56","","","","25","","12","","32.2","","101.04","","32","","","","NA"
"-71.39","46.79","QUEBEC INTL A","7016293","2020-05-26 12:00","2020","05","26","12:00","","27.5","","18.5","","58","","","","26","","19","","32.2","","100.99","","34","","","","NA"
"-71.39","46.79","QUEBEC INTL A","7016293","2020-05-26 13:00","2020","05","26","13:00","","28.7","","18.6","","54","","","","25","","18","","40.2","","100.92","","35","","","","Mainly Clear"
"-71.39","46.79","QUEBEC INTL A","7016293","2020-05-26 14:00","2020","05","26","14:00","","28.5","","17.4","","50","","","","24","","18","","40.2","","100.87","","34","","","","NA"
"-71.39","46.79","QUEBEC INTL A","7016293","2020-05-26 15:00","2020","05","26","15:00","","29.4","","17.6","","48","","","","24","","10","","40.2","","100.83","","35","","","","NA"
"-71.39","46.79","QUEBEC INTL A","7016293","2020-05-26 16:00","2020","05","26","16:00","","28.9","","17.5","","49","","","","27","","13","","40.2","","100.81","","35","","","","Mostly Cloudy"
"-71.39","46.79","QUEBEC INTL A","7016293","2020-05-26 17:00","2020","05","26","17:00","","28.1","","18.0","","54","","","","27","","7","","40.2","","100.81","","34","","","","NA"
"-71.39","46.79","QUEBEC INTL A","7016293","2020-05-26 18:00","2020","05","26","18:00","","27.0","","18.4","","59","","","","31","","3","","40.2","","100.85","","33","","","","NA"
"-71.39","46.79","QUEBEC INTL A","7016293","2020-05-26 19:00","2020","05","26","19:00","","25.8","","18.6","","64","","","","36","","5","","40.2","","100.86","","32","","","","Mostly Cloudy"
"-71.39","46.79","QUEBEC INTL A","7016293","2020-05-26 20:00","2020","05","26","20:00","","24.1","","18.9","","72","","","","2","","5","","24.1","","100.89","","31","","","","NA"
"-71.39","46.79","QUEBEC INTL A","7016293","2020-05-26 21:00","2020","05","26","21:00","","21.5","","19.6","","89","","","","33","","6","","24.1","","100.94","","29","","","","NA"
"-71.39","46.79","QUEBEC INTL A","7016293","2020-05-26 22:00","2020","05","26","22:00","","20.6","","18.7","","89","","","","35","","8","","24.1","","101.02","","27","","","","Mostly Cloudy"
"-71.39","46.79","QUEBEC INTL A","7016293","2020-05-26 23:00","2020","05","26","23:00","","20.0","","18.3","","90","","","","9","","13","","24.1","","101.03","","26","","","","NA"
"-71.39","46.79","QUEBEC INTL A","7016293","2020-05-27 00:00","2020","05","27","00:00","","19.3","","17.7","","90","","","","4","","12","","24.1","","101.04","","","","","","NA"
"-71.39","46.79","QUEBEC INTL A","7016293","2020-05-27 01:00","2020","05","27","01:00","","18.2","","17.3","","95","","","","6","","6","","24.1","","101.02","","","","","","Mainly Clear"
"-71.39","46.79","QUEBEC INTL A","7016293","2020-05-27 02:00","2020","05","27","02:00","","17.9","","17.2","","96","","","","5","","8","","24.1","","101.03","","","","","","NA"
"-71.39","46.79","QUEBEC INTL A","7016293","2020-05-27 03:00","2020","05","27","03:00","","17.8","","17.2","","96","","","","8","","9","","24.1","","101.06","","","","","","NA"
"-71.39","46.79","QUEBEC INTL A","7016293","2020-05-27 04:00","2020","05","27","04:00","","16.7","","16.3","","97","","","","5","","11","","16.1","","101.07","","","","","","Mainly Clear"
"-71.39","46.79","QUEBEC INTL A","7016293","2020-05-27 05:00","2020","05","27","05:00","","17.0","","16.5","","97","","","","5","","9","","24.1","","101.10","","","","","","NA"
"-71.39","46.79","QUEBEC INTL A","7016293","2020-05-27 06:00","2020","05","27","06:00","","18.3","","16.4","","88","","","","7","","14","","12.9","","101.13","","","","","","NA"
"-71.39","46.79","QUEBEC INTL A","7016293","2020-05-27 07:00","2020","05","27","07:00","","20.0","","16.5","","80","","","","9","","9","","12.9","","101.15","","25","","","","Mainly Clear"
"-71.39","46.79","QUEBEC INTL A","7016293","2020-05-27 08:00","2020","05","27","08:00","","21.8","","17.0","","74","","","","8","","15","","16.1","","101.15","","27","","","","NA"
"-71.39","46.79","QUEBEC INTL A","7016293","2020-05-27 09:00","2020","05","27","09:00","","23.8","","17.6","","68","","","","10","","10","","16.1","","101.09","","30","","","","NA"
"-71.39","46.79","QUEBEC INTL A","7016293","2020-05-27 10:00","2020","05","27","10:00","","25.5","","18.1","","63","","","","17","","6","","16.1","","101.05","","32","","","","Mainly Clear"
"-71.39","46.79","QUEBEC INTL A","7016293","2020-05-27 11:00","2020","05","27","11:00","","27.4","","19.5","","61","","","","27","","7","","16.1","","100.98","","35","","","","NA"
"-71.39","46.79","QUEBEC INTL A","7016293","2020-05-27 12:00","2020","05","27","12:00","","30.0","","21.4","","59","","","","21","","10","","16.1","","100.89","","39","","","","NA"
"-71.39","46.79","QUEBEC INTL A","7016293","2020-05-27 13:00","2020","05","27","13:00","","32.0","","20.1","","49","","","","22","","20","","16.1","","100.81","","40","","","","Mainly Clear"
"-71.39","46.79","QUEBEC INTL A","7016293","2020-05-27 14:00","2020","05","27","14:00","","32.0","","19.7","","47","","","","26","","16","","16.1","","100.77","","39","","","","NA"
"-71.39","46.79","QUEBEC INTL A","7016293","2020-05-27 15:00","2020","05","27","15:00","","31.4","","19.4","","48","","","","27","","9","","19.3","","100.72","","38","","","","NA"
"-71.39","46.79","QUEBEC INTL A","7016293","2020-05-27 16:00","2020","05","27","16:00","","32.1","","18.3","","43","","","","","","0","","19.3","","100.67","","38","","","","Mostly Cloudy"
"-71.39","46.79","QUEBEC INTL A","7016293","2020-05-27 17:00","2020","05","27","17:00","","30.8","","16.2","","40","","","","","","0","","19.3","","100.64","","36","","","","NA"
"-71.39","46.79","QUEBEC INTL A","7016293","2020-05-27 18:00","2020","05","27","18:00","","26.8","","16.9","","54","","","","","","0","","19.3","","100.67","","32","","","","NA"
"-71.39","46.79","QUEBEC INTL A","7016293","2020-05-27 19:00","2020","05","27","19:00","","20.2","","15.1","","72","","","","5","","21","","24.1","","100.72","","","","","","Mainly Clear"
"-71.39","46.79","QUEBEC INTL A","7016293","2020-05-27 20:00","2020","05","27","20:00","","18.9","","14.6","","76","","","","5","","13","","24.1","","100.72","","","","","","NA"
"-71.39","46.79","QUEBEC INTL A","7016293","2020-05-27 21:00","2020","05","27","21:00","","18.4","","14.2","","76","","","","2","","6","","24.1","","100.76","","","","","","NA"
"-71.39","46.79","QUEBEC INTL A","7016293","2020-05-27 22:00","2020","05","27","22:00","","17.8","","14.7","","82","","","","4","","6","","24.1","","100.78","","","","","","Mainly Clear"
"-71.39","46.79","QUEBEC INTL A","7016293","2020-05-27 23:00","2020","05","27","23:00","","17.2","","14.2","","82","","","","","","0","","24.1","","100.78","","","","","","NA"
"-71.39","46.79","QUEBEC INTL A","7016293","2020-05-28 00:00","2020","05","28","00:00","","15.7","","14.4","","92","","","","","","0","","24.1","","100.77","","","","","","NA"
"-71.39","46.79","QUEBEC INTL A","7016293","2020-05-28 01:00","2020","05","28","01:00","","16.2","","14.9","","92","","","","35","","4","","24.1","","100.73","","","","","","Clear"
"-71.39","46.79","QUEBEC INTL A","7016293","2020-05-28 02:00","2020","05","28","02:00","","15.6","","14.3","","92","","","","","","0","","24.1","","100.71","","","","","","NA"
"-71.39","46.79","QUEBEC INTL A","7016293","2020-05-28 03:00","2020","05","28","03:00","","15.6","","14.6","","93","","","","","","0","","24.1","","100.72","","","","","","NA"
"-71.39","46.79","QUEBEC INTL A","7016293","2020-05-28 04:00","2020","05","28","04:00","","16.3","","14.8","","91","","","","9","","5","","24.1","","100.75","","","","","","Mostly Cloudy"
"-71.39","46.79","QUEBEC INTL A","7016293","2020-05-28 05:00","2020","05","28","05:00","","17.4","","15.0","","86","","","","","","0","","24.1","","100.78","","","","","","NA"
"-71.39","46.79","QUEBEC INTL A","7016293","2020-05-28 06:00","2020","05","28","06:00","","20.9","","17.8","","82","","","","21","","9","","32.2","","100.81","","27","","","","NA"
"-71.39","46.79","QUEBEC INTL A","7016293","2020-05-28 07:00","2020","05","28","07:00","","23.4","","18.5","","74","","","","24","","14","","40.2","","100.79","","30","","","","Mainly Clear"
"-71.39","46.79","QUEBEC INTL A","7016293","2020-05-28 08:00","2020","05","28","08:00","","25.2","","18.8","","67","","","","25","","22","","40.2","","100.80","","32","","","","NA"
"-71.39","46.79","QUEBEC INTL A","7016293","2020-05-28 09:00","2020","05","28","09:00","","27.6","","18.2","","56","","","","23","","26","","48.3","","100.74","","34","","","","NA"
"-71.39","46.79","QUEBEC INTL A","7016293","2020-05-28 10:00","2020","05","28","10:00","","28.6","","18.0","","52","","","","22","","23","","48.3","","100.70","","35","","","","Mainly Clear"
"-71.39","46.79","QUEBEC INTL A","7016293","2020-05-28 11:00","2020","05","28","11:00","","29.9","","17.6","","47","","","","23","","27","","48.3","","100.67","","36","","","","NA"
"-71.39","46.79","QUEBEC INTL A","7016293","2020-05-28 12:00","2020","05","28","12:00","","30.5","","17.5","","45","","","","25","","30","","48.3","","100.62","","36","","","","NA"
"-71.39","46.79","QUEBEC INTL A","7016293","2020-05-28 13:00","2020","05","28","13:00","","31.5","","18.1","","44","","","","25","","21","","48.3","","100.55","","38","","","","Mostly Cloudy"
"-71.39","46.79","QUEBEC INTL A","7016293","2020-05-28 14:00","2020","05","28","14:00","","30.1","","17.2","","45","","","","24","","25","","48.3","","100.51","","36","","","","NA"
"-71.39","46.79","QUEBEC INTL A","7016293","2020-05-28 15:00","2020","05","28","15:00","","31.3","","17.1","","42","","","","22","","26","","48.3","","100.46","","37","","","","NA"
"-71.39","46.79","QUEBEC INTL A","7016293","2020-05-28 16:00","2020","05","28","16:00","","29.7","","14.9","","40","","","","23","","33","","48.3","","100.44","","34","","","","Mostly Cloudy"
"-71.39","46.79","QUEBEC INTL A","7016293","2020-05-28 17:00","2020","05","28","17:00","","28.4","","16.3","","47","","","","24","","22","","48.3","","100.40","","33","","","","NA"
"-71.39","46.79","QUEBEC INTL A","7016293","2020-05-28 18:00","2020","05","28","18:00","","27.2","","16.6","","52","","","","24","","12","","48.3","","100.38","","32","","","","NA"
"-71.39","46.79","QUEBEC INTL A","7016293","2020-05-28 19:00","2020","05","28","19:00","","26.2","","15.4","","51","","","","24","","13","","48.3","","100.36","","30","","","","Mostly Cloudy"
"-71.39","46.79","QUEBEC INTL A","7016293","2020-05-28 20:00","2020","05","28","20:00","","23.4","","16.1","","63","","","","24","","5","","24.1","","100.35","","28","","","","NA"
"-71.39","46.79","QUEBEC INTL A","7016293","2020-05-28 21:00","2020","05","28","21:00","","21.0","","16.6","","76","","","","","","0","","32.2","","100.32","","26","","","","NA"
"-71.39","46.79","QUEBEC INTL A","7016293","2020-05-28 22:00","2020","05","28","22:00","","19.7","","17.0","","84","","","","","","0","","24.1","","100.26","","","","","","Mostly Cloudy"
"-71.39","46.79","QUEBEC INTL A","7016293","2020-05-28 23:00","2020","05","28","23:00","","19.3","","17.2","","87","","","","32","","3","","24.1","","100.22","","","","","","NA"
"-71.39","46.79","QUEBEC INTL A","7016293","2020-05-29 00:00","2020","05","29","00:00","","20.3","","17.6","","84","","","","","","0","","24.1","","100.13","","26","","","","NA"
"-71.39","46.79","QUEBEC INTL A","7016293","2020-05-29 01:00","2020","05","29","01:00","","20.8","","17.7","","82","","","","31","","6","","24.1","","100.07","","27","","","","Mostly Cloudy"
"-71.39","46.79","QUEBEC INTL A","7016293","2020-05-29 02:00","2020","05","29","02:00","","20.6","","19.1","","91","","","","28","","4","","24.1","","100.02","","27","","","","NA"
"-71.39","46.79","QUEBEC INTL A","7016293","2020-05-29 03:00","2020","05","29","03:00","","22.5","","19.1","","81","","","","24","","17","","24.1","","100.00","","29","","","","NA"
"-71.39","46.79","QUEBEC INTL A","7016293","2020-05-29 04:00","2020","05","29","04:00","","23.1","","19.0","","78","","","","22","","23","","24.1","","99.98","","30","","","","Cloudy"
"-71.39","46.79","QUEBEC INTL A","7016293","2020-05-29 05:00","2020","05","29","05:00","","23.0","","18.8","","77","","","","23","","18","","48.3","","100.02","","30","","","","NA"
"-71.39","46.79","QUEBEC INTL A","7016293","2020-05-29 06:00","2020","05","29","06:00","","23.2","","18.4","","74","","","","24","","26","","48.3","","100.03","","30","","","","NA"
"-71.39","46.79","QUEBEC INTL A","7016293","2020-05-29 07:00","2020","05","29","07:00","","24.6","","18.8","","70","","","","25","","37","","48.3","","100.04","","31","","","","Mainly Clear"
"-71.39","46.79","QUEBEC INTL A","7016293","2020-05-29 08:00","2020","05","29","08:00","","23.8","","18.4","","71","","","","25","","28","","48.3","","100.05","","30","","","","NA"
"-71.39","46.79","QUEBEC INTL A","7016293","2020-05-29 09:00","2020","05","29","09:00","","23.9","","19.1","","74","","","","26","","21","","48.3","","100.04","","31","","","","NA"
"-71.39","46.79","QUEBEC INTL A","7016293","2020-05-29 10:00","2020","05","29","10:00","","26.6","","19.5","","65","","","","26","","27","","48.3","","99.96","","34","","","","Mostly Cloudy"
"-71.39","46.79","QUEBEC INTL A","7016293","2020-05-29 11:00","2020","05","29","11:00","","28.5","","19.1","","56","","","","24","","31","","48.3","","99.88","","35","","","","NA"
"-71.39","46.79","QUEBEC INTL A","7016293","2020-05-29 12:00","2020","05","29","12:00","","29.8","","18.9","","51","","","","24","","37","","48.3","","99.80","","36","","","","NA"
"-71.39","46.79","QUEBEC INTL A","7016293","2020-05-29 13:00","2020","05","29","13:00","","30.7","","16.6","","42","","","","24","","35","","40.2","","99.72","","36","","","","Mainly Clear"
"-71.39","46.79","QUEBEC INTL A","7016293","2020-05-29 14:00","2020","05","29","14:00","","31.3","","16.2","","40","","","","23","","33","","40.2","","99.65","","36","","","","NA"
"-71.39","46.79","QUEBEC INTL A","7016293","2020-05-29 15:00","2020","05","29","15:00","","31.4","","16.2","","39","","","","24","","29","","40.2","","99.56","","36","","","","NA"
"-71.39","46.79","QUEBEC INTL A","7016293","2020-05-29 16:00","2020","05","29","16:00","","31.6","","16.1","","39","","","","24","","27","","40.2","","99.51","","36","","","","Mostly Cloudy"
"-71.39","46.79","QUEBEC INTL A","7016293","2020-05-29 17:00","2020","05","29","17:00","","29.2","","15.0","","42","","","","23","","25","","48.3","","99.52","","33","","","","NA"
"-71.39","46.79","QUEBEC INTL A","7016293","2020-05-29 18:00","2020","05","29","18:00","","25.9","","18.4","","63","","","","20","","21","","40.2","","99.53","","32","","","","Rain Showers"
"-71.39","46.79","QUEBEC INTL A","7016293","2020-05-29 19:00","2020","05","29","19:00","","24.4","","17.4","","65","","","","21","","16","","48.3","","99.50","","30","","","","Cloudy"
"-71.39","46.79","QUEBEC INTL A","7016293","2020-05-29 20:00","2020","05","29","20:00","","22.8","","17.6","","72","","","","26","","8","","48.3","","99.49","","29","","","","Rain Showers"
"-71.39","46.79","QUEBEC INTL A","7016293","2020-05-29 21:00","2020","05","29","21:00","","21.8","","19.3","","86","","","","21","","16","","16.1","","99.49","","29","","","","Rain Showers"
"-71.39","46.79","QUEBEC INTL A","7016293","2020-05-29 22:00","2020","05","29","22:00","","21.2","","19.8","","91","","","","22","","20","","24.1","","99.43","","29","","","","Rain Showers"
"-71.39","46.79","QUEBEC INTL A","7016293","2020-05-29 23:00","2020","05","29","23:00","","21.1","","19.5","","90","","","","22","","23","","24.1","","99.39","","28","","","","NA"
"-71.39","46.79","QUEBEC INTL A","7016293","2020-05-30 00:00","2020","05","30","00:00","","20.5","","18.6","","89","","","","22","","23","","24.1","","99.32","","27","","","","NA"
"-71.39","46.79","QUEBEC INTL A","7016293","2020-05-30 01:00","2020","05","30","01:00","","20.5","","18.0","","85","","","","23","","24","","24.1","","99.31","","27","","","","Mostly Cloudy"
"-71.39","46.79","QUEBEC INTL A","7016293","2020-05-30 02:00","2020","05","30","02:00","","20.2","","17.7","","85","","","","23","","23","","24.1","","99.28","","26","","","","NA"
"-71.39","46.79","QUEBEC INTL A","7016293","2020-05-30 03:00","2020","05","30","03:00","","20.0","","17.4","","84","","","","22","","25","","24.1","","99.23","","26","","","","NA"
"-71.39","46.79","QUEBEC INTL A","7016293","2020-05-30 04:00","2020","05","30","04:00","","20.0","","16.3","","79","","","","23","","31","","24.1","","99.23","","25","","","","Cloudy"
"-71.39","46.79","QUEBEC INTL A","7016293","2020-05-30 05:00","2020","05","30","05:00","","19.7","","15.4","","76","","","","24","","25","","24.1","","99.24","","","","","","NA"
"-71.39","46.79","QUEBEC INTL A","7016293","2020-05-30 06:00","2020","05","30","06:00","","16.4","","12.2","","76","","","","34","","15","","40.2","","99.33","","","","","","NA"
"-71.39","46.79","QUEBEC INTL A","7016293","2020-05-30 07:00","2020","05","30","07:00","","14.2","","10.0","","76","","","","32","","14","","40.2","","99.54","","","","","","Cloudy"
"-71.39","46.79","QUEBEC INTL A","7016293","2020-05-30 08:00","2020","05","30","08:00","","14.5","","9.4","","71","","","","27","","16","","40.2","","99.70","","","","","","NA"
"-71.39","46.79","QUEBEC INTL A","7016293","2020-05-30 09:00","2020","05","30","09:00","","16.4","","8.5","","59","","","","31","","14","","40.2","","99.82","","","","","","NA"
"-71.39","46.79","QUEBEC INTL A","7016293","2020-05-30 10:00","2020","05","30","10:00","","16.1","","8.2","","59","","","","28","","21","","48.3","","99.91","","","","","","Mostly Cloudy"
"-71.39","46.79","QUEBEC INTL A","7016293","2020-05-30 11:00","2020","05","30","11:00","","17.0","","7.8","","54","","","","27","","21","","48.3","","99.96","","","","","","NA"
"-71.39","46.79","QUEBEC INTL A","7016293","2020-05-30 12:00","2020","05","30","12:00","","17.4","","7.5","","52","","","","28","","17","","48.3","","99.97","","","","","","NA"
"-71.39","46.79","QUEBEC INTL A","7016293","2020-05-30 13:00","2020","05","30","13:00","","18.5","","7.3","","47","","","","27","","21","","48.3","","99.97","","","","","","Mostly Cloudy"
"-71.39","46.79","QUEBEC INTL A","7016293","2020-05-30 14:00","2020","05","30","14:00","","18.0","","7.5","","50","","","","28","","7","","48.3","","99.98","","","","","","NA"
"-71.39","46.79","QUEBEC INTL A","7016293","2020-05-30 15:00","2020","05","30","15:00","","19.8","","7.9","","46","","","","26","","14","","48.3","","99.94","","","","","","NA"
"-71.39","46.79","QUEBEC INTL A","7016293","2020-05-30 16:00","2020","05","30","16:00","","18.9","","7.7","","48","","","","26","","9","","48.3","","99.96","","","","","","Mostly Cloudy"
"-71.39","46.79","QUEBEC INTL A","7016293","2020-05-30 17:00","2020","05","30","17:00","","18.9","","6.1","","43","","","","25","","17","","48.3","","99.92","","","","","","NA"
"-71.39","46.79","QUEBEC INTL A","7016293","2020-05-30 18:00","2020","05","30","18:00","","17.9","","7.5","","50","","","","27","","6","","48.3","","99.89","","","","","","NA"
"-71.39","46.79","QUEBEC INTL A","7016293","2020-05-30 19:00","2020","05","30","19:00","","17.0","","10.3","","65","","","","","","0","","48.3","","99.85","","","","","","Mostly Cloudy"
"-71.39","46.79","QUEBEC INTL A","7016293","2020-05-30 20:00","2020","05","30","20:00","","16.7","","8.7","","59","","","","12","","9","","32.2","","99.76","","","","","","NA"
"-71.39","46.79","QUEBEC INTL A","7016293","2020-05-30 21:00","2020","05","30","21:00","","13.0","","11.4","","90","","","","27","","26","","12.9","","99.89","","","","","","Heavy Rain Showers"
"-71.39","46.79","QUEBEC INTL A","7016293","2020-05-30 22:00","2020","05","30","22:00","","11.2","","9.9","","91","","","","35","","9","","12.9","","99.85","","","","","","Rain Showers"
"-71.39","46.79","QUEBEC INTL A","7016293","2020-05-30 23:00","2020","05","30","23:00","","10.0","","7.0","","82","","","","36","","10","","24.1","","99.99","","","","","","NA"
"-71.39","46.79","QUEBEC INTL A","7016293","2020-05-31 00:00","2020","05","31","00:00","","8.8","","6.2","","84","","","","29","","9","","24.1","","100.03","","","","","","NA"
"-71.39","46.79","QUEBEC INTL A","7016293","2020-05-31 01:00","2020","05","31","01:00","","7.3","","4.2","","81","","","","31","","10","","24.1","","100.11","","","","","","Mostly Cloudy"
"-71.39","46.79","QUEBEC INTL A","7016293","2020-05-31 02:00","2020","05","31","02:00","","6.8","","2.9","","76","","","","29","","10","","24.1","","100.20","","","","","","NA"
"-71.39","46.79","QUEBEC INTL A","7016293","2020-05-31 03:00","2020","05","31","03:00","","6.5","","1.6","","71","","","","31","","5","","24.1","","100.28","","","","","","NA"
"-71.39","46.79","QUEBEC INTL A","7016293","2020-05-31 04:00","2020","05","31","04:00","","6.1","","1.4","","72","","","","28","","12","","24.1","","100.41","","","","","","Mostly Cloudy"
"-71.39","46.79","QUEBEC INTL A","7016293","2020-05-31 05:00","2020","05","31","05:00","","5.8","","1.1","","72","","","","29","","14","","48.3","","100.49","","","","","","NA"
"-71.39","46.79","QUEBEC INTL A","7016293","2020-05-31 06:00","2020","05","31","06:00","","5.7","","0.1","","67","","","","28","","21","","48.3","","100.56","","","","","","NA"
"-71.39","46.79","QUEBEC INTL A","7016293","2020-05-31 07:00","2020","05","31","07:00","","7.6","","0.8","","62","","","","30","","12","","48.3","","100.61","","","","","","Mostly Cloudy"
"-71.39","46.79","QUEBEC INTL A","7016293","2020-05-31 08:00","2020","05","31","08:00","","7.2","","-0.1","","60","","","","27","","23","","48.3","","100.70","","","","","","NA"
"-71.39","46.79","QUEBEC INTL A","7016293","2020-05-31 09:00","2020","05","31","09:00","","7.4","","0.2","","60","","","","30","","20","","48.3","","100.73","","","","","","NA"
"-71.39","46.79","QUEBEC INTL A","7016293","2020-05-31 10:00","2020","05","31","10:00","","7.0","","-1.2","","56","","","","30","","14","","48.3","","100.79","","","","","","Mostly Cloudy"
"-71.39","46.79","QUEBEC INTL A","7016293","2020-05-31 11:00","2020","05","31","11:00","","6.9","","-1.7","","54","","","","27","","18","","48.3","","100.81","","","","","","NA"
"-71.39","46.79","QUEBEC INTL A","7016293","2020-05-31 12:00","2020","05","31","12:00","","8.0","","-0.9","","53","","","","30","","12","","48.3","","100.84","","","","","","NA"
"-71.39","46.79","QUEBEC INTL A","7016293","2020-05-31 13:00","2020","05","31","13:00","","7.1","","-3.1","","48","","","","31","","15","","48.3","","100.89","","","","","","Cloudy"
"-71.39","46.79","QUEBEC INTL A","7016293","2020-05-31 14:00","2020","05","31","14:00","","7.8","","-2.3","","49","","","","28","","12","","48.3","","100.93","","","","","","NA"
"-71.39","46.79","QUEBEC INTL A","7016293","2020-05-31 15:00","2020","05","31","15:00","","7.7","","-3.8","","44","","","","30","","17","","48.3","","100.94","","","","","","NA"
"-71.39","46.79","QUEBEC INTL A","7016293","2020-05-31 16:00","2020","05","31","16:00","","8.3","","-3.0","","45","","","","29","","10","","48.3","","100.94","","","","","","Mostly Cloudy"
"-71.39","46.79","QUEBEC INTL A","7016293","2020-05-31 17:00","2020","05","31","17:00","","8.3","","-3.2","","44","","","","27","","16","","48.3","","100.96","","","","","","NA"
"-71.39","46.79","QUEBEC INTL A","7016293","2020-05-31 18:00","2020","05","31","18:00","","7.8","","-2.6","","48","","","","28","","9","","48.3","","101.00","","","","","","NA"
"-71.39","46.79","QUEBEC INTL A","7016293","2020-05-31 19:00","2020","05","31","19:00","","7.1","","-1.0","","56","","","","27","","5","","48.3","","101.00","","","","","","Mostly Cloudy"
"-71.39","46.79","QUEBEC INTL A","7016293","2020-05-31 20:00","2020","05","31","20:00","","4.0","","-0.3","","74","","","","25","","10","","48.3","","101.02","","","","","","NA"
"-71.39","46.79","QUEBEC INTL A","7016293","2020-05-31 21:00","2020","05","31","21:00","","3.3","","-0.6","","76","","","","25","","8","","24.1","","101.02","","","","","","NA"
"-71.39","46.79","QUEBEC INTL A","7016293","2020-05-31 22:00","2020","05","31","22:00","","0.9","","-0.4","","91","","","","26","","5","","24.1","","100.99","","","","","","Mainly Clear"
"-71.39","46.79","QUEBEC INTL A","7016293","2020-05-31 23:00","2020","05","31","23:00","","2.7","","-0.8","","77","","","","27","","8","","24.1","","100.96","","","","","","NA"
