"Longitude (x)","Latitude (y)","Station Name","Climate ID","Date/Time (LST)","Year","Month","Day","Time (LST)","Flag","Temp (°C)","Temp Flag","Dew Point Temp (°C)","Dew Point Temp Flag","Rel Hum (%)","Rel Hum Flag","Precip. Amount (mm)","Precip. Amount Flag","Wind Dir (10s deg)","Wind Dir Flag","Wind Spd (km/h)","Wind Spd Flag","Visibility (km)","Visibility Flag","Stn Press (kPa)","Stn Press Flag","Hmdx","Hmdx Flag","Wind Chill","Wind Chill Flag","Weather"
"-71.39","46.79","QUEBEC INTL A","7016293","2021-05-01 00:00","2021","05","01","00:00","","6.6","","6.3","","98","","","","25","","18","","16.1","","98.79","","","","","","Rain Showers"
"-71.39","46.79","QUEBEC INTL A","7016293","2021-05-01 01:00","2021","05","01","01:00","","6.7","","6.3","","97","","","","25","","16","","24.1","","98.80","","","","","","Cloudy"
"-71.39","46.79","QUEBEC INTL A","7016293","2021-05-01 02:00","2021","05","01","02:00","","7.3","","4.0","","79","","","","32","","12","","24.1","","98.92","","","","","","NA"
"-71.39","46.79","QUEBEC INTL A","7016293","2021-05-01 03:00","2021","05","01","03:00","","6.2","","2.1","","75","","","","29","","11","","24.1","","99.08","","","","","","NA"
"-71.39","46.79","QUEBEC INTL A","7016293","2021-05-01 04:00","2021","05","01","04:00","","4.9","","0.5","","73","","","","29","","9","","48.3","","99.20","","","","","","Mostly Cloudy"
"-71.39","46.79","QUEBEC INTL A","7016293","2021-05-01 05:00","2021","05","01","05:00","","4.2","","-1.1","","68","","","","29","","9","","48.3","","99.36","","","","","","NA"
"-71.39","46.79","QUEBEC INTL A","7016293","2021-05-01 06:00","2021","05","01","06:00","","3.6","","-3.5","","60","","","","30","","14","","48.3","","99.47","","","","","","NA"
"-71.39","46.79","QUEBEC INTL A","7016293","2021-05-01 07:00","2021","05","01","07:00","","4.1","","-2.7","","61","","","","31","","12","","48.3","","99.62","","","","","","Mostly Cloudy"
"-71.39","46.79","QUEBEC INTL A","7016293","2021-05-01 08:00","2021","05","01","08:00","","5.7","","-3.0","","53","","","","32","","11","","48.3","","99.67","","","","","","NA"
"-71.39","46.79","QUEBEC INTL A","7016293","2021-05-01 09:00","2021","05","01","09:00","","6.0","","-7.5","","37","","","","29","","19","","48.3","","99.74","","","","","","NA"
"-71.39","46.79","QUEBEC INTL A","7016293","2021-05-01 10:00","2021","05","01","10:00","","6.5","","-7.6","","36","","","","30","","18","","48.3","","99.82","","","","","","Mostly Cloudy"
"-71.39","46.79","QUEBEC INTL A","7016293","2021-05-01 11:00","2021","05","01","11:00","","7.5","","-10.4","","27","","","","31","","21","","48.3","","99.82","","","","","","NA"
"-71.39","46.79","QUEBEC INTL A","7016293","2021-05-01 12:00","2021","05","01","12:00","","9.2","","-9.2","","26","","","","30","","17","","48.3","","99.77","","","","","","NA"
"-71.39","46.79","QUEBEC INTL A","7016293","2021-05-01 13:00","2021","05","01","13:00","","10.3","","-8.8","","25","","","","24","","17","","48.3","","99.72","","","","","","Mostly Cloudy"
"-71.39","46.79","QUEBEC INTL A","7016293","2021-05-01 14:00","2021","05","01","14:00","","10.9","","-8.5","","25","","","","27","","22","","48.3","","99.65","","","","","","NA"
"-71.39","46.79","QUEBEC INTL A","7016293","2021-05-01 15:00","2021","05","01","15:00","","11.7","","-8.8","","23","","","","27","","19","","48.3","","99.59","","","","","","NA"
"-71.39","46.79","QUEBEC INTL A","7016293","2021-05-01 16:00","2021","05","01","16:00","","11.9","","-9.0","","22","","","","27","","24","","48.3","","99.53","","","","","","Mostly Cloudy"
"-71.39","46.79","QUEBEC INTL A","7016293","2021-05-01 17:00","2021","05","01","17:00","","11.7","","-8.9","","23","","","","27","","21","","48.3","","99.47","","","","","","NA"
"-71.39","46.79","QUEBEC INTL A","7016293","2021-05-01 18:00","2021","05","01","18:00","","9.8","","-7.9","","28","","","","26","","28","","48.3","","99.44","","","","","","NA"
"-71.39","46.79","QUEBEC INTL A","7016293","2021-05-01 19:00","2021","05","01","19:00","","8.1","","-7.2","","33","","","","27","","15","","48.3","","99.50","","","","","","Mainly Clear"
"-71.39","46.79","QUEBEC INTL A","7016293","2021-05-01 20:00","2021","05","01","20:00","","8.3","","-4.5","","40","","","","24","","28","","24.1","","99.55","","","","","","NA"
"-71.39","46.79","QUEBEC INTL A","7016293","2021-05-01 21:00","2021","05","01","21:00","","7.5","","-2.5","","49","","","","24","","27","","24.1","","99.57","","","","","","NA"
"-71.39","46.79","QUEBEC INTL A","7016293","2021-05-01 22:00","2021","05","01","22:00","","7.6","","-3.1","","46","","","","25","","28","","24.1","","99.61","","","","","","Cloudy"
"-71.39","46.79","QUEBEC INTL A","7016293","2021-05-01 23:00","2021","05","01","23:00","","6.8","","-2.7","","51","","","","28","","19","","24.1","","99.53","","","","","","NA"
"-71.39","46.79","QUEBEC INTL A","7016293","2021-05-02 00:00","2021","05","02","00:00","","5.8","","-2.0","","57","","","","27","","7","","24.1","","99.45","","","","","","NA"
"-71.39","46.79","QUEBEC INTL A","7016293","2021-05-02 01:00","2021","05","02","01:00","","5.5","","-1.8","","59","","","","25","","8","","24.1","","99.37","","","","","","Cloudy"
"-71.39","46.79","QUEBEC INTL A","7016293","2021-05-02 02:00","2021","05","02","02:00","","6.3","","-0.5","","62","","","","23","","22","","24.1","","99.28","","","","","","NA"
"-71.39","46.79","QUEBEC INTL A","7016293","2021-05-02 03:00","2021","05","02","03:00","","4.8","","1.1","","77","","","","23","","27","","19.3","","99.23","","","","","","Rain"
"-71.39","46.79","QUEBEC INTL A","7016293","2021-05-02 04:00","2021","05","02","04:00","","4.1","","2.8","","92","","","","23","","20","","16.1","","99.22","","","","","","Rain"
"-71.39","46.79","QUEBEC INTL A","7016293","2021-05-02 05:00","2021","05","02","05:00","","4.1","","3.0","","92","","","","23","","17","","32.2","","99.20","","","","","","Rain"
"-71.39","46.79","QUEBEC INTL A","7016293","2021-05-02 06:00","2021","05","02","06:00","","4.3","","3.0","","91","","","","23","","21","","32.2","","99.20","","","","","","NA"
"-71.39","46.79","QUEBEC INTL A","7016293","2021-05-02 07:00","2021","05","02","07:00","","4.8","","3.6","","92","","","","24","","15","","32.2","","99.18","","","","","","Cloudy"
"-71.39","46.79","QUEBEC INTL A","7016293","2021-05-02 08:00","2021","05","02","08:00","","6.0","","3.5","","84","","","","24","","18","","40.2","","99.13","","","","","","NA"
"-71.39","46.79","QUEBEC INTL A","7016293","2021-05-02 09:00","2021","05","02","09:00","","7.2","","3.1","","75","","","","26","","21","","48.3","","99.14","","","","","","NA"
"-71.39","46.79","QUEBEC INTL A","7016293","2021-05-02 10:00","2021","05","02","10:00","","9.1","","3.6","","68","","","","26","","17","","48.3","","99.14","","","","","","Mostly Cloudy"
"-71.39","46.79","QUEBEC INTL A","7016293","2021-05-02 11:00","2021","05","02","11:00","","11.4","","1.7","","51","","","","26","","26","","48.3","","99.14","","","","","","NA"
"-71.39","46.79","QUEBEC INTL A","7016293","2021-05-02 12:00","2021","05","02","12:00","","12.8","","0.1","","42","","","","26","","28","","48.3","","99.12","","","","","","NA"
"-71.39","46.79","QUEBEC INTL A","7016293","2021-05-02 13:00","2021","05","02","13:00","","13.8","","-0.6","","37","","","","27","","32","","48.3","","99.09","","","","","","Mainly Clear"
"-71.39","46.79","QUEBEC INTL A","7016293","2021-05-02 14:00","2021","05","02","14:00","","14.7","","-3.8","","28","","","","28","","31","","48.3","","99.15","","","","","","NA"
"-71.39","46.79","QUEBEC INTL A","7016293","2021-05-02 15:00","2021","05","02","15:00","","14.2","","-8.4","","20","","","","28","","19","","48.3","","99.24","","","","","","NA"
"-71.39","46.79","QUEBEC INTL A","7016293","2021-05-02 16:00","2021","05","02","16:00","","13.2","","-10.1","","19","","","","31","","19","","48.3","","99.33","","","","","","Mainly Clear"
"-71.39","46.79","QUEBEC INTL A","7016293","2021-05-02 17:00","2021","05","02","17:00","","12.2","","-10.4","","19","","","","28","","21","","48.3","","99.45","","","","","","NA"
"-71.39","46.79","QUEBEC INTL A","7016293","2021-05-02 18:00","2021","05","02","18:00","","10.7","","-10.3","","22","","","","29","","22","","48.3","","99.58","","","","","","NA"
"-71.39","46.79","QUEBEC INTL A","7016293","2021-05-02 19:00","2021","05","02","19:00","","8.5","","-10.5","","25","","","","31","","13","","48.3","","99.70","","","","","","Clear"
"-71.39","46.79","QUEBEC INTL A","7016293","2021-05-02 20:00","2021","05","02","20:00","","7.2","","-11.1","","26","","","","30","","12","","24.1","","99.83","","","","","","NA"
"-71.39","46.79","QUEBEC INTL A","7016293","2021-05-02 21:00","2021","05","02","21:00","","5.9","","-9.1","","33","","","","33","","11","","24.1","","99.96","","","","","","NA"
"-71.39","46.79","QUEBEC INTL A","7016293","2021-05-02 22:00","2021","05","02","22:00","","4.5","","-7.4","","42","","","","33","","10","","24.1","","100.03","","","","","","Clear"
"-71.39","46.79","QUEBEC INTL A","7016293","2021-05-02 23:00","2021","05","02","23:00","","3.1","","-7.0","","48","","","","30","","7","","24.1","","100.14","","","","","","NA"
"-71.39","46.79","QUEBEC INTL A","7016293","2021-05-03 00:00","2021","05","03","00:00","","0.4","","-6.9","","58","","","","24","","10","","24.1","","100.22","","","","","","NA"
"-71.39","46.79","QUEBEC INTL A","7016293","2021-05-03 01:00","2021","05","03","01:00","","0.8","","-6.7","","57","","","","25","","21","","24.1","","100.20","","","","","","Clear"
"-71.39","46.79","QUEBEC INTL A","7016293","2021-05-03 02:00","2021","05","03","02:00","","-0.1","","-6.5","","62","","","","26","","24","","24.1","","100.27","","","","-6","","NA"
"-71.39","46.79","QUEBEC INTL A","7016293","2021-05-03 03:00","2021","05","03","03:00","","-1.5","","-6.4","","69","","","","26","","13","","24.1","","100.33","","","","-6","","NA"
"-71.39","46.79","QUEBEC INTL A","7016293","2021-05-03 04:00","2021","05","03","04:00","","-1.1","","-6.4","","67","","","","28","","10","","24.1","","100.38","","","","-5","","Mainly Clear"
"-71.39","46.79","QUEBEC INTL A","7016293","2021-05-03 05:00","2021","05","03","05:00","","-1.6","","-6.5","","69","","","","26","","8","","48.3","","100.44","","","","-5","","NA"
"-71.39","46.79","QUEBEC INTL A","7016293","2021-05-03 06:00","2021","05","03","06:00","","1.0","","-5.4","","62","","","","23","","8","","48.3","","100.50","","","","","","NA"
"-71.39","46.79","QUEBEC INTL A","7016293","2021-05-03 07:00","2021","05","03","07:00","","3.3","","-6.4","","49","","","","25","","8","","48.3","","100.53","","","","","","Mainly Clear"
"-71.39","46.79","QUEBEC INTL A","7016293","2021-05-03 08:00","2021","05","03","08:00","","5.3","","-5.5","","46","","","","23","","13","","48.3","","100.51","","","","","","NA"
"-71.39","46.79","QUEBEC INTL A","7016293","2021-05-03 09:00","2021","05","03","09:00","","6.8","","-5.6","","41","","","","24","","19","","48.3","","100.47","","","","","","NA"
"-71.39","46.79","QUEBEC INTL A","7016293","2021-05-03 10:00","2021","05","03","10:00","","7.3","","-4.0","","44","","","","21","","29","","48.3","","100.48","","","","","","Mostly Cloudy"
"-71.39","46.79","QUEBEC INTL A","7016293","2021-05-03 11:00","2021","05","03","11:00","","8.2","","-3.6","","43","","","","21","","28","","48.3","","100.48","","","","","","NA"
"-71.39","46.79","QUEBEC INTL A","7016293","2021-05-03 12:00","2021","05","03","12:00","","9.3","","-2.7","","43","","","","21","","25","","48.3","","100.43","","","","","","NA"
"-71.39","46.79","QUEBEC INTL A","7016293","2021-05-03 13:00","2021","05","03","13:00","","9.7","","-3.0","","41","","","","21","","28","","48.3","","100.40","","","","","","Mostly Cloudy"
"-71.39","46.79","QUEBEC INTL A","7016293","2021-05-03 14:00","2021","05","03","14:00","","10.8","","-3.2","","37","","","","21","","22","","48.3","","100.36","","","","","","NA"
"-71.39","46.79","QUEBEC INTL A","7016293","2021-05-03 15:00","2021","05","03","15:00","","11.0","","-3.3","","37","","","","23","","23","","48.3","","100.34","","","","","","NA"
"-71.39","46.79","QUEBEC INTL A","7016293","2021-05-03 16:00","2021","05","03","16:00","","11.8","","-2.4","","37","","","","22","","20","","48.3","","100.30","","","","","","Mostly Cloudy"
"-71.39","46.79","QUEBEC INTL A","7016293","2021-05-03 17:00","2021","05","03","17:00","","12.0","","-3.1","","34","","","","24","","17","","48.3","","100.28","","","","","","NA"
"-71.39","46.79","QUEBEC INTL A","7016293","2021-05-03 18:00","2021","05","03","18:00","","10.2","","-1.8","","43","","","","25","","13","","48.3","","100.29","","","","","","NA"
"-71.39","46.79","QUEBEC INTL A","7016293","2021-05-03 19:00","2021","05","03","19:00","","9.2","","-2.2","","44","","","","23","","17","","24.1","","100.32","","","","","","Mostly Cloudy"
"-71.39","46.79","QUEBEC INTL A","7016293","2021-05-03 20:00","2021","05","03","20:00","","7.1","","-1.4","","55","","","","25","","15","","24.1","","100.36","","","","","","NA"
"-71.39","46.79","QUEBEC INTL A","7016293","2021-05-03 21:00","2021","05","03","21:00","","7.9","","-1.8","","50","","","","24","","9","","24.1","","100.38","","","","","","NA"
"-71.39","46.79","QUEBEC INTL A","7016293","2021-05-03 22:00","2021","05","03","22:00","","6.4","","-1.2","","59","","","","6","","7","","24.1","","100.36","","","","","","Mostly Cloudy"
"-71.39","46.79","QUEBEC INTL A","7016293","2021-05-03 23:00","2021","05","03","23:00","","5.4","","-0.6","","65","","","","","","0","","24.1","","100.35","","","","","","NA"
"-71.39","46.79","QUEBEC INTL A","7016293","2021-05-04 00:00","2021","05","04","00:00","","4.9","","-1.8","","62","","","","36","","6","","24.1","","100.33","","","","","","NA"
"-71.39","46.79","QUEBEC INTL A","7016293","2021-05-04 01:00","2021","05","04","01:00","","5.8","","-2.4","","56","","","","2","","9","","24.1","","100.32","","","","","","Mostly Cloudy"
"-71.39","46.79","QUEBEC INTL A","7016293","2021-05-04 02:00","2021","05","04","02:00","","5.8","","-1.7","","58","","","","3","","7","","24.1","","100.33","","","","","","NA"
"-71.39","46.79","QUEBEC INTL A","7016293","2021-05-04 03:00","2021","05","04","03:00","","6.0","","-2.3","","55","","","","3","","9","","24.1","","100.35","","","","","","NA"
"-71.39","46.79","QUEBEC INTL A","7016293","2021-05-04 04:00","2021","05","04","04:00","","6.8","","0.7","","65","","","","7","","17","","24.1","","100.33","","","","","","Mostly Cloudy"
"-71.39","46.79","QUEBEC INTL A","7016293","2021-05-04 05:00","2021","05","04","05:00","","6.8","","0.3","","63","","","","6","","18","","48.3","","100.39","","","","","","NA"
"-71.39","46.79","QUEBEC INTL A","7016293","2021-05-04 06:00","2021","05","04","06:00","","7.3","","-1.2","","55","","","","6","","24","","48.3","","100.43","","","","","","NA"
"-71.39","46.79","QUEBEC INTL A","7016293","2021-05-04 07:00","2021","05","04","07:00","","7.8","","-2.0","","50","","","","7","","30","","48.3","","100.44","","","","","","Mostly Cloudy"
"-71.39","46.79","QUEBEC INTL A","7016293","2021-05-04 08:00","2021","05","04","08:00","","8.2","","-1.3","","51","","","","6","","31","","48.3","","100.36","","","","","","NA"
"-71.39","46.79","QUEBEC INTL A","7016293","2021-05-04 09:00","2021","05","04","09:00","","8.3","","-1.1","","51","","","","6","","21","","48.3","","100.40","","","","","","NA"
"-71.39","46.79","QUEBEC INTL A","7016293","2021-05-04 10:00","2021","05","04","10:00","","8.6","","-2.1","","47","","","","6","","29","","48.3","","100.37","","","","","","Cloudy"
"-71.39","46.79","QUEBEC INTL A","7016293","2021-05-04 11:00","2021","05","04","11:00","","9.4","","-2.2","","44","","","","7","","28","","48.3","","100.29","","","","","","NA"
"-71.39","46.79","QUEBEC INTL A","7016293","2021-05-04 12:00","2021","05","04","12:00","","9.4","","-2.8","","42","","","","7","","30","","48.3","","100.31","","","","","","NA"
"-71.39","46.79","QUEBEC INTL A","7016293","2021-05-04 13:00","2021","05","04","13:00","","9.7","","-1.5","","45","","","","7","","26","","48.3","","100.26","","","","","","Cloudy"
"-71.39","46.79","QUEBEC INTL A","7016293","2021-05-04 14:00","2021","05","04","14:00","","9.9","","0.6","","52","","","","7","","21","","48.3","","100.25","","","","","","NA"
"-71.39","46.79","QUEBEC INTL A","7016293","2021-05-04 15:00","2021","05","04","15:00","","9.3","","0.5","","54","","","","7","","25","","48.3","","100.23","","","","","","NA"
"-71.39","46.79","QUEBEC INTL A","7016293","2021-05-04 16:00","2021","05","04","16:00","","9.8","","-0.6","","49","","","","6","","30","","48.3","","100.16","","","","","","Cloudy"
"-71.39","46.79","QUEBEC INTL A","7016293","2021-05-04 17:00","2021","05","04","17:00","","9.6","","0.0","","51","","","","7","","23","","48.3","","100.14","","","","","","NA"
"-71.39","46.79","QUEBEC INTL A","7016293","2021-05-04 18:00","2021","05","04","18:00","","9.2","","0.6","","55","","","","7","","19","","48.3","","100.10","","","","","","NA"
"-71.39","46.79","QUEBEC INTL A","7016293","2021-05-04 19:00","2021","05","04","19:00","","9.1","","0.0","","53","","","","8","","7","","48.3","","100.11","","","","","","Cloudy"
"-71.39","46.79","QUEBEC INTL A","7016293","2021-05-04 20:00","2021","05","04","20:00","","9.2","","-1.8","","46","","","","7","","20","","24.1","","100.07","","","","","","NA"
"-71.39","46.79","QUEBEC INTL A","7016293","2021-05-04 21:00","2021","05","04","21:00","","9.5","","-1.8","","45","","","","7","","25","","24.1","","100.02","","","","","","NA"
"-71.39","46.79","QUEBEC INTL A","7016293","2021-05-04 22:00","2021","05","04","22:00","","9.9","","-1.1","","46","","","","7","","19","","24.1","","100.00","","","","","","Cloudy"
"-71.39","46.79","QUEBEC INTL A","7016293","2021-05-04 23:00","2021","05","04","23:00","","8.7","","1.5","","60","","","","8","","18","","24.1","","100.02","","","","","","Rain"
"-71.39","46.79","QUEBEC INTL A","7016293","2021-05-05 00:00","2021","05","05","00:00","","8.6","","2.0","","63","","","","7","","23","","24.1","","99.96","","","","","","Rain"
"-71.39","46.79","QUEBEC INTL A","7016293","2021-05-05 01:00","2021","05","05","01:00","","8.4","","1.8","","63","","","","7","","28","","24.1","","99.94","","","","","","Mostly Cloudy"
"-71.39","46.79","QUEBEC INTL A","7016293","2021-05-05 02:00","2021","05","05","02:00","","8.2","","1.6","","63","","","","7","","25","","24.1","","99.92","","","","","","Rain"
"-71.39","46.79","QUEBEC INTL A","7016293","2021-05-05 03:00","2021","05","05","03:00","","6.6","","4.3","","85","","","","7","","30","","8.1","","99.91","","","","","","Rain,Fog"
"-71.39","46.79","QUEBEC INTL A","7016293","2021-05-05 04:00","2021","05","05","04:00","","6.2","","5.4","","94","","","","6","","20","","8.1","","99.84","","","","","","Rain,Fog"
"-71.39","46.79","QUEBEC INTL A","7016293","2021-05-05 05:00","2021","05","05","05:00","","6.2","","6.1","","99","","","","7","","26","","8.1","","99.82","","","","","","Rain,Fog"
"-71.39","46.79","QUEBEC INTL A","7016293","2021-05-05 06:00","2021","05","05","06:00","","6.7","","6.5","","99","","","","8","","14","","16.1","","99.84","","","","","","Rain"
"-71.39","46.79","QUEBEC INTL A","7016293","2021-05-05 07:00","2021","05","05","07:00","","7.5","","6.3","","92","","","","6","","27","","16.1","","99.80","","","","","","Rain"
"-71.39","46.79","QUEBEC INTL A","7016293","2021-05-05 08:00","2021","05","05","08:00","","7.5","","7.0","","97","","","","7","","23","","4.8","","99.83","","","","","","Rain,Fog"
"-71.39","46.79","QUEBEC INTL A","7016293","2021-05-05 09:00","2021","05","05","09:00","","7.3","","7.3","","100","","","","7","","20","","9.7","","99.81","","","","","","Rain,Fog"
"-71.39","46.79","QUEBEC INTL A","7016293","2021-05-05 10:00","2021","05","05","10:00","","7.5","","7.5","","100","","","","7","","22","","2.8","","99.75","","","","","","Rain,Fog"
"-71.39","46.79","QUEBEC INTL A","7016293","2021-05-05 11:00","2021","05","05","11:00","","8.1","","8.1","","100","","","","7","","27","","2.4","","99.70","","","","","","Rain,Fog"
"-71.39","46.79","QUEBEC INTL A","7016293","2021-05-05 12:00","2021","05","05","12:00","","7.9","","7.9","","100","","","","7","","19","","2.8","","99.70","","","","","","Drizzle,Fog"
"-71.39","46.79","QUEBEC INTL A","7016293","2021-05-05 13:00","2021","05","05","13:00","","8.1","","8.1","","100","","","","8","","20","","2.0","","99.68","","","","","","Rain,Fog"
"-71.39","46.79","QUEBEC INTL A","7016293","2021-05-05 14:00","2021","05","05","14:00","","8.1","","8.1","","100","","","","7","","21","","2.0","","99.65","","","","","","Rain,Fog"
"-71.39","46.79","QUEBEC INTL A","7016293","2021-05-05 15:00","2021","05","05","15:00","","8.2","","8.2","","100","","","","7","","18","","3.2","","99.62","","","","","","Rain,Fog"
"-71.39","46.79","QUEBEC INTL A","7016293","2021-05-05 16:00","2021","05","05","16:00","","8.2","","8.2","","100","","","","6","","24","","3.2","","99.61","","","","","","Rain,Fog"
"-71.39","46.79","QUEBEC INTL A","7016293","2021-05-05 17:00","2021","05","05","17:00","","8.3","","8.3","","100","","","","6","","18","","4.8","","99.58","","","","","","Rain,Fog"
"-71.39","46.79","QUEBEC INTL A","7016293","2021-05-05 18:00","2021","05","05","18:00","","8.3","","8.3","","100","","","","7","","19","","6.4","","99.58","","","","","","Rain,Fog"
"-71.39","46.79","QUEBEC INTL A","7016293","2021-05-05 19:00","2021","05","05","19:00","","8.2","","8.2","","100","","","","7","","14","","6.4","","99.59","","","","","","Rain,Fog"
"-71.39","46.79","QUEBEC INTL A","7016293","2021-05-05 20:00","2021","05","05","20:00","","7.9","","7.9","","100","","","","6","","22","","6.4","","99.62","","","","","","Rain,Fog"
"-71.39","46.79","QUEBEC INTL A","7016293","2021-05-05 21:00","2021","05","05","21:00","","7.8","","7.8","","100","","","","6","","14","","12.9","","99.63","","","","","","Rain"
"-71.39","46.79","QUEBEC INTL A","7016293","2021-05-05 22:00","2021","05","05","22:00","","7.7","","7.7","","100","","","","5","","10","","12.9","","99.63","","","","","","Rain"
"-71.39","46.79","QUEBEC INTL A","7016293","2021-05-05 23:00","2021","05","05","23:00","","7.5","","7.5","","100","","","","5","","6","","16.1","","99.60","","","","","","Rain"
"-71.39","46.79","QUEBEC INTL A","7016293","2021-05-06 00:00","2021","05","06","00:00","","7.4","","7.4","","100","","","","26","","3","","16.1","","99.60","","","","","","Rain"
"-71.39","46.79","QUEBEC INTL A","7016293","2021-05-06 01:00","2021","05","06","01:00","","7.3","","7.3","","100","","","","13","","4","","16.1","","99.59","","","","","","Rain"
"-71.39","46.79","QUEBEC INTL A","7016293","2021-05-06 02:00","2021","05","06","02:00","","7.2","","7.2","","100","","","","22","","7","","16.1","","99.61","","","","","","Rain"
"-71.39","46.79","QUEBEC INTL A","7016293","2021-05-06 03:00","2021","05","06","03:00","","6.9","","6.9","","100","","","","24","","5","","16.1","","99.61","","","","","","Rain"
"-71.39","46.79","QUEBEC INTL A","7016293","2021-05-06 04:00","2021","05","06","04:00","","7.1","","7.1","","100","","","","","","0","","16.1","","99.64","","","","","","Rain"
"-71.39","46.79","QUEBEC INTL A","7016293","2021-05-06 05:00","2021","05","06","05:00","","7.3","","4.7","","84","","","","28","","14","","24.1","","99.70","","","","","","NA"
"-71.39","46.79","QUEBEC INTL A","7016293","2021-05-06 06:00","2021","05","06","06:00","","7.0","","3.9","","81","","","","27","","11","","40.2","","99.76","","","","","","NA"
"-71.39","46.79","QUEBEC INTL A","7016293","2021-05-06 07:00","2021","05","06","07:00","","7.2","","4.3","","82","","","","26","","15","","40.2","","99.82","","","","","","Mostly Cloudy"
"-71.39","46.79","QUEBEC INTL A","7016293","2021-05-06 08:00","2021","05","06","08:00","","7.2","","3.1","","75","","","","27","","14","","40.2","","99.90","","","","","","NA"
"-71.39","46.79","QUEBEC INTL A","7016293","2021-05-06 09:00","2021","05","06","09:00","","8.8","","2.8","","66","","","","30","","14","","48.3","","99.96","","","","","","NA"
"-71.39","46.79","QUEBEC INTL A","7016293","2021-05-06 10:00","2021","05","06","10:00","","9.5","","2.8","","63","","","","27","","19","","48.3","","100.00","","","","","","Mostly Cloudy"
"-71.39","46.79","QUEBEC INTL A","7016293","2021-05-06 11:00","2021","05","06","11:00","","9.8","","2.4","","60","","","","29","","14","","48.3","","100.05","","","","","","NA"
"-71.39","46.79","QUEBEC INTL A","7016293","2021-05-06 12:00","2021","05","06","12:00","","10.3","","2.7","","59","","","","29","","12","","48.3","","100.10","","","","","","NA"
"-71.39","46.79","QUEBEC INTL A","7016293","2021-05-06 13:00","2021","05","06","13:00","","10.5","","3.6","","62","","","","26","","25","","48.3","","100.11","","","","","","Mostly Cloudy"
"-71.39","46.79","QUEBEC INTL A","7016293","2021-05-06 14:00","2021","05","06","14:00","","11.6","","1.9","","51","","","","28","","17","","48.3","","100.15","","","","","","NA"
"-71.39","46.79","QUEBEC INTL A","7016293","2021-05-06 15:00","2021","05","06","15:00","","11.1","","1.6","","52","","","","29","","17","","48.3","","100.19","","","","","","NA"
"-71.39","46.79","QUEBEC INTL A","7016293","2021-05-06 16:00","2021","05","06","16:00","","10.5","","0.8","","51","","","","33","","17","","48.3","","100.29","","","","","","Mostly Cloudy"
"-71.39","46.79","QUEBEC INTL A","7016293","2021-05-06 17:00","2021","05","06","17:00","","9.3","","-1.4","","47","","","","30","","22","","48.3","","100.38","","","","","","NA"
"-71.39","46.79","QUEBEC INTL A","7016293","2021-05-06 18:00","2021","05","06","18:00","","8.2","","-1.6","","50","","","","31","","14","","48.3","","100.48","","","","","","NA"
"-71.39","46.79","QUEBEC INTL A","7016293","2021-05-06 19:00","2021","05","06","19:00","","6.7","","-2.9","","50","","","","34","","12","","24.1","","100.50","","","","","","Mainly Clear"
"-71.39","46.79","QUEBEC INTL A","7016293","2021-05-06 20:00","2021","05","06","20:00","","5.1","","-2.4","","58","","","","34","","5","","24.1","","100.56","","","","","","NA"
"-71.39","46.79","QUEBEC INTL A","7016293","2021-05-06 21:00","2021","05","06","21:00","","3.4","","-2.4","","66","","","","26","","6","","24.1","","100.63","","","","","","NA"
"-71.39","46.79","QUEBEC INTL A","7016293","2021-05-06 22:00","2021","05","06","22:00","","1.1","","-1.7","","82","","","","29","","9","","24.1","","100.61","","","","","","Clear"
"-71.39","46.79","QUEBEC INTL A","7016293","2021-05-06 23:00","2021","05","06","23:00","","-0.2","","-1.0","","95","","","","31","","7","","24.1","","100.63","","","","-3","","NA"
"-71.39","46.79","QUEBEC INTL A","7016293","2021-05-07 00:00","2021","05","07","00:00","","-1.1","","-1.9","","95","","","","30","","5","","24.1","","100.63","","","","-3","","NA"
"-71.39","46.79","QUEBEC INTL A","7016293","2021-05-07 01:00","2021","05","07","01:00","","1.6","","-1.8","","78","","","","1","","8","","24.1","","100.63","","","","","","Clear"
"-71.39","46.79","QUEBEC INTL A","7016293","2021-05-07 02:00","2021","05","07","02:00","","0.9","","-1.8","","82","","","","34","","4","","24.1","","100.61","","","","","","NA"
"-71.39","46.79","QUEBEC INTL A","7016293","2021-05-07 03:00","2021","05","07","03:00","","-0.8","","-2.3","","90","","","","","","0","","24.1","","100.61","","","","","","NA"
"-71.39","46.79","QUEBEC INTL A","7016293","2021-05-07 04:00","2021","05","07","04:00","","-1.6","","-2.1","","97","","","","","","0","","24.1","","100.65","","","","","","Clear"
"-71.39","46.79","QUEBEC INTL A","7016293","2021-05-07 05:00","2021","05","07","05:00","","-1.5","","-1.5","","100","","","","34","","3","","32.2","","100.71","","","","-3","","NA"
"-71.39","46.79","QUEBEC INTL A","7016293","2021-05-07 06:00","2021","05","07","06:00","","2.3","","0.5","","88","","","","","","0","","48.3","","100.73","","","","","","NA"
"-71.39","46.79","QUEBEC INTL A","7016293","2021-05-07 07:00","2021","05","07","07:00","","5.8","","-0.6","","63","","","","19","","7","","48.3","","100.78","","","","","","Clear"
"-71.39","46.79","QUEBEC INTL A","7016293","2021-05-07 08:00","2021","05","07","08:00","","8.6","","0.7","","57","","","","21","","16","","48.3","","100.79","","","","","","NA"
"-71.39","46.79","QUEBEC INTL A","7016293","2021-05-07 09:00","2021","05","07","09:00","","9.8","","-1.4","","45","","","","24","","14","","48.3","","100.78","","","","","","NA"
"-71.39","46.79","QUEBEC INTL A","7016293","2021-05-07 10:00","2021","05","07","10:00","","11.2","","0.3","","47","","","","25","","12","","48.3","","100.74","","","","","","Mainly Clear"
"-71.39","46.79","QUEBEC INTL A","7016293","2021-05-07 11:00","2021","05","07","11:00","","12.2","","0.1","","43","","","","19","","14","","48.3","","100.69","","","","","","NA"
"-71.39","46.79","QUEBEC INTL A","7016293","2021-05-07 12:00","2021","05","07","12:00","","12.4","","-1.2","","39","","","","21","","16","","48.3","","100.64","","","","","","NA"
"-71.39","46.79","QUEBEC INTL A","7016293","2021-05-07 13:00","2021","05","07","13:00","","11.7","","-2.6","","37","","","","23","","7","","48.3","","100.61","","","","","","Mostly Cloudy"
"-71.39","46.79","QUEBEC INTL A","7016293","2021-05-07 14:00","2021","05","07","14:00","","12.7","","-2.7","","34","","","","10","","4","","48.3","","100.57","","","","","","NA"
"-71.39","46.79","QUEBEC INTL A","7016293","2021-05-07 15:00","2021","05","07","15:00","","12.8","","-2.4","","35","","","","16","","4","","48.3","","100.54","","","","","","NA"
"-71.39","46.79","QUEBEC INTL A","7016293","2021-05-07 16:00","2021","05","07","16:00","","13.9","","-3.0","","31","","","","13","","4","","48.3","","100.52","","","","","","Mainly Clear"
"-71.39","46.79","QUEBEC INTL A","7016293","2021-05-07 17:00","2021","05","07","17:00","","13.3","","-1.9","","35","","","","28","","5","","48.3","","100.54","","","","","","NA"
"-71.39","46.79","QUEBEC INTL A","7016293","2021-05-07 18:00","2021","05","07","18:00","","12.6","","-1.3","","38","","","","5","","9","","48.3","","100.57","","","","","","NA"
"-71.39","46.79","QUEBEC INTL A","7016293","2021-05-07 19:00","2021","05","07","19:00","","9.9","","-0.2","","49","","","","7","","15","","48.3","","100.60","","","","","","Mainly Clear"
"-71.39","46.79","QUEBEC INTL A","7016293","2021-05-07 20:00","2021","05","07","20:00","","8.1","","-1.0","","53","","","","7","","16","","24.1","","100.65","","","","","","NA"
"-71.39","46.79","QUEBEC INTL A","7016293","2021-05-07 21:00","2021","05","07","21:00","","7.8","","-1.3","","52","","","","6","","17","","24.1","","100.67","","","","","","NA"
"-71.39","46.79","QUEBEC INTL A","7016293","2021-05-07 22:00","2021","05","07","22:00","","7.5","","-1.2","","54","","","","7","","18","","24.1","","100.65","","","","","","Clear"
"-71.39","46.79","QUEBEC INTL A","7016293","2021-05-07 23:00","2021","05","07","23:00","","6.4","","-1.0","","59","","","","6","","16","","24.1","","100.63","","","","","","NA"
"-71.39","46.79","QUEBEC INTL A","7016293","2021-05-08 00:00","2021","05","08","00:00","","6.6","","-2.0","","54","","","","7","","20","","24.1","","100.60","","","","","","NA"
"-71.39","46.79","QUEBEC INTL A","7016293","2021-05-08 01:00","2021","05","08","01:00","","5.6","","-1.1","","62","","","","7","","17","","24.1","","100.64","","","","","","Mainly Clear"
"-71.39","46.79","QUEBEC INTL A","7016293","2021-05-08 02:00","2021","05","08","02:00","","4.9","","-1.0","","66","","","","5","","21","","24.1","","100.58","","","","","","NA"
"-71.39","46.79","QUEBEC INTL A","7016293","2021-05-08 03:00","2021","05","08","03:00","","4.8","","-1.4","","64","","","","6","","15","","24.1","","100.61","","","","","","NA"
"-71.39","46.79","QUEBEC INTL A","7016293","2021-05-08 04:00","2021","05","08","04:00","","3.6","","-1.8","","67","","","","5","","11","","24.1","","100.59","","","","","","Mostly Cloudy"
"-71.39","46.79","QUEBEC INTL A","7016293","2021-05-08 05:00","2021","05","08","05:00","","4.2","","-0.1","","73","","","","6","","15","","40.2","","100.59","","","","","","NA"
"-71.39","46.79","QUEBEC INTL A","7016293","2021-05-08 06:00","2021","05","08","06:00","","6.0","","0.9","","69","","","","6","","17","","48.3","","100.63","","","","","","NA"
"-71.39","46.79","QUEBEC INTL A","7016293","2021-05-08 07:00","2021","05","08","07:00","","7.0","","2.2","","72","","","","7","","28","","48.3","","100.64","","","","","","Mostly Cloudy"
"-71.39","46.79","QUEBEC INTL A","7016293","2021-05-08 08:00","2021","05","08","08:00","","7.2","","3.0","","74","","","","8","","28","","48.3","","100.68","","","","","","NA"
"-71.39","46.79","QUEBEC INTL A","7016293","2021-05-08 09:00","2021","05","08","09:00","","8.8","","2.9","","66","","","","7","","27","","48.3","","100.68","","","","","","NA"
"-71.39","46.79","QUEBEC INTL A","7016293","2021-05-08 10:00","2021","05","08","10:00","","10.0","","3.0","","61","","","","8","","22","","48.3","","100.62","","","","","","Cloudy"
"-71.39","46.79","QUEBEC INTL A","7016293","2021-05-08 11:00","2021","05","08","11:00","","10.9","","2.1","","54","","","","9","","31","","48.3","","100.50","","","","","","NA"
"-71.39","46.79","QUEBEC INTL A","7016293","2021-05-08 12:00","2021","05","08","12:00","","10.1","","3.5","","64","","","","7","","28","","48.3","","100.48","","","","","","NA"
"-71.39","46.79","QUEBEC INTL A","7016293","2021-05-08 13:00","2021","05","08","13:00","","9.6","","3.5","","66","","","","7","","28","","48.3","","100.42","","","","","","Cloudy"
"-71.39","46.79","QUEBEC INTL A","7016293","2021-05-08 14:00","2021","05","08","14:00","","10.3","","2.9","","60","","","","8","","31","","48.3","","100.34","","","","","","NA"
"-71.39","46.79","QUEBEC INTL A","7016293","2021-05-08 15:00","2021","05","08","15:00","","9.0","","2.7","","65","","","","8","","34","","48.3","","100.32","","","","","","NA"
"-71.39","46.79","QUEBEC INTL A","7016293","2021-05-08 16:00","2021","05","08","16:00","","8.9","","3.0","","67","","","","9","","33","","48.3","","100.29","","","","","","Cloudy"
"-71.39","46.79","QUEBEC INTL A","7016293","2021-05-08 17:00","2021","05","08","17:00","","7.8","","2.4","","68","","","","10","","25","","48.3","","100.33","","","","","","NA"
"-71.39","46.79","QUEBEC INTL A","7016293","2021-05-08 18:00","2021","05","08","18:00","","6.8","","2.2","","73","","","","7","","18","","48.3","","100.37","","","","","","NA"
"-71.39","46.79","QUEBEC INTL A","7016293","2021-05-08 19:00","2021","05","08","19:00","","6.2","","2.3","","76","","","","8","","23","","48.3","","100.38","","","","","","Cloudy"
"-71.39","46.79","QUEBEC INTL A","7016293","2021-05-08 20:00","2021","05","08","20:00","","5.8","","2.2","","78","","","","7","","16","","48.3","","100.40","","","","","","NA"
"-71.39","46.79","QUEBEC INTL A","7016293","2021-05-08 21:00","2021","05","08","21:00","","5.2","","2.2","","81","","","","5","","9","","24.1","","100.40","","","","","","NA"
"-71.39","46.79","QUEBEC INTL A","7016293","2021-05-08 22:00","2021","05","08","22:00","","4.5","","2.4","","86","","","","36","","4","","24.1","","100.38","","","","","","Mostly Cloudy"
"-71.39","46.79","QUEBEC INTL A","7016293","2021-05-08 23:00","2021","05","08","23:00","","3.8","","2.6","","92","","","","33","","5","","24.1","","100.38","","","","","","NA"
"-71.39","46.79","QUEBEC INTL A","7016293","2021-05-09 00:00","2021","05","09","00:00","","2.5","","2.5","","100","","","","27","","5","","24.1","","100.36","","","","","","NA"
"-71.39","46.79","QUEBEC INTL A","7016293","2021-05-09 01:00","2021","05","09","01:00","","2.7","","2.6","","99","","","","28","","4","","24.1","","100.34","","","","","","Cloudy"
"-71.39","46.79","QUEBEC INTL A","7016293","2021-05-09 02:00","2021","05","09","02:00","","1.7","","1.7","","100","","","","36","","3","","24.1","","100.30","","","","","","NA"
"-71.39","46.79","QUEBEC INTL A","7016293","2021-05-09 03:00","2021","05","09","03:00","","0.8","","0.8","","100","","","","30","","4","","24.1","","100.30","","","","","","NA"
"-71.39","46.79","QUEBEC INTL A","7016293","2021-05-09 04:00","2021","05","09","04:00","","1.6","","1.6","","100","","","","26","","7","","24.1","","100.28","","","","","","Mostly Cloudy"
"-71.39","46.79","QUEBEC INTL A","7016293","2021-05-09 05:00","2021","05","09","05:00","","2.3","","2.3","","100","","","","24","","7","","48.3","","100.30","","","","","","NA"
"-71.39","46.79","QUEBEC INTL A","7016293","2021-05-09 06:00","2021","05","09","06:00","","3.5","","3.4","","100","","","","36","","3","","48.3","","100.35","","","","","","NA"
"-71.39","46.79","QUEBEC INTL A","7016293","2021-05-09 07:00","2021","05","09","07:00","","7.1","","3.3","","77","","","","25","","16","","48.3","","100.33","","","","","","Mostly Cloudy"
"-71.39","46.79","QUEBEC INTL A","7016293","2021-05-09 08:00","2021","05","09","08:00","","10.2","","3.4","","63","","","","23","","17","","48.3","","100.31","","","","","","NA"
"-71.39","46.79","QUEBEC INTL A","7016293","2021-05-09 09:00","2021","05","09","09:00","","12.6","","4.6","","58","","","","22","","17","","48.3","","100.28","","","","","","NA"
"-71.39","46.79","QUEBEC INTL A","7016293","2021-05-09 10:00","2021","05","09","10:00","","12.6","","3.1","","52","","","","22","","21","","48.3","","100.18","","","","","","Mainly Clear"
"-71.39","46.79","QUEBEC INTL A","7016293","2021-05-09 11:00","2021","05","09","11:00","","15.0","","3.0","","44","","","","22","","15","","48.3","","100.14","","","","","","NA"
"-71.39","46.79","QUEBEC INTL A","7016293","2021-05-09 12:00","2021","05","09","12:00","","14.8","","1.9","","41","","","","22","","29","","48.3","","100.08","","","","","","NA"
"-71.39","46.79","QUEBEC INTL A","7016293","2021-05-09 13:00","2021","05","09","13:00","","15.4","","2.2","","41","","","","23","","24","","48.3","","100.02","","","","","","Mostly Cloudy"
"-71.39","46.79","QUEBEC INTL A","7016293","2021-05-09 14:00","2021","05","09","14:00","","16.4","","-0.6","","31","","","","28","","12","","48.3","","99.99","","","","","","NA"
"-71.39","46.79","QUEBEC INTL A","7016293","2021-05-09 15:00","2021","05","09","15:00","","17.0","","-1.4","","28","","","","30","","9","","48.3","","99.99","","","","","","NA"
"-71.39","46.79","QUEBEC INTL A","7016293","2021-05-09 16:00","2021","05","09","16:00","","17.4","","2.5","","37","","","","25","","26","","48.3","","99.96","","","","","","Mostly Cloudy"
"-71.39","46.79","QUEBEC INTL A","7016293","2021-05-09 17:00","2021","05","09","17:00","","14.8","","1.7","","41","","","","24","","26","","48.3","","99.98","","","","","","NA"
"-71.39","46.79","QUEBEC INTL A","7016293","2021-05-09 18:00","2021","05","09","18:00","","14.1","","3.9","","50","","","","25","","22","","48.3","","100.01","","","","","","NA"
"-71.39","46.79","QUEBEC INTL A","7016293","2021-05-09 19:00","2021","05","09","19:00","","12.1","","3.6","","56","","","","24","","18","","48.3","","100.06","","","","","","Mostly Cloudy"
"-71.39","46.79","QUEBEC INTL A","7016293","2021-05-09 20:00","2021","05","09","20:00","","11.7","","4.0","","59","","","","24","","11","","24.1","","100.11","","","","","","NA"
"-71.39","46.79","QUEBEC INTL A","7016293","2021-05-09 21:00","2021","05","09","21:00","","12.2","","2.8","","52","","","","29","","7","","24.1","","100.15","","","","","","NA"
"-71.39","46.79","QUEBEC INTL A","7016293","2021-05-09 22:00","2021","05","09","22:00","","11.8","","3.0","","55","","","","31","","5","","24.1","","100.13","","","","","","Mostly Cloudy"
"-71.39","46.79","QUEBEC INTL A","7016293","2021-05-09 23:00","2021","05","09","23:00","","11.1","","2.9","","57","","","","34","","3","","24.1","","100.11","","","","","","NA"
"-71.39","46.79","QUEBEC INTL A","7016293","2021-05-10 00:00","2021","05","10","00:00","","9.8","","3.5","","65","","","","23","","11","","24.1","","100.12","","","","","","NA"
"-71.39","46.79","QUEBEC INTL A","7016293","2021-05-10 01:00","2021","05","10","01:00","","9.2","","3.8","","68","","","","26","","8","","24.1","","100.12","","","","","","Mostly Cloudy"
"-71.39","46.79","QUEBEC INTL A","7016293","2021-05-10 02:00","2021","05","10","02:00","","6.7","","3.1","","78","","","","22","","10","","24.1","","100.09","","","","","","NA"
"-71.39","46.79","QUEBEC INTL A","7016293","2021-05-10 03:00","2021","05","10","03:00","","6.0","","3.4","","83","","","","","","0","","24.1","","100.03","","","","","","NA"
"-71.39","46.79","QUEBEC INTL A","7016293","2021-05-10 04:00","2021","05","10","04:00","","3.8","","3.0","","95","","","","36","","3","","24.1","","100.02","","","","","","Mainly Clear"
"-71.39","46.79","QUEBEC INTL A","7016293","2021-05-10 05:00","2021","05","10","05:00","","3.9","","3.2","","95","","","","30","","4","","32.2","","100.04","","","","","","NA"
"-71.39","46.79","QUEBEC INTL A","7016293","2021-05-10 06:00","2021","05","10","06:00","","8.0","","5.7","","85","","","","22","","12","","24.1","","100.08","","","","","","NA"
"-71.39","46.79","QUEBEC INTL A","7016293","2021-05-10 07:00","2021","05","10","07:00","","10.0","","5.4","","73","","","","23","","8","","24.1","","100.15","","","","","","Mainly Clear"
"-71.39","46.79","QUEBEC INTL A","7016293","2021-05-10 08:00","2021","05","10","08:00","","11.6","","5.2","","65","","","","22","","13","","24.1","","100.19","","","","","","NA"
"-71.39","46.79","QUEBEC INTL A","7016293","2021-05-10 09:00","2021","05","10","09:00","","13.5","","5.2","","57","","","","20","","11","","24.1","","100.16","","","","","","NA"
"-71.39","46.79","QUEBEC INTL A","7016293","2021-05-10 10:00","2021","05","10","10:00","","15.3","","5.4","","51","","","","22","","16","","24.1","","100.11","","","","","","Mainly Clear"
"-71.39","46.79","QUEBEC INTL A","7016293","2021-05-10 11:00","2021","05","10","11:00","","16.6","","1.0","","34","","","","21","","17","","48.3","","100.04","","","","","","NA"
"-71.39","46.79","QUEBEC INTL A","7016293","2021-05-10 12:00","2021","05","10","12:00","","17.3","","4.3","","42","","","","20","","27","","24.1","","99.99","","","","","","NA"
"-71.39","46.79","QUEBEC INTL A","7016293","2021-05-10 13:00","2021","05","10","13:00","","16.3","","3.2","","41","","","","21","","23","","48.3","","99.97","","","","","","Mostly Cloudy"
"-71.39","46.79","QUEBEC INTL A","7016293","2021-05-10 14:00","2021","05","10","14:00","","13.5","","3.0","","49","","","","30","","10","","48.3","","100.03","","","","","","Rain Showers"
"-71.39","46.79","QUEBEC INTL A","7016293","2021-05-10 15:00","2021","05","10","15:00","","14.3","","4.1","","50","","","","23","","22","","48.3","","100.02","","","","","","NA"
"-71.39","46.79","QUEBEC INTL A","7016293","2021-05-10 16:00","2021","05","10","16:00","","15.1","","4.2","","48","","","","3","","8","","48.3","","100.00","","","","","","Mostly Cloudy"
"-71.39","46.79","QUEBEC INTL A","7016293","2021-05-10 17:00","2021","05","10","17:00","","14.6","","3.5","","47","","","","3","","12","","48.3","","100.04","","","","","","NA"
"-71.39","46.79","QUEBEC INTL A","7016293","2021-05-10 18:00","2021","05","10","18:00","","13.4","","4.5","","55","","","","8","","3","","48.3","","100.08","","","","","","NA"
"-71.39","46.79","QUEBEC INTL A","7016293","2021-05-10 19:00","2021","05","10","19:00","","12.4","","5.3","","62","","","","1","","7","","48.3","","100.14","","","","","","Mostly Cloudy"
"-71.39","46.79","QUEBEC INTL A","7016293","2021-05-10 20:00","2021","05","10","20:00","","11.0","","5.5","","69","","","","4","","14","","24.1","","100.21","","","","","","NA"
"-71.39","46.79","QUEBEC INTL A","7016293","2021-05-10 21:00","2021","05","10","21:00","","10.7","","4.9","","67","","","","36","","8","","24.1","","100.24","","","","","","Rain Showers"
"-71.39","46.79","QUEBEC INTL A","7016293","2021-05-10 22:00","2021","05","10","22:00","","10.0","","5.0","","71","","","","36","","3","","24.1","","100.26","","","","","","Cloudy"
"-71.39","46.79","QUEBEC INTL A","7016293","2021-05-10 23:00","2021","05","10","23:00","","9.1","","5.3","","77","","","","","","0","","24.1","","100.18","","","","","","NA"
"-71.39","46.79","QUEBEC INTL A","7016293","2021-05-11 00:00","2021","05","11","00:00","","9.0","","5.6","","79","","","","35","","5","","24.1","","100.16","","","","","","NA"
"-71.39","46.79","QUEBEC INTL A","7016293","2021-05-11 01:00","2021","05","11","01:00","","8.4","","5.6","","83","","","","7","","4","","24.1","","100.14","","","","","","Cloudy"
"-71.39","46.79","QUEBEC INTL A","7016293","2021-05-11 02:00","2021","05","11","02:00","","8.1","","5.3","","82","","","","36","","7","","24.1","","100.11","","","","","","NA"
"-71.39","46.79","QUEBEC INTL A","7016293","2021-05-11 03:00","2021","05","11","03:00","","7.2","","5.8","","91","","","","5","","5","","24.1","","100.13","","","","","","NA"
"-71.39","46.79","QUEBEC INTL A","7016293","2021-05-11 04:00","2021","05","11","04:00","","8.2","","6.3","","88","","","","7","","15","","24.1","","100.19","","","","","","Mostly Cloudy"
"-71.39","46.79","QUEBEC INTL A","7016293","2021-05-11 05:00","2021","05","11","05:00","","7.5","","5.0","","84","","","","6","","9","","24.1","","100.21","","","","","","Rain Showers"
"-71.39","46.79","QUEBEC INTL A","7016293","2021-05-11 06:00","2021","05","11","06:00","","7.2","","4.3","","81","","","","7","","11","","48.3","","100.26","","","","","","Rain Showers"
"-71.39","46.79","QUEBEC INTL A","7016293","2021-05-11 07:00","2021","05","11","07:00","","8.1","","5.4","","83","","","","9","","9","","48.3","","100.28","","","","","","Rain Showers"
"-71.39","46.79","QUEBEC INTL A","7016293","2021-05-11 08:00","2021","05","11","08:00","","7.9","","5.0","","82","","","","5","","13","","48.3","","100.27","","","","","","Rain"
"-71.39","46.79","QUEBEC INTL A","7016293","2021-05-11 09:00","2021","05","11","09:00","","7.8","","4.9","","82","","","","9","","7","","16.1","","100.28","","","","","","Rain"
"-71.39","46.79","QUEBEC INTL A","7016293","2021-05-11 10:00","2021","05","11","10:00","","7.6","","6.7","","94","","","","18","","5","","4.8","","100.29","","","","","","Rain,Fog"
"-71.39","46.79","QUEBEC INTL A","7016293","2021-05-11 11:00","2021","05","11","11:00","","7.6","","7.6","","100","","","","23","","15","","4.8","","100.28","","","","","","Rain,Fog"
"-71.39","46.79","QUEBEC INTL A","7016293","2021-05-11 12:00","2021","05","11","12:00","","7.7","","7.5","","99","","","","21","","16","","4.8","","100.26","","","","","","Rain,Fog"
"-71.39","46.79","QUEBEC INTL A","7016293","2021-05-11 13:00","2021","05","11","13:00","","7.9","","7.4","","96","","","","22","","11","","8.1","","100.25","","","","","","Rain,Fog"
"-71.39","46.79","QUEBEC INTL A","7016293","2021-05-11 14:00","2021","05","11","14:00","","8.4","","5.5","","82","","","","23","","9","","9.7","","100.22","","","","","","Rain,Fog"
"-71.39","46.79","QUEBEC INTL A","7016293","2021-05-11 15:00","2021","05","11","15:00","","8.6","","6.1","","84","","","","28","","4","","16.1","","100.21","","","","","","Rain"
"-71.39","46.79","QUEBEC INTL A","7016293","2021-05-11 16:00","2021","05","11","16:00","","8.6","","5.7","","82","","","","32","","3","","16.1","","100.23","","","","","","Rain"
"-71.39","46.79","QUEBEC INTL A","7016293","2021-05-11 17:00","2021","05","11","17:00","","8.7","","5.6","","81","","","","36","","4","","24.1","","100.22","","","","","","NA"
"-71.39","46.79","QUEBEC INTL A","7016293","2021-05-11 18:00","2021","05","11","18:00","","8.3","","6.4","","88","","","","16","","5","","24.1","","100.25","","","","","","Rain"
"-71.39","46.79","QUEBEC INTL A","7016293","2021-05-11 19:00","2021","05","11","19:00","","8.2","","6.8","","91","","","","","","0","","24.1","","100.28","","","","","","Rain"
"-71.39","46.79","QUEBEC INTL A","7016293","2021-05-11 20:00","2021","05","11","20:00","","6.9","","6.9","","100","","","","36","","3","","24.1","","100.32","","","","","","NA"
"-71.39","46.79","QUEBEC INTL A","7016293","2021-05-11 21:00","2021","05","11","21:00","","5.5","","5.5","","100","","","","25","","10","","24.1","","100.31","","","","","","NA"
"-71.39","46.79","QUEBEC INTL A","7016293","2021-05-11 22:00","2021","05","11","22:00","","5.7","","5.7","","100","","","","25","","5","","24.1","","100.28","","","","","","Mostly Cloudy"
"-71.39","46.79","QUEBEC INTL A","7016293","2021-05-11 23:00","2021","05","11","23:00","","4.2","","4.2","","100","","","","","","0","","24.1","","100.31","","","","","","NA"
"-71.39","46.79","QUEBEC INTL A","7016293","2021-05-12 00:00","2021","05","12","00:00","","5.3","","5.3","","100","","","","36","","6","","24.1","","100.33","","","","","","NA"
"-71.39","46.79","QUEBEC INTL A","7016293","2021-05-12 01:00","2021","05","12","01:00","","4.9","","4.9","","100","","","","1","","3","","24.1","","100.37","","","","","","Mostly Cloudy"
"-71.39","46.79","QUEBEC INTL A","7016293","2021-05-12 02:00","2021","05","12","02:00","","5.0","","5.0","","100","","","","29","","6","","24.1","","100.41","","","","","","NA"
"-71.39","46.79","QUEBEC INTL A","7016293","2021-05-12 03:00","2021","05","12","03:00","","3.8","","3.8","","100","","","","","","0","","24.1","","100.47","","","","","","NA"
"-71.39","46.79","QUEBEC INTL A","7016293","2021-05-12 04:00","2021","05","12","04:00","","4.1","","4.1","","100","","","","","","0","","24.1","","100.53","","","","","","Mostly Cloudy"
"-71.39","46.79","QUEBEC INTL A","7016293","2021-05-12 05:00","2021","05","12","05:00","","3.4","","3.4","","100","","","","2","","5","","32.2","","100.60","","","","","","NA"
"-71.39","46.79","QUEBEC INTL A","7016293","2021-05-12 06:00","2021","05","12","06:00","","6.5","","6.5","","100","","","","8","","5","","48.3","","100.71","","","","","","NA"
"-71.39","46.79","QUEBEC INTL A","7016293","2021-05-12 07:00","2021","05","12","07:00","","7.0","","3.6","","79","","","","10","","8","","48.3","","100.78","","","","","","Mostly Cloudy"
"-71.39","46.79","QUEBEC INTL A","7016293","2021-05-12 08:00","2021","05","12","08:00","","8.3","","4.4","","76","","","","17","","7","","48.3","","100.82","","","","","","NA"
"-71.39","46.79","QUEBEC INTL A","7016293","2021-05-12 09:00","2021","05","12","09:00","","9.8","","5.0","","72","","","","18","","7","","48.3","","100.83","","","","","","NA"
"-71.39","46.79","QUEBEC INTL A","7016293","2021-05-12 10:00","2021","05","12","10:00","","11.7","","6.2","","69","","","","21","","17","","48.3","","100.79","","","","","","Mostly Cloudy"
"-71.39","46.79","QUEBEC INTL A","7016293","2021-05-12 11:00","2021","05","12","11:00","","11.9","","2.9","","54","","","","35","","8","","48.3","","100.81","","","","","","NA"
"-71.39","46.79","QUEBEC INTL A","7016293","2021-05-12 12:00","2021","05","12","12:00","","13.5","","0.6","","41","","","","32","","12","","48.3","","100.82","","","","","","NA"
"-71.39","46.79","QUEBEC INTL A","7016293","2021-05-12 13:00","2021","05","12","13:00","","13.7","","1.3","","43","","","","36","","16","","48.3","","100.84","","","","","","Mostly Cloudy"
"-71.39","46.79","QUEBEC INTL A","7016293","2021-05-12 14:00","2021","05","12","14:00","","14.7","","1.7","","41","","","","3","","13","","48.3","","100.81","","","","","","NA"
"-71.39","46.79","QUEBEC INTL A","7016293","2021-05-12 15:00","2021","05","12","15:00","","15.7","","1.5","","38","","","","24","","18","","48.3","","100.80","","","","","","NA"
"-71.39","46.79","QUEBEC INTL A","7016293","2021-05-12 16:00","2021","05","12","16:00","","14.5","","1.4","","41","","","","24","","11","","48.3","","100.84","","","","","","Mostly Cloudy"
"-71.39","46.79","QUEBEC INTL A","7016293","2021-05-12 17:00","2021","05","12","17:00","","15.1","","-0.5","","34","","","","31","","6","","48.3","","100.87","","","","","","NA"
"-71.39","46.79","QUEBEC INTL A","7016293","2021-05-12 18:00","2021","05","12","18:00","","14.0","","0.4","","39","","","","29","","4","","48.3","","100.90","","","","","","NA"
"-71.39","46.79","QUEBEC INTL A","7016293","2021-05-12 19:00","2021","05","12","19:00","","13.2","","0.7","","42","","","","27","","7","","48.3","","100.93","","","","","","Mostly Cloudy"
"-71.39","46.79","QUEBEC INTL A","7016293","2021-05-12 20:00","2021","05","12","20:00","","11.0","","0.9","","50","","","","2","","8","","24.1","","100.99","","","","","","NA"
"-71.39","46.79","QUEBEC INTL A","7016293","2021-05-12 21:00","2021","05","12","21:00","","10.1","","0.9","","53","","","","30","","5","","24.1","","100.99","","","","","","NA"
"-71.39","46.79","QUEBEC INTL A","7016293","2021-05-12 22:00","2021","05","12","22:00","","10.1","","0.2","","50","","","","36","","5","","24.1","","101.00","","","","","","Mostly Cloudy"
"-71.39","46.79","QUEBEC INTL A","7016293","2021-05-12 23:00","2021","05","12","23:00","","8.3","","1.5","","62","","","","","","0","","24.1","","101.00","","","","","","NA"
"-71.39","46.79","QUEBEC INTL A","7016293","2021-05-13 00:00","2021","05","13","00:00","","10.0","","0.0","","50","","","","1","","7","","24.1","","101.02","","","","","","NA"
"-71.39","46.79","QUEBEC INTL A","7016293","2021-05-13 01:00","2021","05","13","01:00","","8.5","","-0.4","","53","","","","36","","7","","24.1","","101.02","","","","","","Mostly Cloudy"
"-71.39","46.79","QUEBEC INTL A","7016293","2021-05-13 02:00","2021","05","13","02:00","","8.9","","-0.5","","52","","","","33","","4","","24.1","","101.06","","","","","","NA"
"-71.39","46.79","QUEBEC INTL A","7016293","2021-05-13 03:00","2021","05","13","03:00","","7.9","","-1.0","","53","","","","36","","3","","24.1","","101.07","","","","","","NA"
"-71.39","46.79","QUEBEC INTL A","7016293","2021-05-13 04:00","2021","05","13","04:00","","7.5","","-1.5","","53","","","","36","","6","","48.3","","101.08","","","","","","Mainly Clear"
"-71.39","46.79","QUEBEC INTL A","7016293","2021-05-13 05:00","2021","05","13","05:00","","7.6","","-1.4","","53","","","","1","","5","","48.3","","101.12","","","","","","NA"
"-71.39","46.79","QUEBEC INTL A","7016293","2021-05-13 06:00","2021","05","13","06:00","","9.1","","0.7","","56","","","","20","","4","","48.3","","101.16","","","","","","NA"
"-71.39","46.79","QUEBEC INTL A","7016293","2021-05-13 07:00","2021","05","13","07:00","","9.8","","2.9","","62","","","","19","","8","","48.3","","101.20","","","","","","Mostly Cloudy"
"-71.39","46.79","QUEBEC INTL A","7016293","2021-05-13 08:00","2021","05","13","08:00","","12.3","","3.2","","54","","","","21","","14","","48.3","","101.19","","","","","","NA"
"-71.39","46.79","QUEBEC INTL A","7016293","2021-05-13 09:00","2021","05","13","09:00","","13.1","","4.3","","55","","","","21","","21","","48.3","","101.12","","","","","","NA"
"-71.39","46.79","QUEBEC INTL A","7016293","2021-05-13 10:00","2021","05","13","10:00","","15.1","","3.8","","47","","","","22","","23","","48.3","","101.09","","","","","","Mostly Cloudy"
"-71.39","46.79","QUEBEC INTL A","7016293","2021-05-13 11:00","2021","05","13","11:00","","16.0","","3.0","","41","","","","23","","22","","48.3","","101.01","","","","","","NA"
"-71.39","46.79","QUEBEC INTL A","7016293","2021-05-13 12:00","2021","05","13","12:00","","18.8","","0.5","","29","","","","28","","14","","48.3","","100.94","","","","","","NA"
"-71.39","46.79","QUEBEC INTL A","7016293","2021-05-13 13:00","2021","05","13","13:00","","18.8","","-1.3","","25","","","","29","","19","","48.3","","100.89","","","","","","Cloudy"
"-71.39","46.79","QUEBEC INTL A","7016293","2021-05-13 14:00","2021","05","13","14:00","","16.5","","3.0","","40","","","","34","","9","","48.3","","101.00","","","","","","NA"
"-71.39","46.79","QUEBEC INTL A","7016293","2021-05-13 15:00","2021","05","13","15:00","","18.4","","2.6","","35","","","","31","","14","","48.3","","100.89","","","","","","NA"
"-71.39","46.79","QUEBEC INTL A","7016293","2021-05-13 16:00","2021","05","13","16:00","","18.1","","1.2","","32","","","","32","","17","","48.3","","100.84","","","","","","Mostly Cloudy"
"-71.39","46.79","QUEBEC INTL A","7016293","2021-05-13 17:00","2021","05","13","17:00","","17.1","","4.8","","44","","","","25","","17","","48.3","","100.83","","","","","","NA"
"-71.39","46.79","QUEBEC INTL A","7016293","2021-05-13 18:00","2021","05","13","18:00","","15.8","","4.5","","47","","","","36","","16","","32.2","","100.93","","","","","","NA"
"-71.39","46.79","QUEBEC INTL A","7016293","2021-05-13 19:00","2021","05","13","19:00","","10.9","","7.3","","78","","","","36","","6","","48.3","","100.94","","","","","","Mostly Cloudy"
"-71.39","46.79","QUEBEC INTL A","7016293","2021-05-13 20:00","2021","05","13","20:00","","10.0","","7.1","","82","","","","35","","3","","24.1","","100.98","","","","","","NA"
"-71.39","46.79","QUEBEC INTL A","7016293","2021-05-13 21:00","2021","05","13","21:00","","11.8","","5.5","","65","","","","26","","8","","24.1","","101.00","","","","","","NA"
"-71.39","46.79","QUEBEC INTL A","7016293","2021-05-13 22:00","2021","05","13","22:00","","9.8","","5.1","","73","","","","6","","3","","24.1","","100.99","","","","","","Mostly Cloudy"
"-71.39","46.79","QUEBEC INTL A","7016293","2021-05-13 23:00","2021","05","13","23:00","","7.6","","4.4","","80","","","","27","","5","","24.1","","100.97","","","","","","NA"
"-71.39","46.79","QUEBEC INTL A","7016293","2021-05-14 00:00","2021","05","14","00:00","","7.8","","4.7","","81","","","","27","","4","","24.1","","100.99","","","","","","NA"
"-71.39","46.79","QUEBEC INTL A","7016293","2021-05-14 01:00","2021","05","14","01:00","","6.5","","4.3","","86","","","","36","","3","","24.1","","100.98","","","","","","Mainly Clear"
"-71.39","46.79","QUEBEC INTL A","7016293","2021-05-14 02:00","2021","05","14","02:00","","8.7","","4.4","","74","","","","28","","4","","24.1","","100.98","","","","","","NA"
"-71.39","46.79","QUEBEC INTL A","7016293","2021-05-14 03:00","2021","05","14","03:00","","6.2","","4.2","","87","","","","26","","8","","24.1","","101.01","","","","","","NA"
"-71.39","46.79","QUEBEC INTL A","7016293","2021-05-14 04:00","2021","05","14","04:00","","6.8","","4.2","","84","","","","","","0","","24.1","","101.01","","","","","","Mainly Clear"
"-71.39","46.79","QUEBEC INTL A","7016293","2021-05-14 05:00","2021","05","14","05:00","","7.3","","4.7","","84","","","","22","","5","","48.3","","101.04","","","","","","NA"
"-71.39","46.79","QUEBEC INTL A","7016293","2021-05-14 06:00","2021","05","14","06:00","","9.2","","6.1","","81","","","","22","","8","","48.3","","101.11","","","","","","NA"
"-71.39","46.79","QUEBEC INTL A","7016293","2021-05-14 07:00","2021","05","14","07:00","","10.8","","5.8","","71","","","","21","","8","","48.3","","101.11","","","","","","Mainly Clear"
"-71.39","46.79","QUEBEC INTL A","7016293","2021-05-14 08:00","2021","05","14","08:00","","12.8","","6.7","","66","","","","19","","7","","48.3","","101.11","","","","","","NA"
"-71.39","46.79","QUEBEC INTL A","7016293","2021-05-14 09:00","2021","05","14","09:00","","14.1","","8.3","","68","","","","21","","12","","48.3","","101.08","","","","","","NA"
"-71.39","46.79","QUEBEC INTL A","7016293","2021-05-14 10:00","2021","05","14","10:00","","15.6","","6.9","","56","","","","19","","16","","48.3","","101.01","","","","","","Clear"
"-71.39","46.79","QUEBEC INTL A","7016293","2021-05-14 11:00","2021","05","14","11:00","","18.6","","8.4","","51","","","","22","","19","","48.3","","100.95","","","","","","NA"
"-71.39","46.79","QUEBEC INTL A","7016293","2021-05-14 12:00","2021","05","14","12:00","","18.8","","6.9","","46","","","","","","0","","48.3","","100.89","","","","","","NA"
"-71.39","46.79","QUEBEC INTL A","7016293","2021-05-14 13:00","2021","05","14","13:00","","21.9","","1.3","","25","","","","33","","14","","48.3","","100.85","","","","","","Mainly Clear"
"-71.39","46.79","QUEBEC INTL A","7016293","2021-05-14 14:00","2021","05","14","14:00","","22.1","","-0.1","","23","","","","30","","18","","48.3","","100.79","","","","","","NA"
"-71.39","46.79","QUEBEC INTL A","7016293","2021-05-14 15:00","2021","05","14","15:00","","22.4","","-1.9","","19","","","","32","","10","","48.3","","100.80","","","","","","NA"
"-71.39","46.79","QUEBEC INTL A","7016293","2021-05-14 16:00","2021","05","14","16:00","","22.1","","-1.8","","20","","","","33","","13","","48.3","","100.80","","","","","","Mainly Clear"
"-71.39","46.79","QUEBEC INTL A","7016293","2021-05-14 17:00","2021","05","14","17:00","","21.8","","-0.7","","22","","","","33","","8","","48.3","","100.82","","","","","","NA"
"-71.39","46.79","QUEBEC INTL A","7016293","2021-05-14 18:00","2021","05","14","18:00","","18.2","","3.8","","38","","","","25","","18","","48.3","","100.83","","","","","","NA"
"-71.39","46.79","QUEBEC INTL A","7016293","2021-05-14 19:00","2021","05","14","19:00","","15.9","","4.9","","48","","","","22","","5","","48.3","","100.91","","","","","","Mostly Cloudy"
"-71.39","46.79","QUEBEC INTL A","7016293","2021-05-14 20:00","2021","05","14","20:00","","14.1","","1.3","","42","","","","6","","13","","24.1","","101.01","","","","","","NA"
"-71.39","46.79","QUEBEC INTL A","7016293","2021-05-14 21:00","2021","05","14","21:00","","11.8","","1.0","","47","","","","5","","8","","24.1","","101.07","","","","","","NA"
"-71.39","46.79","QUEBEC INTL A","7016293","2021-05-14 22:00","2021","05","14","22:00","","10.7","","1.5","","53","","","","4","","4","","24.1","","101.07","","","","","","Mainly Clear"
"-71.39","46.79","QUEBEC INTL A","7016293","2021-05-14 23:00","2021","05","14","23:00","","8.7","","1.2","","60","","","","4","","5","","24.1","","101.09","","","","","","NA"
"-71.39","46.79","QUEBEC INTL A","7016293","2021-05-15 00:00","2021","05","15","00:00","","8.0","","0.4","","58","","","","1","","5","","24.1","","101.12","","","","","","NA"
"-71.39","46.79","QUEBEC INTL A","7016293","2021-05-15 01:00","2021","05","15","01:00","","8.9","","0.4","","55","","","","36","","8","","24.1","","101.11","","","","","","Mainly Clear"
"-71.39","46.79","QUEBEC INTL A","7016293","2021-05-15 02:00","2021","05","15","02:00","","8.3","","-0.3","","54","","","","3","","10","","24.1","","101.11","","","","","","NA"
"-71.39","46.79","QUEBEC INTL A","7016293","2021-05-15 03:00","2021","05","15","03:00","","8.2","","-0.9","","53","","","","1","","12","","24.1","","101.16","","","","","","NA"
"-71.39","46.79","QUEBEC INTL A","7016293","2021-05-15 04:00","2021","05","15","04:00","","6.7","","-0.7","","59","","","","2","","8","","24.1","","101.17","","","","","","Clear"
"-71.39","46.79","QUEBEC INTL A","7016293","2021-05-15 05:00","2021","05","15","05:00","","6.0","","0.1","","66","","","","4","","6","","48.3","","101.23","","","","","","NA"
"-71.39","46.79","QUEBEC INTL A","7016293","2021-05-15 06:00","2021","05","15","06:00","","8.8","","0.4","","56","","","","5","","9","","48.3","","101.28","","","","","","NA"
"-71.39","46.79","QUEBEC INTL A","7016293","2021-05-15 07:00","2021","05","15","07:00","","11.2","","2.3","","54","","","","6","","10","","48.3","","101.31","","","","","","Mainly Clear"
"-71.39","46.79","QUEBEC INTL A","7016293","2021-05-15 08:00","2021","05","15","08:00","","12.7","","3.7","","54","","","","","","0","","48.3","","101.32","","","","","","NA"
"-71.39","46.79","QUEBEC INTL A","7016293","2021-05-15 09:00","2021","05","15","09:00","","15.3","","4.3","","47","","","","22","","9","","48.3","","101.28","","","","","","NA"
"-71.39","46.79","QUEBEC INTL A","7016293","2021-05-15 10:00","2021","05","15","10:00","","17.6","","4.9","","43","","","","23","","8","","48.3","","101.23","","","","","","Mostly Cloudy"
"-71.39","46.79","QUEBEC INTL A","7016293","2021-05-15 11:00","2021","05","15","11:00","","19.9","","5.8","","39","","","","23","","11","","48.3","","101.17","","","","","","NA"
"-71.39","46.79","QUEBEC INTL A","7016293","2021-05-15 12:00","2021","05","15","12:00","","21.2","","5.8","","36","","","","23","","21","","48.3","","101.07","","","","","","NA"
"-71.39","46.79","QUEBEC INTL A","7016293","2021-05-15 13:00","2021","05","15","13:00","","22.5","","4.2","","30","","","","25","","24","","48.3","","101.00","","","","","","Mostly Cloudy"
"-71.39","46.79","QUEBEC INTL A","7016293","2021-05-15 14:00","2021","05","15","14:00","","23.2","","4.8","","30","","","","25","","28","","48.3","","100.97","","","","","","NA"
"-71.39","46.79","QUEBEC INTL A","7016293","2021-05-15 15:00","2021","05","15","15:00","","20.1","","3.6","","33","","","","33","","18","","48.3","","101.03","","","","","","NA"
"-71.39","46.79","QUEBEC INTL A","7016293","2021-05-15 16:00","2021","05","15","16:00","","21.4","","3.7","","31","","","","29","","5","","48.3","","100.96","","","","","","Mostly Cloudy"
"-71.39","46.79","QUEBEC INTL A","7016293","2021-05-15 17:00","2021","05","15","17:00","","21.1","","5.3","","35","","","","25","","12","","48.3","","100.94","","","","","","NA"
"-71.39","46.79","QUEBEC INTL A","7016293","2021-05-15 18:00","2021","05","15","18:00","","18.5","","5.6","","42","","","","24","","9","","48.3","","100.96","","","","","","NA"
"-71.39","46.79","QUEBEC INTL A","7016293","2021-05-15 19:00","2021","05","15","19:00","","16.7","","6.0","","49","","","","1","","17","","48.3","","101.14","","","","","","Mostly Cloudy"
"-71.39","46.79","QUEBEC INTL A","7016293","2021-05-15 20:00","2021","05","15","20:00","","12.8","","6.0","","63","","","","10","","21","","24.1","","101.19","","","","","","NA"
"-71.39","46.79","QUEBEC INTL A","7016293","2021-05-15 21:00","2021","05","15","21:00","","11.2","","5.7","","68","","","","7","","9","","24.1","","101.25","","","","","","NA"
"-71.39","46.79","QUEBEC INTL A","7016293","2021-05-15 22:00","2021","05","15","22:00","","10.3","","5.4","","71","","","","35","","9","","24.1","","101.21","","","","","","Mostly Cloudy"
"-71.39","46.79","QUEBEC INTL A","7016293","2021-05-15 23:00","2021","05","15","23:00","","9.6","","6.0","","78","","","","7","","10","","24.1","","101.22","","","","","","NA"
"-71.39","46.79","QUEBEC INTL A","7016293","2021-05-16 00:00","2021","05","16","00:00","","10.2","","5.8","","74","","","","5","","9","","24.1","","101.28","","","","","","NA"
"-71.39","46.79","QUEBEC INTL A","7016293","2021-05-16 01:00","2021","05","16","01:00","","9.1","","5.2","","77","","","","8","","10","","24.1","","101.30","","","","","","Mainly Clear"
"-71.39","46.79","QUEBEC INTL A","7016293","2021-05-16 02:00","2021","05","16","02:00","","8.4","","2.9","","68","","","","6","","14","","24.1","","101.31","","","","","","NA"
"-71.39","46.79","QUEBEC INTL A","7016293","2021-05-16 03:00","2021","05","16","03:00","","7.3","","3.3","","76","","","","4","","10","","24.1","","101.35","","","","","","NA"
"-71.39","46.79","QUEBEC INTL A","7016293","2021-05-16 04:00","2021","05","16","04:00","","6.6","","4.0","","83","","","","4","","10","","24.1","","101.39","","","","","","Mainly Clear"
"-71.39","46.79","QUEBEC INTL A","7016293","2021-05-16 05:00","2021","05","16","05:00","","6.7","","4.5","","86","","","","1","","6","","48.3","","101.44","","","","","","NA"
"-71.39","46.79","QUEBEC INTL A","7016293","2021-05-16 06:00","2021","05","16","06:00","","9.2","","5.3","","76","","","","6","","19","","48.3","","101.49","","","","","","NA"
"-71.39","46.79","QUEBEC INTL A","7016293","2021-05-16 07:00","2021","05","16","07:00","","10.9","","6.0","","71","","","","10","","11","","48.3","","101.54","","","","","","Mainly Clear"
"-71.39","46.79","QUEBEC INTL A","7016293","2021-05-16 08:00","2021","05","16","08:00","","12.2","","6.3","","67","","","","7","","9","","48.3","","101.53","","","","","","NA"
"-71.39","46.79","QUEBEC INTL A","7016293","2021-05-16 09:00","2021","05","16","09:00","","14.1","","6.6","","60","","","","9","","10","","48.3","","101.51","","","","","","NA"
"-71.39","46.79","QUEBEC INTL A","7016293","2021-05-16 10:00","2021","05","16","10:00","","15.4","","6.7","","56","","","","10","","7","","48.3","","101.48","","","","","","Mainly Clear"
"-71.39","46.79","QUEBEC INTL A","7016293","2021-05-16 11:00","2021","05","16","11:00","","18.2","","6.7","","47","","","","10","","10","","48.3","","101.41","","","","","","NA"
"-71.39","46.79","QUEBEC INTL A","7016293","2021-05-16 12:00","2021","05","16","12:00","","19.9","","7.7","","45","","","","11","","13","","48.3","","101.34","","","","","","NA"
"-71.39","46.79","QUEBEC INTL A","7016293","2021-05-16 13:00","2021","05","16","13:00","","15.4","","6.4","","55","","","","5","","21","","48.3","","101.42","","","","","","Mostly Cloudy"
"-71.39","46.79","QUEBEC INTL A","7016293","2021-05-16 14:00","2021","05","16","14:00","","16.2","","5.9","","50","","","","9","","13","","48.3","","101.34","","","","","","NA"
"-71.39","46.79","QUEBEC INTL A","7016293","2021-05-16 15:00","2021","05","16","15:00","","16.1","","7.7","","57","","","","6","","7","","48.3","","101.34","","","","","","NA"
"-71.39","46.79","QUEBEC INTL A","7016293","2021-05-16 16:00","2021","05","16","16:00","","17.0","","7.8","","54","","","","12","","9","","48.3","","101.28","","","","","","Mostly Cloudy"
"-71.39","46.79","QUEBEC INTL A","7016293","2021-05-16 17:00","2021","05","16","17:00","","16.9","","7.7","","54","","","","10","","11","","48.3","","101.31","","","","","","NA"
"-71.39","46.79","QUEBEC INTL A","7016293","2021-05-16 18:00","2021","05","16","18:00","","15.6","","8.5","","62","","","","6","","8","","48.3","","101.34","","","","","","NA"
"-71.39","46.79","QUEBEC INTL A","7016293","2021-05-16 19:00","2021","05","16","19:00","","13.4","","8.0","","69","","","","","","0","","48.3","","101.35","","","","","","Mainly Clear"
"-71.39","46.79","QUEBEC INTL A","7016293","2021-05-16 20:00","2021","05","16","20:00","","12.1","","8.0","","76","","","","5","","7","","48.3","","101.41","","","","","","NA"
"-71.39","46.79","QUEBEC INTL A","7016293","2021-05-16 21:00","2021","05","16","21:00","","11.3","","7.4","","77","","","","8","","12","","24.1","","101.52","","","","","","NA"
"-71.39","46.79","QUEBEC INTL A","7016293","2021-05-16 22:00","2021","05","16","22:00","","9.6","","6.6","","81","","","","4","","6","","24.1","","101.51","","","","","","Mainly Clear"
"-71.39","46.79","QUEBEC INTL A","7016293","2021-05-16 23:00","2021","05","16","23:00","","7.9","","6.4","","90","","","","4","","5","","24.1","","101.50","","","","","","NA"
"-71.39","46.79","QUEBEC INTL A","7016293","2021-05-17 00:00","2021","05","17","00:00","","7.8","","5.7","","86","","","","6","","7","","24.1","","101.49","","","","","","NA"
"-71.39","46.79","QUEBEC INTL A","7016293","2021-05-17 01:00","2021","05","17","01:00","","7.2","","5.3","","88","","","","7","","11","","24.1","","101.49","","","","","","Mainly Clear"
"-71.39","46.79","QUEBEC INTL A","7016293","2021-05-17 02:00","2021","05","17","02:00","","6.2","","4.8","","91","","","","","","0","","24.1","","101.51","","","","","","NA"
"-71.39","46.79","QUEBEC INTL A","7016293","2021-05-17 03:00","2021","05","17","03:00","","6.5","","5.1","","91","","","","4","","7","","24.1","","101.53","","","","","","NA"
"-71.39","46.79","QUEBEC INTL A","7016293","2021-05-17 04:00","2021","05","17","04:00","","6.4","","5.3","","93","","","","36","","3","","24.1","","101.52","","","","","","Mainly Clear"
"-71.39","46.79","QUEBEC INTL A","7016293","2021-05-17 05:00","2021","05","17","05:00","","6.8","","5.4","","90","","","","2","","3","","48.3","","101.57","","","","","","NA"
"-71.39","46.79","QUEBEC INTL A","7016293","2021-05-17 06:00","2021","05","17","06:00","","9.4","","6.3","","81","","","","7","","5","","48.3","","101.63","","","","","","NA"
"-71.39","46.79","QUEBEC INTL A","7016293","2021-05-17 07:00","2021","05","17","07:00","","11.7","","7.3","","74","","","","11","","4","","48.3","","101.68","","","","","","Mainly Clear"
"-71.39","46.79","QUEBEC INTL A","7016293","2021-05-17 08:00","2021","05","17","08:00","","13.9","","7.5","","65","","","","8","","7","","48.3","","101.66","","","","","","NA"
"-71.39","46.79","QUEBEC INTL A","7016293","2021-05-17 09:00","2021","05","17","09:00","","16.6","","8.1","","57","","","","12","","8","","48.3","","101.61","","","","","","NA"
"-71.39","46.79","QUEBEC INTL A","7016293","2021-05-17 10:00","2021","05","17","10:00","","18.9","","9.4","","54","","","","36","","3","","48.3","","101.56","","","","","","Mainly Clear"
"-71.39","46.79","QUEBEC INTL A","7016293","2021-05-17 11:00","2021","05","17","11:00","","21.2","","8.4","","43","","","","23","","9","","48.3","","101.46","","","","","","NA"
"-71.39","46.79","QUEBEC INTL A","7016293","2021-05-17 12:00","2021","05","17","12:00","","22.7","","7.0","","36","","","","22","","22","","48.3","","101.36","","","","","","NA"
"-71.39","46.79","QUEBEC INTL A","7016293","2021-05-17 13:00","2021","05","17","13:00","","23.9","","4.1","","27","","","","21","","24","","48.3","","101.29","","","","","","Mostly Cloudy"
"-71.39","46.79","QUEBEC INTL A","7016293","2021-05-17 14:00","2021","05","17","14:00","","24.3","","6.7","","32","","","","24","","14","","48.3","","101.23","","","","","","NA"
"-71.39","46.79","QUEBEC INTL A","7016293","2021-05-17 15:00","2021","05","17","15:00","","24.4","","6.8","","32","","","","26","","15","","48.3","","101.17","","","","","","NA"
"-71.39","46.79","QUEBEC INTL A","7016293","2021-05-17 16:00","2021","05","17","16:00","","23.3","","7.2","","35","","","","22","","21","","48.3","","101.12","","","","","","Mostly Cloudy"
"-71.39","46.79","QUEBEC INTL A","7016293","2021-05-17 17:00","2021","05","17","17:00","","23.4","","4.8","","30","","","","26","","22","","48.3","","101.10","","","","","","NA"
"-71.39","46.79","QUEBEC INTL A","7016293","2021-05-17 18:00","2021","05","17","18:00","","21.5","","5.4","","35","","","","25","","13","","48.3","","101.11","","","","","","NA"
"-71.39","46.79","QUEBEC INTL A","7016293","2021-05-17 19:00","2021","05","17","19:00","","19.4","","4.6","","37","","","","24","","8","","48.3","","101.11","","","","","","Mostly Cloudy"
"-71.39","46.79","QUEBEC INTL A","7016293","2021-05-17 20:00","2021","05","17","20:00","","16.4","","7.7","","56","","","","7","","7","","24.1","","101.13","","","","","","NA"
"-71.39","46.79","QUEBEC INTL A","7016293","2021-05-17 21:00","2021","05","17","21:00","","13.4","","9.4","","77","","","","5","","12","","24.1","","101.13","","","","","","NA"
"-71.39","46.79","QUEBEC INTL A","7016293","2021-05-17 22:00","2021","05","17","22:00","","13.3","","9.4","","77","","","","5","","9","","24.1","","101.09","","","","","","Mostly Cloudy"
"-71.39","46.79","QUEBEC INTL A","7016293","2021-05-17 23:00","2021","05","17","23:00","","12.6","","9.5","","81","","","","5","","5","","24.1","","101.06","","","","","","NA"
"-71.39","46.79","QUEBEC INTL A","7016293","2021-05-18 00:00","2021","05","18","00:00","","10.7","","9.1","","90","","","","","","0","","24.1","","101.08","","","","","","NA"
"-71.39","46.79","QUEBEC INTL A","7016293","2021-05-18 01:00","2021","05","18","01:00","","14.5","","8.0","","64","","","","22","","16","","24.1","","101.08","","","","","","Rain Showers"
"-71.39","46.79","QUEBEC INTL A","7016293","2021-05-18 02:00","2021","05","18","02:00","","14.2","","9.5","","73","","","","21","","10","","24.1","","101.09","","","","","","Rain Showers"
"-71.39","46.79","QUEBEC INTL A","7016293","2021-05-18 03:00","2021","05","18","03:00","","14.6","","9.1","","70","","","","23","","8","","24.1","","101.11","","","","","","NA"
"-71.39","46.79","QUEBEC INTL A","7016293","2021-05-18 04:00","2021","05","18","04:00","","12.5","","9.1","","79","","","","25","","13","","32.2","","101.19","","","","","","Mainly Clear"
"-71.39","46.79","QUEBEC INTL A","7016293","2021-05-18 05:00","2021","05","18","05:00","","12.8","","9.1","","78","","","","26","","9","","48.3","","101.23","","","","","","NA"
"-71.39","46.79","QUEBEC INTL A","7016293","2021-05-18 06:00","2021","05","18","06:00","","14.8","","10.3","","74","","","","26","","12","","48.3","","101.29","","","","","","NA"
"-71.39","46.79","QUEBEC INTL A","7016293","2021-05-18 07:00","2021","05","18","07:00","","16.7","","8.0","","56","","","","30","","9","","48.3","","101.34","","","","","","Mostly Cloudy"
"-71.39","46.79","QUEBEC INTL A","7016293","2021-05-18 08:00","2021","05","18","08:00","","16.6","","5.5","","48","","","","30","","13","","48.3","","101.36","","","","","","NA"
"-71.39","46.79","QUEBEC INTL A","7016293","2021-05-18 09:00","2021","05","18","09:00","","17.2","","5.5","","46","","","","31","","13","","48.3","","101.34","","","","","","NA"
"-71.39","46.79","QUEBEC INTL A","7016293","2021-05-18 10:00","2021","05","18","10:00","","17.3","","5.5","","45","","","","28","","16","","48.3","","101.35","","","","","","Mostly Cloudy"
"-71.39","46.79","QUEBEC INTL A","7016293","2021-05-18 11:00","2021","05","18","11:00","","18.4","","5.2","","42","","","","25","","19","","48.3","","101.27","","","","","","NA"
"-71.39","46.79","QUEBEC INTL A","7016293","2021-05-18 12:00","2021","05","18","12:00","","21.4","","1.7","","27","","","","27","","23","","48.3","","101.20","","","","","","NA"
"-71.39","46.79","QUEBEC INTL A","7016293","2021-05-18 13:00","2021","05","18","13:00","","22.4","","0.2","","23","","","","31","","20","","48.3","","101.15","","","","","","Mostly Cloudy"
"-71.39","46.79","QUEBEC INTL A","7016293","2021-05-18 14:00","2021","05","18","14:00","","22.8","","-1.5","","19","","","","28","","19","","48.3","","101.16","","","","","","NA"
"-71.39","46.79","QUEBEC INTL A","7016293","2021-05-18 15:00","2021","05","18","15:00","","23.3","","-2.2","","18","","","","32","","10","","48.3","","101.12","","","","","","NA"
"-71.39","46.79","QUEBEC INTL A","7016293","2021-05-18 16:00","2021","05","18","16:00","","23.1","","-3.6","","16","","","","29","","14","","48.3","","101.10","","","","","","Cloudy"
"-71.39","46.79","QUEBEC INTL A","7016293","2021-05-18 17:00","2021","05","18","17:00","","22.4","","-3.1","","18","","","","33","","9","","48.3","","101.15","","","","","","NA"
"-71.39","46.79","QUEBEC INTL A","7016293","2021-05-18 18:00","2021","05","18","18:00","","20.4","","-2.4","","21","","","","30","","5","","48.3","","101.16","","","","","","NA"
"-71.39","46.79","QUEBEC INTL A","7016293","2021-05-18 19:00","2021","05","18","19:00","","19.0","","-2.2","","23","","","","30","","4","","48.3","","101.19","","","","","","Mostly Cloudy"
"-71.39","46.79","QUEBEC INTL A","7016293","2021-05-18 20:00","2021","05","18","20:00","","16.6","","1.6","","36","","","","","","0","","24.1","","101.27","","","","","","NA"
"-71.39","46.79","QUEBEC INTL A","7016293","2021-05-18 21:00","2021","05","18","21:00","","16.4","","1.6","","37","","","","36","","3","","24.1","","101.34","","","","","","NA"
"-71.39","46.79","QUEBEC INTL A","7016293","2021-05-18 22:00","2021","05","18","22:00","","16.3","","0.5","","34","","","","32","","5","","24.1","","101.37","","","","","","Cloudy"
"-71.39","46.79","QUEBEC INTL A","7016293","2021-05-18 23:00","2021","05","18","23:00","","15.6","","0.5","","36","","","","","","0","","24.1","","101.43","","","","","","NA"
"-71.39","46.79","QUEBEC INTL A","7016293","2021-05-19 00:00","2021","05","19","00:00","","16.0","","-0.6","","32","","","","4","","5","","24.1","","101.47","","","","","","NA"
"-71.39","46.79","QUEBEC INTL A","7016293","2021-05-19 01:00","2021","05","19","01:00","","15.2","","-0.6","","34","","","","34","","4","","24.1","","101.49","","","","","","Mostly Cloudy"
"-71.39","46.79","QUEBEC INTL A","7016293","2021-05-19 02:00","2021","05","19","02:00","","14.0","","4.5","","52","","","","","","0","","24.1","","101.51","","","","","","NA"
"-71.39","46.79","QUEBEC INTL A","7016293","2021-05-19 03:00","2021","05","19","03:00","","14.4","","-0.4","","36","","","","2","","10","","48.3","","101.54","","","","","","NA"
"-71.39","46.79","QUEBEC INTL A","7016293","2021-05-19 04:00","2021","05","19","04:00","","14.0","","-0.5","","37","","","","1","","7","","48.3","","101.60","","","","","","Mostly Cloudy"
"-71.39","46.79","QUEBEC INTL A","7016293","2021-05-19 05:00","2021","05","19","05:00","","13.3","","1.4","","44","","","","32","","4","","48.3","","101.66","","","","","","NA"
"-71.39","46.79","QUEBEC INTL A","7016293","2021-05-19 06:00","2021","05","19","06:00","","13.2","","2.5","","48","","","","33","","4","","48.3","","101.73","","","","","","NA"
"-71.39","46.79","QUEBEC INTL A","7016293","2021-05-19 07:00","2021","05","19","07:00","","15.4","","1.9","","40","","","","33","","5","","48.3","","101.80","","","","","","Mostly Cloudy"
"-71.39","46.79","QUEBEC INTL A","7016293","2021-05-19 08:00","2021","05","19","08:00","","17.3","","0.7","","32","","","","21","","3","","48.3","","101.84","","","","","","NA"
"-71.39","46.79","QUEBEC INTL A","7016293","2021-05-19 09:00","2021","05","19","09:00","","17.9","","-0.8","","28","","","","7","","7","","48.3","","101.87","","","","","","NA"
"-71.39","46.79","QUEBEC INTL A","7016293","2021-05-19 10:00","2021","05","19","10:00","","18.1","","2.3","","34","","","","10","","13","","48.3","","101.89","","","","","","Mostly Cloudy"
"-71.39","46.79","QUEBEC INTL A","7016293","2021-05-19 11:00","2021","05","19","11:00","","18.9","","3.4","","35","","","","8","","15","","48.3","","101.84","","","","","","NA"
"-71.39","46.79","QUEBEC INTL A","7016293","2021-05-19 12:00","2021","05","19","12:00","","19.4","","5.1","","39","","","","6","","11","","48.3","","101.81","","","","","","NA"
"-71.39","46.79","QUEBEC INTL A","7016293","2021-05-19 13:00","2021","05","19","13:00","","20.9","","2.3","","29","","","","24","","9","","48.3","","101.75","","","","","","Mostly Cloudy"
"-71.39","46.79","QUEBEC INTL A","7016293","2021-05-19 14:00","2021","05","19","14:00","","20.9","","3.1","","30","","","","24","","7","","48.3","","101.73","","","","","","NA"
"-71.39","46.79","QUEBEC INTL A","7016293","2021-05-19 15:00","2021","05","19","15:00","","21.9","","4.1","","31","","","","22","","10","","48.3","","101.72","","","","","","NA"
"-71.39","46.79","QUEBEC INTL A","7016293","2021-05-19 16:00","2021","05","19","16:00","","21.8","","2.4","","27","","","","21","","11","","48.3","","101.70","","","","","","Mostly Cloudy"
"-71.39","46.79","QUEBEC INTL A","7016293","2021-05-19 17:00","2021","05","19","17:00","","22.4","","3.5","","29","","","","19","","4","","48.3","","101.73","","","","","","NA"
"-71.39","46.79","QUEBEC INTL A","7016293","2021-05-19 18:00","2021","05","19","18:00","","20.6","","7.8","","43","","","","7","","13","","48.3","","101.75","","","","","","NA"
"-71.39","46.79","QUEBEC INTL A","7016293","2021-05-19 19:00","2021","05","19","19:00","","16.2","","6.0","","51","","","","5","","18","","48.3","","101.80","","","","","","Mainly Clear"
"-71.39","46.79","QUEBEC INTL A","7016293","2021-05-19 20:00","2021","05","19","20:00","","14.1","","6.2","","59","","","","6","","10","","24.1","","101.83","","","","","","NA"
"-71.39","46.79","QUEBEC INTL A","7016293","2021-05-19 21:00","2021","05","19","21:00","","13.0","","7.1","","67","","","","2","","6","","24.1","","101.86","","","","","","NA"
"-71.39","46.79","QUEBEC INTL A","7016293","2021-05-19 22:00","2021","05","19","22:00","","12.3","","7.5","","73","","","","1","","4","","24.1","","101.87","","","","","","Mainly Clear"
"-71.39","46.79","QUEBEC INTL A","7016293","2021-05-19 23:00","2021","05","19","23:00","","11.7","","7.7","","76","","","","7","","5","","24.1","","101.90","","","","","","NA"
"-71.39","46.79","QUEBEC INTL A","7016293","2021-05-20 00:00","2021","05","20","00:00","","10.8","","7.1","","78","","","","6","","9","","24.1","","101.89","","","","","","NA"
"-71.39","46.79","QUEBEC INTL A","7016293","2021-05-20 01:00","2021","05","20","01:00","","9.7","","7.2","","84","","","","6","","10","","24.1","","101.95","","","","","","Mainly Clear"
"-71.39","46.79","QUEBEC INTL A","7016293","2021-05-20 02:00","2021","05","20","02:00","","10.1","","7.3","","82","","","","34","","9","","24.1","","101.98","","","","","","NA"
"-71.39","46.79","QUEBEC INTL A","7016293","2021-05-20 03:00","2021","05","20","03:00","","10.0","","7.5","","84","","","","6","","6","","24.1","","101.96","","","","","","NA"
"-71.39","46.79","QUEBEC INTL A","7016293","2021-05-20 04:00","2021","05","20","04:00","","9.7","","7.1","","84","","","","7","","8","","24.1","","102.00","","","","","","Mainly Clear"
"-71.39","46.79","QUEBEC INTL A","7016293","2021-05-20 05:00","2021","05","20","05:00","","10.2","","7.8","","85","","","","6","","9","","32.2","","102.03","","","","","","NA"
"-71.39","46.79","QUEBEC INTL A","7016293","2021-05-20 06:00","2021","05","20","06:00","","13.8","","8.3","","69","","","","8","","6","","24.1","","102.07","","","","","","NA"
"-71.39","46.79","QUEBEC INTL A","7016293","2021-05-20 07:00","2021","05","20","07:00","","16.4","","8.6","","60","","","","10","","5","","24.1","","102.05","","","","","","Mostly Cloudy"
"-71.39","46.79","QUEBEC INTL A","7016293","2021-05-20 08:00","2021","05","20","08:00","","18.5","","8.8","","53","","","","14","","3","","24.1","","102.02","","","","","","NA"
"-71.39","46.79","QUEBEC INTL A","7016293","2021-05-20 09:00","2021","05","20","09:00","","21.6","","8.8","","43","","","","","","0","","24.1","","101.98","","","","","","NA"
"-71.39","46.79","QUEBEC INTL A","7016293","2021-05-20 10:00","2021","05","20","10:00","","24.4","","12.6","","47","","","","23","","14","","24.1","","101.94","","27","","","","Mostly Cloudy"
"-71.39","46.79","QUEBEC INTL A","7016293","2021-05-20 11:00","2021","05","20","11:00","","25.8","","12.8","","44","","","","23","","16","","48.3","","101.91","","28","","","","NA"
"-71.39","46.79","QUEBEC INTL A","7016293","2021-05-20 12:00","2021","05","20","12:00","","26.4","","14.1","","46","","","","25","","15","","24.1","","101.88","","30","","","","NA"
"-71.39","46.79","QUEBEC INTL A","7016293","2021-05-20 13:00","2021","05","20","13:00","","27.7","","12.9","","39","","","","23","","24","","24.1","","101.81","","30","","","","Mostly Cloudy"
"-71.39","46.79","QUEBEC INTL A","7016293","2021-05-20 14:00","2021","05","20","14:00","","27.2","","11.8","","38","","","","26","","19","","48.3","","101.77","","29","","","","NA"
"-71.39","46.79","QUEBEC INTL A","7016293","2021-05-20 15:00","2021","05","20","15:00","","27.5","","10.4","","34","","","","26","","20","","24.1","","101.75","","29","","","","NA"
"-71.39","46.79","QUEBEC INTL A","7016293","2021-05-20 16:00","2021","05","20","16:00","","26.0","","11.2","","39","","","","27","","7","","48.3","","101.75","","28","","","","Mostly Cloudy"
"-71.39","46.79","QUEBEC INTL A","7016293","2021-05-20 17:00","2021","05","20","17:00","","25.5","","12.6","","44","","","","29","","4","","48.3","","101.74","","28","","","","Rain"
"-71.39","46.79","QUEBEC INTL A","7016293","2021-05-20 18:00","2021","05","20","18:00","","23.2","","13.3","","53","","","","27","","15","","48.3","","101.79","","26","","","","NA"
"-71.39","46.79","QUEBEC INTL A","7016293","2021-05-20 19:00","2021","05","20","19:00","","20.9","","14.4","","66","","","","","","0","","48.3","","101.78","","25","","","","Mostly Cloudy"
"-71.39","46.79","QUEBEC INTL A","7016293","2021-05-20 20:00","2021","05","20","20:00","","20.3","","14.7","","70","","","","36","","3","","24.1","","101.77","","","","","","NA"
"-71.39","46.79","QUEBEC INTL A","7016293","2021-05-20 21:00","2021","05","20","21:00","","19.0","","13.3","","69","","","","30","","6","","24.1","","101.79","","","","","","NA"
"-71.39","46.79","QUEBEC INTL A","7016293","2021-05-20 22:00","2021","05","20","22:00","","17.5","","13.9","","79","","","","20","","7","","24.1","","101.79","","","","","","Mostly Cloudy"
"-71.39","46.79","QUEBEC INTL A","7016293","2021-05-20 23:00","2021","05","20","23:00","","16.0","","12.1","","77","","","","30","","5","","24.1","","101.80","","","","","","NA"
"-71.39","46.79","QUEBEC INTL A","7016293","2021-05-21 00:00","2021","05","21","00:00","","14.4","","12.6","","88","","","","","","0","","24.1","","101.83","","","","","","NA"
"-71.39","46.79","QUEBEC INTL A","7016293","2021-05-21 01:00","2021","05","21","01:00","","13.9","","12.4","","91","","","","29","","6","","24.1","","101.83","","","","","","Mainly Clear"
"-71.39","46.79","QUEBEC INTL A","7016293","2021-05-21 02:00","2021","05","21","02:00","","14.0","","12.6","","91","","","","34","","3","","24.1","","101.85","","","","","","NA"
"-71.39","46.79","QUEBEC INTL A","7016293","2021-05-21 03:00","2021","05","21","03:00","","14.0","","12.8","","93","","","","34","","5","","24.1","","101.87","","","","","","NA"
"-71.39","46.79","QUEBEC INTL A","7016293","2021-05-21 04:00","2021","05","21","04:00","","14.3","","13.7","","96","","","","","","0","","48.3","","101.87","","","","","","Mostly Cloudy"
"-71.39","46.79","QUEBEC INTL A","7016293","2021-05-21 05:00","2021","05","21","05:00","","15.6","","14.4","","93","","","","","","0","","48.3","","101.90","","","","","","NA"
"-71.39","46.79","QUEBEC INTL A","7016293","2021-05-21 06:00","2021","05","21","06:00","","17.2","","14.7","","85","","","","","","0","","48.3","","101.95","","","","","","NA"
"-71.39","46.79","QUEBEC INTL A","7016293","2021-05-21 07:00","2021","05","21","07:00","","19.7","","15.2","","75","","","","14","","4","","32.2","","101.95","","","","","","Mostly Cloudy"
"-71.39","46.79","QUEBEC INTL A","7016293","2021-05-21 08:00","2021","05","21","08:00","","22.5","","15.3","","63","","","","26","","13","","32.2","","101.95","","27","","","","NA"
"-71.39","46.79","QUEBEC INTL A","7016293","2021-05-21 09:00","2021","05","21","09:00","","24.0","","15.2","","57","","","","22","","13","","40.2","","101.91","","28","","","","NA"
"-71.39","46.79","QUEBEC INTL A","7016293","2021-05-21 10:00","2021","05","21","10:00","","25.8","","16.4","","56","","","","22","","14","","40.2","","101.86","","31","","","","Mostly Cloudy"
"-71.39","46.79","QUEBEC INTL A","7016293","2021-05-21 11:00","2021","05","21","11:00","","27.0","","15.3","","48","","","","23","","18","","48.3","","101.79","","31","","","","NA"
"-71.39","46.79","QUEBEC INTL A","7016293","2021-05-21 12:00","2021","05","21","12:00","","27.9","","15.2","","46","","","","25","","17","","24.1","","101.73","","32","","","","NA"
"-71.39","46.79","QUEBEC INTL A","7016293","2021-05-21 13:00","2021","05","21","13:00","","27.9","","15.5","","46","","","","24","","17","","24.1","","101.68","","32","","","","Mostly Cloudy"
"-71.39","46.79","QUEBEC INTL A","7016293","2021-05-21 14:00","2021","05","21","14:00","","27.0","","16.5","","52","","","","25","","16","","24.1","","101.65","","32","","","","NA"
"-71.39","46.79","QUEBEC INTL A","7016293","2021-05-21 15:00","2021","05","21","15:00","","26.2","","16.7","","55","","","","24","","12","","24.1","","101.62","","31","","","","Rain Showers"
"-71.39","46.79","QUEBEC INTL A","7016293","2021-05-21 16:00","2021","05","21","16:00","","25.5","","17.2","","59","","","","23","","10","","24.1","","101.60","","31","","","","Rain Showers"
"-71.39","46.79","QUEBEC INTL A","7016293","2021-05-21 17:00","2021","05","21","17:00","","25.0","","16.9","","60","","","","23","","10","","24.1","","101.56","","30","","","","Rain Showers"
"-71.39","46.79","QUEBEC INTL A","7016293","2021-05-21 18:00","2021","05","21","18:00","","24.8","","16.1","","58","","","","24","","11","","32.2","","101.52","","29","","","","Rain Showers"
"-71.39","46.79","QUEBEC INTL A","7016293","2021-05-21 19:00","2021","05","21","19:00","","23.0","","16.6","","67","","","","26","","10","","32.2","","101.45","","28","","","","Cloudy"
"-71.39","46.79","QUEBEC INTL A","7016293","2021-05-21 20:00","2021","05","21","20:00","","22.0","","16.8","","72","","","","27","","5","","24.1","","101.42","","27","","","","NA"
"-71.39","46.79","QUEBEC INTL A","7016293","2021-05-21 21:00","2021","05","21","21:00","","20.4","","17.0","","81","","","","36","","3","","24.1","","101.38","","26","","","","NA"
"-71.39","46.79","QUEBEC INTL A","7016293","2021-05-21 22:00","2021","05","21","22:00","","19.5","","16.9","","85","","","","","","0","","24.1","","101.31","","","","","","Cloudy"
"-71.39","46.79","QUEBEC INTL A","7016293","2021-05-21 23:00","2021","05","21","23:00","","19.7","","16.6","","82","","","","20","","5","","24.1","","101.24","","","","","","NA"
"-71.39","46.79","QUEBEC INTL A","7016293","2021-05-22 00:00","2021","05","22","00:00","","19.1","","15.9","","81","","","","25","","10","","24.1","","101.18","","","","","","NA"
"-71.39","46.79","QUEBEC INTL A","7016293","2021-05-22 01:00","2021","05","22","01:00","","20.4","","15.6","","74","","","","26","","15","","22.5","","101.08","","25","","","","Cloudy"
"-71.39","46.79","QUEBEC INTL A","7016293","2021-05-22 02:00","2021","05","22","02:00","","21.1","","15.3","","69","","","","24","","17","","24.1","","100.99","","25","","","","NA"
"-71.39","46.79","QUEBEC INTL A","7016293","2021-05-22 03:00","2021","05","22","03:00","","20.8","","15.2","","70","","","","24","","16","","24.1","","100.93","","25","","","","NA"
"-71.39","46.79","QUEBEC INTL A","7016293","2021-05-22 04:00","2021","05","22","04:00","","20.2","","15.1","","72","","","","24","","18","","24.1","","100.89","","","","","","Cloudy"
"-71.39","46.79","QUEBEC INTL A","7016293","2021-05-22 05:00","2021","05","22","05:00","","19.1","","15.1","","77","","","","25","","17","","32.2","","100.88","","","","","","NA"
"-71.39","46.79","QUEBEC INTL A","7016293","2021-05-22 06:00","2021","05","22","06:00","","19.4","","14.9","","75","","","","25","","18","","24.1","","100.88","","","","","","NA"
"-71.39","46.79","QUEBEC INTL A","7016293","2021-05-22 07:00","2021","05","22","07:00","","20.0","","15.0","","72","","","","24","","19","","24.1","","100.85","","","","","","Mostly Cloudy"
"-71.39","46.79","QUEBEC INTL A","7016293","2021-05-22 08:00","2021","05","22","08:00","","20.7","","15.7","","73","","","","24","","18","","24.1","","100.82","","25","","","","NA"
"-71.39","46.79","QUEBEC INTL A","7016293","2021-05-22 09:00","2021","05","22","09:00","","23.1","","17.0","","68","","","","24","","18","","24.1","","100.75","","28","","","","NA"
"-71.39","46.79","QUEBEC INTL A","7016293","2021-05-22 10:00","2021","05","22","10:00","","25.3","","17.0","","60","","","","25","","16","","24.1","","100.70","","31","","","","Mostly Cloudy"
"-71.39","46.79","QUEBEC INTL A","7016293","2021-05-22 11:00","2021","05","22","11:00","","24.9","","16.4","","59","","","","26","","19","","24.1","","100.67","","30","","","","NA"
"-71.39","46.79","QUEBEC INTL A","7016293","2021-05-22 12:00","2021","05","22","12:00","","26.2","","17.1","","57","","","","25","","24","","24.1","","100.57","","32","","","","NA"
"-71.39","46.79","QUEBEC INTL A","7016293","2021-05-22 13:00","2021","05","22","13:00","","26.5","","17.3","","56","","","","25","","25","","32.2","","100.52","","32","","","","Mostly Cloudy"
"-71.39","46.79","QUEBEC INTL A","7016293","2021-05-22 14:00","2021","05","22","14:00","","27.2","","18.3","","58","","","","24","","23","","32.2","","100.44","","33","","","","NA"
"-71.39","46.79","QUEBEC INTL A","7016293","2021-05-22 15:00","2021","05","22","15:00","","26.5","","17.1","","56","","","","24","","28","","32.2","","100.36","","32","","","","NA"
"-71.39","46.79","QUEBEC INTL A","7016293","2021-05-22 16:00","2021","05","22","16:00","","26.5","","17.6","","57","","","","24","","23","","32.2","","100.30","","32","","","","Mostly Cloudy"
"-71.39","46.79","QUEBEC INTL A","7016293","2021-05-22 17:00","2021","05","22","17:00","","25.1","","17.3","","61","","","","24","","18","","32.2","","100.31","","31","","","","NA"
"-71.39","46.79","QUEBEC INTL A","7016293","2021-05-22 18:00","2021","05","22","18:00","","25.1","","15.6","","55","","","","27","","13","","32.2","","100.27","","29","","","","NA"
"-71.39","46.79","QUEBEC INTL A","7016293","2021-05-22 19:00","2021","05","22","19:00","","24.5","","14.7","","54","","","","28","","8","","32.2","","100.28","","28","","","","Mainly Clear"
"-71.39","46.79","QUEBEC INTL A","7016293","2021-05-22 20:00","2021","05","22","20:00","","21.5","","14.9","","66","","","","25","","6","","24.1","","100.28","","25","","","","NA"
"-71.39","46.79","QUEBEC INTL A","7016293","2021-05-22 21:00","2021","05","22","21:00","","19.5","","15.2","","76","","","","25","","9","","24.1","","100.26","","","","","","NA"
"-71.39","46.79","QUEBEC INTL A","7016293","2021-05-22 22:00","2021","05","22","22:00","","18.5","","15.1","","80","","","","23","","9","","24.1","","100.24","","","","","","Mainly Clear"
"-71.39","46.79","QUEBEC INTL A","7016293","2021-05-22 23:00","2021","05","22","23:00","","18.6","","15.1","","80","","","","25","","9","","24.1","","100.17","","","","","","NA"
"-71.39","46.79","QUEBEC INTL A","7016293","2021-05-23 00:00","2021","05","23","00:00","","19.1","","15.2","","78","","","","24","","14","","24.1","","100.06","","","","","","NA"
"-71.39","46.79","QUEBEC INTL A","7016293","2021-05-23 01:00","2021","05","23","01:00","","18.7","","15.3","","81","","","","22","","18","","24.1","","100.02","","","","","","Mostly Cloudy"
"-71.39","46.79","QUEBEC INTL A","7016293","2021-05-23 02:00","2021","05","23","02:00","","17.8","","15.6","","87","","","","26","","12","","24.1","","99.90","","","","","","NA"
"-71.39","46.79","QUEBEC INTL A","7016293","2021-05-23 03:00","2021","05","23","03:00","","17.4","","15.7","","90","","","","25","","18","","24.1","","99.83","","","","","","NA"
"-71.39","46.79","QUEBEC INTL A","7016293","2021-05-23 04:00","2021","05","23","04:00","","17.3","","16.2","","93","","","","25","","17","","9.7","","99.77","","","","","","Fog"
"-71.39","46.79","QUEBEC INTL A","7016293","2021-05-23 05:00","2021","05","23","05:00","","17.4","","16.9","","97","","","","24","","17","","3.2","","99.73","","","","","","Rain,Fog"
"-71.39","46.79","QUEBEC INTL A","7016293","2021-05-23 06:00","2021","05","23","06:00","","18.2","","17.9","","98","","","","22","","7","","3.2","","99.61","","","","","","Rain,Fog"
"-71.39","46.79","QUEBEC INTL A","7016293","2021-05-23 07:00","2021","05","23","07:00","","17.2","","15.4","","89","","","","32","","13","","16.1","","99.79","","","","","","Rain"
"-71.39","46.79","QUEBEC INTL A","7016293","2021-05-23 08:00","2021","05","23","08:00","","14.5","","10.0","","74","","","","32","","10","","32.2","","100.04","","","","","","NA"
"-71.39","46.79","QUEBEC INTL A","7016293","2021-05-23 09:00","2021","05","23","09:00","","15.4","","9.0","","65","","","","36","","17","","32.2","","100.18","","","","","","NA"
"-71.39","46.79","QUEBEC INTL A","7016293","2021-05-23 10:00","2021","05","23","10:00","","16.8","","8.1","","56","","","","1","","20","","48.3","","100.30","","","","","","Mostly Cloudy"
"-71.39","46.79","QUEBEC INTL A","7016293","2021-05-23 11:00","2021","05","23","11:00","","16.0","","5.7","","50","","","","2","","18","","48.3","","100.42","","","","","","NA"
"-71.39","46.79","QUEBEC INTL A","7016293","2021-05-23 12:00","2021","05","23","12:00","","17.1","","5.9","","48","","","","1","","22","","48.3","","100.49","","","","","","NA"
"-71.39","46.79","QUEBEC INTL A","7016293","2021-05-23 13:00","2021","05","23","13:00","","16.7","","5.3","","47","","","","34","","17","","48.3","","100.58","","","","","","Mainly Clear"
"-71.39","46.79","QUEBEC INTL A","7016293","2021-05-23 14:00","2021","05","23","14:00","","16.1","","4.1","","44","","","","34","","19","","48.3","","100.65","","","","","","NA"
"-71.39","46.79","QUEBEC INTL A","7016293","2021-05-23 15:00","2021","05","23","15:00","","16.6","","3.4","","41","","","","34","","14","","48.3","","100.70","","","","","","NA"
"-71.39","46.79","QUEBEC INTL A","7016293","2021-05-23 16:00","2021","05","23","16:00","","16.4","","1.1","","35","","","","34","","15","","48.3","","100.78","","","","","","Mainly Clear"
"-71.39","46.79","QUEBEC INTL A","7016293","2021-05-23 17:00","2021","05","23","17:00","","15.9","","-0.4","","33","","","","32","","12","","48.3","","100.85","","","","","","NA"
"-71.39","46.79","QUEBEC INTL A","7016293","2021-05-23 18:00","2021","05","23","18:00","","15.2","","-1.6","","31","","","","36","","12","","48.3","","100.95","","","","","","NA"
"-71.39","46.79","QUEBEC INTL A","7016293","2021-05-23 19:00","2021","05","23","19:00","","13.7","","-2.4","","33","","","","36","","10","","48.3","","101.05","","","","","","Clear"
"-71.39","46.79","QUEBEC INTL A","7016293","2021-05-23 20:00","2021","05","23","20:00","","12.1","","-1.4","","39","","","","36","","5","","32.2","","101.14","","","","","","NA"
"-71.39","46.79","QUEBEC INTL A","7016293","2021-05-23 21:00","2021","05","23","21:00","","10.7","","-0.8","","45","","","","35","","4","","24.1","","101.25","","","","","","NA"
"-71.39","46.79","QUEBEC INTL A","7016293","2021-05-23 22:00","2021","05","23","22:00","","9.5","","-0.9","","48","","","","36","","4","","24.1","","101.29","","","","","","Clear"
"-71.39","46.79","QUEBEC INTL A","7016293","2021-05-23 23:00","2021","05","23","23:00","","8.4","","-1.0","","51","","","","35","","4","","24.1","","101.33","","","","","","NA"
"-71.39","46.79","QUEBEC INTL A","7016293","2021-05-24 00:00","2021","05","24","00:00","","8.4","","-1.3","","51","","","","36","","9","","24.1","","101.40","","","","","","NA"
"-71.39","46.79","QUEBEC INTL A","7016293","2021-05-24 01:00","2021","05","24","01:00","","7.8","","-1.2","","53","","","","35","","9","","24.1","","101.42","","","","","","Clear"
"-71.39","46.79","QUEBEC INTL A","7016293","2021-05-24 02:00","2021","05","24","02:00","","7.0","","-1.2","","56","","","","3","","7","","24.1","","101.49","","","","","","NA"
"-71.39","46.79","QUEBEC INTL A","7016293","2021-05-24 03:00","2021","05","24","03:00","","5.9","","-1.3","","60","","","","1","","5","","24.1","","101.53","","","","","","NA"
"-71.39","46.79","QUEBEC INTL A","7016293","2021-05-24 04:00","2021","05","24","04:00","","5.3","","-1.3","","62","","","","1","","7","","48.3","","101.61","","","","","","Clear"
"-71.39","46.79","QUEBEC INTL A","7016293","2021-05-24 05:00","2021","05","24","05:00","","5.3","","-0.7","","65","","","","35","","7","","48.3","","101.67","","","","","","NA"
"-71.39","46.79","QUEBEC INTL A","7016293","2021-05-24 06:00","2021","05","24","06:00","","7.7","","-0.6","","55","","","","1","","8","","48.3","","101.74","","","","","","NA"
"-71.39","46.79","QUEBEC INTL A","7016293","2021-05-24 07:00","2021","05","24","07:00","","9.5","","-0.4","","50","","","","6","","3","","48.3","","101.78","","","","","","Clear"
"-71.39","46.79","QUEBEC INTL A","7016293","2021-05-24 08:00","2021","05","24","08:00","","11.1","","-0.2","","45","","","","11","","7","","48.3","","101.77","","","","","","NA"
"-71.39","46.79","QUEBEC INTL A","7016293","2021-05-24 09:00","2021","05","24","09:00","","12.3","","-1.6","","38","","","","13","","6","","48.3","","101.70","","","","","","NA"
"-71.39","46.79","QUEBEC INTL A","7016293","2021-05-24 10:00","2021","05","24","10:00","","14.3","","-0.2","","37","","","","21","","8","","48.3","","101.64","","","","","","Mainly Clear"
"-71.39","46.79","QUEBEC INTL A","7016293","2021-05-24 11:00","2021","05","24","11:00","","14.8","","0.1","","36","","","","24","","14","","48.3","","101.56","","","","","","NA"
"-71.39","46.79","QUEBEC INTL A","7016293","2021-05-24 12:00","2021","05","24","12:00","","15.4","","-1.2","","32","","","","24","","18","","48.3","","101.43","","","","","","NA"
"-71.39","46.79","QUEBEC INTL A","7016293","2021-05-24 13:00","2021","05","24","13:00","","16.8","","-1.2","","29","","","","24","","13","","48.3","","101.35","","","","","","Clear"
"-71.39","46.79","QUEBEC INTL A","7016293","2021-05-24 14:00","2021","05","24","14:00","","17.8","","-0.6","","28","","","","21","","21","","48.3","","101.28","","","","","","NA"
"-71.39","46.79","QUEBEC INTL A","7016293","2021-05-24 15:00","2021","05","24","15:00","","17.7","","-0.7","","28","","","","22","","19","","48.3","","101.21","","","","","","NA"
"-71.39","46.79","QUEBEC INTL A","7016293","2021-05-24 16:00","2021","05","24","16:00","","17.6","","-0.5","","29","","","","24","","23","","48.3","","101.12","","","","","","Mainly Clear"
"-71.39","46.79","QUEBEC INTL A","7016293","2021-05-24 17:00","2021","05","24","17:00","","17.7","","-0.8","","28","","","","22","","24","","48.3","","101.06","","","","","","NA"
"-71.39","46.79","QUEBEC INTL A","7016293","2021-05-24 18:00","2021","05","24","18:00","","17.0","","0.1","","31","","","","24","","22","","48.3","","101.06","","","","","","NA"
"-71.39","46.79","QUEBEC INTL A","7016293","2021-05-24 19:00","2021","05","24","19:00","","14.9","","1.6","","40","","","","24","","12","","48.3","","101.04","","","","","","Clear"
"-71.39","46.79","QUEBEC INTL A","7016293","2021-05-24 20:00","2021","05","24","20:00","","12.2","","2.7","","52","","","","25","","6","","48.3","","101.01","","","","","","NA"
"-71.39","46.79","QUEBEC INTL A","7016293","2021-05-24 21:00","2021","05","24","21:00","","9.4","","3.5","","67","","","","26","","5","","24.1","","100.97","","","","","","NA"
"-71.39","46.79","QUEBEC INTL A","7016293","2021-05-24 22:00","2021","05","24","22:00","","9.3","","2.3","","61","","","","25","","6","","24.1","","100.94","","","","","","Clear"
"-71.39","46.79","QUEBEC INTL A","7016293","2021-05-24 23:00","2021","05","24","23:00","","8.2","","2.6","","68","","","","25","","9","","24.1","","100.91","","","","","","NA"
"-71.39","46.79","QUEBEC INTL A","7016293","2021-05-25 00:00","2021","05","25","00:00","","9.0","","2.6","","64","","","","23","","15","","24.1","","100.89","","","","","","NA"
"-71.39","46.79","QUEBEC INTL A","7016293","2021-05-25 01:00","2021","05","25","01:00","","8.5","","2.4","","66","","","","21","","12","","24.1","","100.85","","","","","","Mainly Clear"
"-71.39","46.79","QUEBEC INTL A","7016293","2021-05-25 02:00","2021","05","25","02:00","","9.5","","2.9","","63","","","","20","","15","","24.1","","100.82","","","","","","NA"
"-71.39","46.79","QUEBEC INTL A","7016293","2021-05-25 03:00","2021","05","25","03:00","","8.1","","3.9","","75","","","","27","","4","","24.1","","100.82","","","","","","NA"
"-71.39","46.79","QUEBEC INTL A","7016293","2021-05-25 04:00","2021","05","25","04:00","","5.8","","3.6","","85","","","","29","","4","","48.3","","100.82","","","","","","Mostly Cloudy"
"-71.39","46.79","QUEBEC INTL A","7016293","2021-05-25 05:00","2021","05","25","05:00","","6.8","","4.2","","84","","","","","","0","","48.3","","100.78","","","","","","NA"
"-71.39","46.79","QUEBEC INTL A","7016293","2021-05-25 06:00","2021","05","25","06:00","","10.5","","6.2","","74","","","","23","","3","","48.3","","100.73","","","","","","NA"
"-71.39","46.79","QUEBEC INTL A","7016293","2021-05-25 07:00","2021","05","25","07:00","","13.4","","6.7","","64","","","","24","","11","","48.3","","100.69","","","","","","Mainly Clear"
"-71.39","46.79","QUEBEC INTL A","7016293","2021-05-25 08:00","2021","05","25","08:00","","16.8","","8.8","","59","","","","25","","17","","48.3","","100.60","","","","","","NA"
"-71.39","46.79","QUEBEC INTL A","7016293","2021-05-25 09:00","2021","05","25","09:00","","19.0","","8.5","","50","","","","25","","31","","48.3","","100.50","","","","","","NA"
"-71.39","46.79","QUEBEC INTL A","7016293","2021-05-25 10:00","2021","05","25","10:00","","20.2","","11.1","","55","","","","24","","28","","40.2","","100.41","","","","","","Cloudy"
"-71.39","46.79","QUEBEC INTL A","7016293","2021-05-25 11:00","2021","05","25","11:00","","18.4","","12.0","","66","","","","24","","28","","17.7","","100.39","","","","","","Rain Showers"
"-71.39","46.79","QUEBEC INTL A","7016293","2021-05-25 12:00","2021","05","25","12:00","","15.4","","14.3","","93","","","","23","","13","","16.1","","100.38","","","","","","Rain Showers"
"-71.39","46.79","QUEBEC INTL A","7016293","2021-05-25 13:00","2021","05","25","13:00","","17.3","","15.2","","87","","","","26","","10","","19.3","","100.29","","","","","","Rain Showers"
"-71.39","46.79","QUEBEC INTL A","7016293","2021-05-25 14:00","2021","05","25","14:00","","17.4","","16.1","","92","","","","25","","14","","16.1","","100.25","","","","","","Rain Showers"
"-71.39","46.79","QUEBEC INTL A","7016293","2021-05-25 15:00","2021","05","25","15:00","","18.1","","16.2","","89","","","","23","","14","","24.1","","100.18","","","","","","Rain Showers"
"-71.39","46.79","QUEBEC INTL A","7016293","2021-05-25 16:00","2021","05","25","16:00","","19.1","","16.3","","84","","","","25","","14","","24.1","","100.17","","","","","","Rain Showers"
"-71.39","46.79","QUEBEC INTL A","7016293","2021-05-25 17:00","2021","05","25","17:00","","19.7","","16.3","","81","","","","25","","14","","24.1","","100.13","","","","","","NA"
"-71.39","46.79","QUEBEC INTL A","7016293","2021-05-25 18:00","2021","05","25","18:00","","18.5","","16.5","","88","","","","24","","14","","19.3","","100.13","","","","","","NA"
"-71.39","46.79","QUEBEC INTL A","7016293","2021-05-25 19:00","2021","05","25","19:00","","17.9","","16.9","","94","","","","22","","12","","19.3","","100.13","","","","","","Rain Showers"
"-71.39","46.79","QUEBEC INTL A","7016293","2021-05-25 20:00","2021","05","25","20:00","","17.9","","17.4","","97","","","","21","","8","","24.1","","100.07","","","","","","Rain Showers"
"-71.39","46.79","QUEBEC INTL A","7016293","2021-05-25 21:00","2021","05","25","21:00","","17.4","","17.0","","97","","","","26","","9","","24.1","","100.09","","","","","","NA"
"-71.39","46.79","QUEBEC INTL A","7016293","2021-05-25 22:00","2021","05","25","22:00","","17.7","","17.2","","97","","","","25","","12","","12.9","","100.05","","","","","","Mostly Cloudy"
"-71.39","46.79","QUEBEC INTL A","7016293","2021-05-25 23:00","2021","05","25","23:00","","17.9","","17.2","","95","","","","23","","3","","9.7","","100.12","","","","","","Rain Showers,Fog"
"-71.39","46.79","QUEBEC INTL A","7016293","2021-05-26 00:00","2021","05","26","00:00","","18.0","","17.6","","98","","","","21","","17","","12.9","","99.99","","","","","","Rain Showers"
"-71.39","46.79","QUEBEC INTL A","7016293","2021-05-26 01:00","2021","05","26","01:00","","17.4","","17.2","","99","","","","","","0","","12.9","","99.99","","","","","","Mostly Cloudy"
"-71.39","46.79","QUEBEC INTL A","7016293","2021-05-26 02:00","2021","05","26","02:00","","16.1","","16.0","","99","","","","22","","8","","12.9","","99.94","","","","","","NA"
"-71.39","46.79","QUEBEC INTL A","7016293","2021-05-26 03:00","2021","05","26","03:00","","16.4","","16.3","","100","","","","","","0","","12.9","","99.90","","","","","","NA"
"-71.39","46.79","QUEBEC INTL A","7016293","2021-05-26 04:00","2021","05","26","04:00","","17.5","","17.1","","97","","","","24","","11","","12.9","","99.88","","","","","","Mostly Cloudy"
"-71.39","46.79","QUEBEC INTL A","7016293","2021-05-26 05:00","2021","05","26","05:00","","17.8","","17.1","","96","","","","25","","7","","19.3","","99.91","","","","","","NA"
"-71.39","46.79","QUEBEC INTL A","7016293","2021-05-26 06:00","2021","05","26","06:00","","19.5","","18.0","","91","","","","24","","10","","32.2","","99.89","","","","","","NA"
"-71.39","46.79","QUEBEC INTL A","7016293","2021-05-26 07:00","2021","05","26","07:00","","21.2","","18.3","","83","","","","24","","12","","32.2","","99.85","","27","","","","Mainly Clear"
"-71.39","46.79","QUEBEC INTL A","7016293","2021-05-26 08:00","2021","05","26","08:00","","23.4","","18.6","","75","","","","24","","19","","40.2","","99.82","","30","","","","NA"
"-71.39","46.79","QUEBEC INTL A","7016293","2021-05-26 09:00","2021","05","26","09:00","","23.9","","17.9","","69","","","","24","","26","","40.2","","99.74","","30","","","","NA"
"-71.39","46.79","QUEBEC INTL A","7016293","2021-05-26 10:00","2021","05","26","10:00","","25.5","","18.2","","63","","","","24","","30","","40.2","","99.67","","32","","","","Mostly Cloudy"
"-71.39","46.79","QUEBEC INTL A","7016293","2021-05-26 11:00","2021","05","26","11:00","","25.7","","17.8","","61","","","","25","","28","","40.2","","99.59","","32","","","","NA"
"-71.39","46.79","QUEBEC INTL A","7016293","2021-05-26 12:00","2021","05","26","12:00","","25.4","","17.9","","63","","","","24","","23","","40.2","","99.51","","31","","","","NA"
"-71.39","46.79","QUEBEC INTL A","7016293","2021-05-26 13:00","2021","05","26","13:00","","27.1","","18.5","","59","","","","24","","27","","48.3","","99.35","","33","","","","Mostly Cloudy"
"-71.39","46.79","QUEBEC INTL A","7016293","2021-05-26 14:00","2021","05","26","14:00","","27.1","","18.5","","59","","","","25","","23","","40.2","","99.24","","33","","","","NA"
"-71.39","46.79","QUEBEC INTL A","7016293","2021-05-26 15:00","2021","05","26","15:00","","24.8","","17.8","","65","","","","26","","42","","40.2","","99.25","","31","","","","NA"
"-71.39","46.79","QUEBEC INTL A","7016293","2021-05-26 16:00","2021","05","26","16:00","","22.3","","19.2","","82","","","","24","","21","","40.2","","99.26","","29","","","","Mostly Cloudy"
"-71.39","46.79","QUEBEC INTL A","7016293","2021-05-26 17:00","2021","05","26","17:00","","21.7","","19.1","","85","","","","25","","22","","40.2","","99.24","","29","","","","Rain Showers"
"-71.39","46.79","QUEBEC INTL A","7016293","2021-05-26 18:00","2021","05","26","18:00","","21.1","","18.6","","86","","","","24","","16","","40.2","","99.24","","28","","","","Rain Showers"
"-71.39","46.79","QUEBEC INTL A","7016293","2021-05-26 19:00","2021","05","26","19:00","","21.1","","18.0","","82","","","","23","","18","","40.2","","99.26","","27","","","","Mostly Cloudy"
"-71.39","46.79","QUEBEC INTL A","7016293","2021-05-26 20:00","2021","05","26","20:00","","19.9","","17.4","","85","","","","24","","21","","24.1","","99.28","","","","","","NA"
"-71.39","46.79","QUEBEC INTL A","7016293","2021-05-26 21:00","2021","05","26","21:00","","19.0","","17.1","","88","","","","23","","20","","24.1","","99.34","","","","","","NA"
"-71.39","46.79","QUEBEC INTL A","7016293","2021-05-26 22:00","2021","05","26","22:00","","18.0","","16.8","","93","","","","25","","13","","24.1","","99.42","","","","","","Mainly Clear"
"-71.39","46.79","QUEBEC INTL A","7016293","2021-05-26 23:00","2021","05","26","23:00","","18.3","","16.7","","90","","","","27","","9","","24.1","","99.48","","","","","","NA"
"-71.39","46.79","QUEBEC INTL A","7016293","2021-05-27 00:00","2021","05","27","00:00","","17.6","","11.5","","67","","","","27","","9","","24.1","","99.59","","","","","","NA"
"-71.39","46.79","QUEBEC INTL A","7016293","2021-05-27 01:00","2021","05","27","01:00","","16.6","","10.6","","67","","","","27","","13","","24.1","","99.68","","","","","","Mostly Cloudy"
"-71.39","46.79","QUEBEC INTL A","7016293","2021-05-27 02:00","2021","05","27","02:00","","15.6","","9.8","","68","","","","28","","17","","24.1","","99.80","","","","","","NA"
"-71.39","46.79","QUEBEC INTL A","7016293","2021-05-27 03:00","2021","05","27","03:00","","10.6","","4.0","","63","","","","32","","21","","24.1","","100.03","","","","","","NA"
"-71.39","46.79","QUEBEC INTL A","7016293","2021-05-27 04:00","2021","05","27","04:00","","8.9","","1.0","","58","","","","32","","21","","48.3","","100.23","","","","","","Mostly Cloudy"
"-71.39","46.79","QUEBEC INTL A","7016293","2021-05-27 05:00","2021","05","27","05:00","","7.3","","0.4","","61","","","","35","","10","","48.3","","100.33","","","","","","NA"
"-71.39","46.79","QUEBEC INTL A","7016293","2021-05-27 06:00","2021","05","27","06:00","","7.0","","0.0","","61","","","","28","","12","","48.3","","100.44","","","","","","NA"
"-71.39","46.79","QUEBEC INTL A","7016293","2021-05-27 07:00","2021","05","27","07:00","","6.8","","-0.8","","59","","","","30","","10","","48.3","","100.52","","","","","","Mostly Cloudy"
"-71.39","46.79","QUEBEC INTL A","7016293","2021-05-27 08:00","2021","05","27","08:00","","8.2","","-1.9","","49","","","","34","","13","","48.3","","100.60","","","","","","NA"
"-71.39","46.79","QUEBEC INTL A","7016293","2021-05-27 09:00","2021","05","27","09:00","","9.1","","-1.9","","46","","","","33","","9","","48.3","","100.67","","","","","","NA"
"-71.39","46.79","QUEBEC INTL A","7016293","2021-05-27 10:00","2021","05","27","10:00","","9.9","","-2.8","","41","","","","33","","17","","48.3","","100.71","","","","","","Mainly Clear"
"-71.39","46.79","QUEBEC INTL A","7016293","2021-05-27 11:00","2021","05","27","11:00","","10.6","","-1.9","","42","","","","30","","12","","48.3","","100.73","","","","","","NA"
"-71.39","46.79","QUEBEC INTL A","7016293","2021-05-27 12:00","2021","05","27","12:00","","10.7","","-3.3","","37","","","","28","","12","","48.3","","100.72","","","","","","NA"
"-71.39","46.79","QUEBEC INTL A","7016293","2021-05-27 13:00","2021","05","27","13:00","","10.8","","-2.0","","41","","","","27","","17","","48.3","","100.69","","","","","","Mainly Clear"
"-71.39","46.79","QUEBEC INTL A","7016293","2021-05-27 14:00","2021","05","27","14:00","","10.8","","-4.5","","34","","","","29","","19","","48.3","","100.70","","","","","","NA"
"-71.39","46.79","QUEBEC INTL A","7016293","2021-05-27 15:00","2021","05","27","15:00","","11.4","","-4.5","","32","","","","28","","19","","48.3","","100.76","","","","","","NA"
"-71.39","46.79","QUEBEC INTL A","7016293","2021-05-27 16:00","2021","05","27","16:00","","11.2","","-4.0","","34","","","","28","","13","","48.3","","100.79","","","","","","Mainly Clear"
"-71.39","46.79","QUEBEC INTL A","7016293","2021-05-27 17:00","2021","05","27","17:00","","11.1","","-4.6","","33","","","","30","","14","","48.3","","100.82","","","","","","NA"
"-71.39","46.79","QUEBEC INTL A","7016293","2021-05-27 18:00","2021","05","27","18:00","","9.4","","-4.7","","37","","","","30","","11","","48.3","","100.87","","","","","","NA"
"-71.39","46.79","QUEBEC INTL A","7016293","2021-05-27 19:00","2021","05","27","19:00","","7.3","","-5.2","","41","","","","30","","9","","48.3","","100.94","","","","","","Mainly Clear"
"-71.39","46.79","QUEBEC INTL A","7016293","2021-05-27 20:00","2021","05","27","20:00","","5.5","","-5.0","","47","","","","28","","7","","32.2","","101.02","","","","","","NA"
"-71.39","46.79","QUEBEC INTL A","7016293","2021-05-27 21:00","2021","05","27","21:00","","2.7","","-3.0","","66","","","","26","","8","","24.1","","101.04","","","","","","NA"
"-71.39","46.79","QUEBEC INTL A","7016293","2021-05-27 22:00","2021","05","27","22:00","","4.2","","-4.4","","53","","","","28","","9","","24.1","","101.06","","","","","","Clear"
"-71.39","46.79","QUEBEC INTL A","7016293","2021-05-27 23:00","2021","05","27","23:00","","3.3","","-4.0","","59","","","","27","","10","","24.1","","101.10","","","","","","NA"
"-71.39","46.79","QUEBEC INTL A","7016293","2021-05-28 00:00","2021","05","28","00:00","","0.9","","-3.3","","73","","","","26","","10","","24.1","","101.16","","","","","","NA"
"-71.39","46.79","QUEBEC INTL A","7016293","2021-05-28 01:00","2021","05","28","01:00","","2.8","","-4.3","","60","","","","29","","8","","24.1","","101.17","","","","","","Clear"
"-71.39","46.79","QUEBEC INTL A","7016293","2021-05-28 02:00","2021","05","28","02:00","","1.9","","-5.1","","60","","","","27","","10","","24.1","","101.12","","","","","","NA"
"-71.39","46.79","QUEBEC INTL A","7016293","2021-05-28 03:00","2021","05","28","03:00","","1.2","","-6.0","","59","","","","28","","13","","24.1","","101.14","","","","","","NA"
"-71.39","46.79","QUEBEC INTL A","7016293","2021-05-28 04:00","2021","05","28","04:00","","-1.0","","-5.0","","74","","","","25","","7","","24.1","","101.18","","","","-4","","Clear"
"-71.39","46.79","QUEBEC INTL A","7016293","2021-05-28 05:00","2021","05","28","05:00","","0.3","","-4.7","","69","","","","25","","10","","48.3","","101.23","","","","","","NA"
"-71.39","46.79","QUEBEC INTL A","7016293","2021-05-28 06:00","2021","05","28","06:00","","2.5","","-4.7","","59","","","","24","","17","","48.3","","101.27","","","","","","NA"
"-71.39","46.79","QUEBEC INTL A","7016293","2021-05-28 07:00","2021","05","28","07:00","","4.5","","-3.9","","55","","","","24","","17","","48.3","","101.31","","","","","","Mostly Cloudy"
"-71.39","46.79","QUEBEC INTL A","7016293","2021-05-28 08:00","2021","05","28","08:00","","5.5","","-4.7","","48","","","","24","","17","","48.3","","101.31","","","","","","NA"
"-71.39","46.79","QUEBEC INTL A","7016293","2021-05-28 09:00","2021","05","28","09:00","","7.3","","-5.1","","41","","","","27","","10","","48.3","","101.27","","","","","","NA"
"-71.39","46.79","QUEBEC INTL A","7016293","2021-05-28 10:00","2021","05","28","10:00","","8.0","","-4.6","","41","","","","26","","10","","48.3","","101.22","","","","","","Mainly Clear"
"-71.39","46.79","QUEBEC INTL A","7016293","2021-05-28 11:00","2021","05","28","11:00","","10.0","","-4.8","","35","","","","25","","15","","48.3","","101.16","","","","","","NA"
"-71.39","46.79","QUEBEC INTL A","7016293","2021-05-28 12:00","2021","05","28","12:00","","11.0","","-4.5","","33","","","","28","","16","","48.3","","101.09","","","","","","NA"
"-71.39","46.79","QUEBEC INTL A","7016293","2021-05-28 13:00","2021","05","28","13:00","","12.5","","-5.3","","28","","","","25","","4","","48.3","","101.03","","","","","","Mainly Clear"
"-71.39","46.79","QUEBEC INTL A","7016293","2021-05-28 14:00","2021","05","28","14:00","","13.5","","-5.5","","26","","","","35","","14","","48.3","","101.02","","","","","","NA"
"-71.39","46.79","QUEBEC INTL A","7016293","2021-05-28 15:00","2021","05","28","15:00","","14.6","","-4.6","","26","","","","33","","9","","48.3","","100.94","","","","","","NA"
"-71.39","46.79","QUEBEC INTL A","7016293","2021-05-28 16:00","2021","05","28","16:00","","14.4","","-5.0","","26","","","","33","","8","","48.3","","100.91","","","","","","Mostly Cloudy"
"-71.39","46.79","QUEBEC INTL A","7016293","2021-05-28 17:00","2021","05","28","17:00","","14.1","","-5.7","","25","","","","33","","10","","48.3","","100.90","","","","","","NA"
"-71.39","46.79","QUEBEC INTL A","7016293","2021-05-28 18:00","2021","05","28","18:00","","13.4","","-4.9","","28","","","","31","","8","","48.3","","100.93","","","","","","NA"
"-71.39","46.79","QUEBEC INTL A","7016293","2021-05-28 19:00","2021","05","28","19:00","","11.6","","-3.7","","34","","","","31","","4","","48.3","","100.98","","","","","","Mainly Clear"
"-71.39","46.79","QUEBEC INTL A","7016293","2021-05-28 20:00","2021","05","28","20:00","","8.6","","-2.4","","46","","","","1","","3","","48.3","","101.03","","","","","","NA"
"-71.39","46.79","QUEBEC INTL A","7016293","2021-05-28 21:00","2021","05","28","21:00","","7.1","","-2.5","","51","","","","33","","8","","24.1","","101.09","","","","","","NA"
"-71.39","46.79","QUEBEC INTL A","7016293","2021-05-28 22:00","2021","05","28","22:00","","6.0","","-2.8","","53","","","","35","","7","","24.1","","101.12","","","","","","Clear"
"-71.39","46.79","QUEBEC INTL A","7016293","2021-05-28 23:00","2021","05","28","23:00","","5.3","","-2.5","","57","","","","35","","5","","24.1","","101.17","","","","","","NA"
"-71.39","46.79","QUEBEC INTL A","7016293","2021-05-29 00:00","2021","05","29","00:00","","2.7","","-2.1","","71","","","","6","","10","","24.1","","101.22","","","","","","NA"
"-71.39","46.79","QUEBEC INTL A","7016293","2021-05-29 01:00","2021","05","29","01:00","","5.3","","-3.2","","54","","","","36","","10","","24.1","","101.22","","","","","","Clear"
"-71.39","46.79","QUEBEC INTL A","7016293","2021-05-29 02:00","2021","05","29","02:00","","3.6","","-2.8","","63","","","","36","","8","","24.1","","101.23","","","","","","NA"
"-71.39","46.79","QUEBEC INTL A","7016293","2021-05-29 03:00","2021","05","29","03:00","","2.4","","-2.1","","72","","","","36","","10","","24.1","","101.27","","","","","","NA"
"-71.39","46.79","QUEBEC INTL A","7016293","2021-05-29 04:00","2021","05","29","04:00","","3.0","","-3.2","","64","","","","36","","9","","24.1","","101.30","","","","","","Clear"
"-71.39","46.79","QUEBEC INTL A","7016293","2021-05-29 05:00","2021","05","29","05:00","","3.6","","-2.5","","65","","","","2","","3","","48.3","","101.37","","","","","","NA"
"-71.39","46.79","QUEBEC INTL A","7016293","2021-05-29 06:00","2021","05","29","06:00","","7.3","","-1.6","","53","","","","5","","26","","48.3","","101.42","","","","","","NA"
"-71.39","46.79","QUEBEC INTL A","7016293","2021-05-29 07:00","2021","05","29","07:00","","8.6","","0.4","","56","","","","6","","26","","48.3","","101.46","","","","","","Mainly Clear"
"-71.39","46.79","QUEBEC INTL A","7016293","2021-05-29 08:00","2021","05","29","08:00","","9.2","","-1.1","","49","","","","6","","25","","48.3","","101.50","","","","","","NA"
"-71.39","46.79","QUEBEC INTL A","7016293","2021-05-29 09:00","2021","05","29","09:00","","10.6","","0.0","","48","","","","8","","22","","48.3","","101.52","","","","","","NA"
"-71.39","46.79","QUEBEC INTL A","7016293","2021-05-29 10:00","2021","05","29","10:00","","10.9","","-2.5","","39","","","","9","","16","","48.3","","101.50","","","","","","Mainly Clear"
"-71.39","46.79","QUEBEC INTL A","7016293","2021-05-29 11:00","2021","05","29","11:00","","12.3","","-2.1","","36","","","","12","","10","","48.3","","101.46","","","","","","NA"
"-71.39","46.79","QUEBEC INTL A","7016293","2021-05-29 12:00","2021","05","29","12:00","","13.0","","-2.7","","33","","","","8","","9","","48.3","","101.43","","","","","","NA"
"-71.39","46.79","QUEBEC INTL A","7016293","2021-05-29 13:00","2021","05","29","13:00","","14.1","","-3.4","","30","","","","5","","7","","48.3","","101.42","","","","","","Mainly Clear"
"-71.39","46.79","QUEBEC INTL A","7016293","2021-05-29 14:00","2021","05","29","14:00","","14.5","","-3.6","","28","","","","6","","18","","48.3","","101.39","","","","","","NA"
"-71.39","46.79","QUEBEC INTL A","7016293","2021-05-29 15:00","2021","05","29","15:00","","14.9","","-1.7","","32","","","","6","","16","","48.3","","101.40","","","","","","NA"
"-71.39","46.79","QUEBEC INTL A","7016293","2021-05-29 16:00","2021","05","29","16:00","","15.4","","-2.6","","29","","","","8","","16","","48.3","","101.43","","","","","","Mainly Clear"
"-71.39","46.79","QUEBEC INTL A","7016293","2021-05-29 17:00","2021","05","29","17:00","","14.9","","-2.6","","30","","","","9","","24","","48.3","","101.45","","","","","","NA"
"-71.39","46.79","QUEBEC INTL A","7016293","2021-05-29 18:00","2021","05","29","18:00","","14.0","","-2.6","","32","","","","7","","22","","48.3","","101.50","","","","","","NA"
"-71.39","46.79","QUEBEC INTL A","7016293","2021-05-29 19:00","2021","05","29","19:00","","12.6","","-4.4","","30","","","","7","","21","","48.3","","101.54","","","","","","Clear"
"-71.39","46.79","QUEBEC INTL A","7016293","2021-05-29 20:00","2021","05","29","20:00","","10.7","","-4.1","","35","","","","3","","13","","24.1","","101.61","","","","","","NA"
"-71.39","46.79","QUEBEC INTL A","7016293","2021-05-29 21:00","2021","05","29","21:00","","8.9","","-2.3","","45","","","","1","","5","","24.1","","101.64","","","","","","NA"
"-71.39","46.79","QUEBEC INTL A","7016293","2021-05-29 22:00","2021","05","29","22:00","","6.8","","-1.9","","54","","","","2","","6","","24.1","","101.69","","","","","","Clear"
"-71.39","46.79","QUEBEC INTL A","7016293","2021-05-29 23:00","2021","05","29","23:00","","7.1","","-2.0","","52","","","","36","","8","","24.1","","101.72","","","","","","NA"
"-71.39","46.79","QUEBEC INTL A","7016293","2021-05-30 00:00","2021","05","30","00:00","","6.1","","-2.4","","55","","","","6","","3","","24.1","","101.74","","","","","","NA"
"-71.39","46.79","QUEBEC INTL A","7016293","2021-05-30 01:00","2021","05","30","01:00","","6.2","","-2.1","","55","","","","2","","7","","24.1","","101.79","","","","","","Mainly Clear"
"-71.39","46.79","QUEBEC INTL A","7016293","2021-05-30 02:00","2021","05","30","02:00","","5.1","","-1.3","","63","","","","1","","8","","24.1","","101.83","","","","","","NA"
"-71.39","46.79","QUEBEC INTL A","7016293","2021-05-30 03:00","2021","05","30","03:00","","4.2","","-0.6","","71","","","","1","","5","","24.1","","101.89","","","","","","NA"
"-71.39","46.79","QUEBEC INTL A","7016293","2021-05-30 04:00","2021","05","30","04:00","","4.5","","-1.0","","67","","","","2","","8","","48.3","","101.91","","","","","","Clear"
"-71.39","46.79","QUEBEC INTL A","7016293","2021-05-30 05:00","2021","05","30","05:00","","5.2","","-0.8","","65","","","","2","","7","","48.3","","101.98","","","","","","NA"
"-71.39","46.79","QUEBEC INTL A","7016293","2021-05-30 06:00","2021","05","30","06:00","","8.4","","0.6","","58","","","","5","","9","","48.3","","102.04","","","","","","NA"
"-71.39","46.79","QUEBEC INTL A","7016293","2021-05-30 07:00","2021","05","30","07:00","","10.9","","2.0","","54","","","","6","","17","","48.3","","102.04","","","","","","Mainly Clear"
"-71.39","46.79","QUEBEC INTL A","7016293","2021-05-30 08:00","2021","05","30","08:00","","12.4","","4.5","","58","","","","8","","13","","48.3","","102.10","","","","","","NA"
"-71.39","46.79","QUEBEC INTL A","7016293","2021-05-30 09:00","2021","05","30","09:00","","14.2","","1.7","","43","","","","6","","17","","48.3","","102.06","","","","","","NA"
"-71.39","46.79","QUEBEC INTL A","7016293","2021-05-30 10:00","2021","05","30","10:00","","15.5","","2.5","","41","","","","8","","18","","48.3","","102.01","","","","","","Mostly Cloudy"
"-71.39","46.79","QUEBEC INTL A","7016293","2021-05-30 11:00","2021","05","30","11:00","","16.7","","1.1","","35","","","","5","","17","","48.3","","101.97","","","","","","NA"
"-71.39","46.79","QUEBEC INTL A","7016293","2021-05-30 12:00","2021","05","30","12:00","","17.0","","0.2","","32","","","","8","","18","","48.3","","101.91","","","","","","NA"
"-71.39","46.79","QUEBEC INTL A","7016293","2021-05-30 13:00","2021","05","30","13:00","","18.3","","3.2","","36","","","","9","","16","","48.3","","101.81","","","","","","Mostly Cloudy"
"-71.39","46.79","QUEBEC INTL A","7016293","2021-05-30 14:00","2021","05","30","14:00","","18.4","","1.3","","31","","","","8","","14","","48.3","","101.78","","","","","","NA"
"-71.39","46.79","QUEBEC INTL A","7016293","2021-05-30 15:00","2021","05","30","15:00","","17.8","","2.6","","36","","","","7","","19","","48.3","","101.72","","","","","","NA"
"-71.39","46.79","QUEBEC INTL A","7016293","2021-05-30 16:00","2021","05","30","16:00","","17.2","","3.8","","40","","","","7","","17","","48.3","","101.70","","","","","","Cloudy"
"-71.39","46.79","QUEBEC INTL A","7016293","2021-05-30 17:00","2021","05","30","17:00","","16.0","","4.6","","46","","","","9","","13","","48.3","","101.70","","","","","","NA"
"-71.39","46.79","QUEBEC INTL A","7016293","2021-05-30 18:00","2021","05","30","18:00","","14.9","","4.9","","51","","","","7","","17","","48.3","","101.72","","","","","","NA"
"-71.39","46.79","QUEBEC INTL A","7016293","2021-05-30 19:00","2021","05","30","19:00","","12.7","","7.9","","73","","","","7","","15","","24.1","","101.77","","","","","","Cloudy"
"-71.39","46.79","QUEBEC INTL A","7016293","2021-05-30 20:00","2021","05","30","20:00","","12.3","","8.1","","75","","","","7","","12","","24.1","","101.77","","","","","","Rain"
"-71.39","46.79","QUEBEC INTL A","7016293","2021-05-30 21:00","2021","05","30","21:00","","11.7","","8.5","","81","","","","2","","6","","24.1","","101.74","","","","","","Rain"
"-71.39","46.79","QUEBEC INTL A","7016293","2021-05-30 22:00","2021","05","30","22:00","","11.2","","8.5","","83","","","","17","","10","","24.1","","101.76","","","","","","Rain"
"-71.39","46.79","QUEBEC INTL A","7016293","2021-05-30 23:00","2021","05","30","23:00","","10.7","","7.6","","81","","","","13","","7","","24.1","","101.75","","","","","","Rain"
"-71.39","46.79","QUEBEC INTL A","7016293","2021-05-31 00:00","2021","05","31","00:00","","9.8","","8.0","","89","","","","11","","8","","24.1","","101.68","","","","","","Rain"
"-71.39","46.79","QUEBEC INTL A","7016293","2021-05-31 01:00","2021","05","31","01:00","","9.8","","8.4","","91","","","","6","","8","","24.1","","101.61","","","","","","Rain"
"-71.39","46.79","QUEBEC INTL A","7016293","2021-05-31 02:00","2021","05","31","02:00","","9.4","","8.3","","93","","","","6","","14","","16.1","","101.54","","","","","","Rain"
"-71.39","46.79","QUEBEC INTL A","7016293","2021-05-31 03:00","2021","05","31","03:00","","9.3","","8.6","","95","","","","6","","14","","9.7","","101.53","","","","","","Rain,Fog"
"-71.39","46.79","QUEBEC INTL A","7016293","2021-05-31 04:00","2021","05","31","04:00","","9.3","","8.9","","97","","","","5","","14","","8.1","","101.51","","","","","","Drizzle,Fog"
"-71.39","46.79","QUEBEC INTL A","7016293","2021-05-31 05:00","2021","05","31","05:00","","9.4","","8.9","","97","","","","8","","12","","8.1","","101.51","","","","","","Drizzle,Fog"
"-71.39","46.79","QUEBEC INTL A","7016293","2021-05-31 06:00","2021","05","31","06:00","","9.7","","8.9","","95","","","","6","","13","","11.3","","101.51","","","","","","Drizzle"
"-71.39","46.79","QUEBEC INTL A","7016293","2021-05-31 07:00","2021","05","31","07:00","","10.1","","8.9","","92","","","","5","","12","","16.1","","101.52","","","","","","Drizzle"
"-71.39","46.79","QUEBEC INTL A","7016293","2021-05-31 08:00","2021","05","31","08:00","","10.2","","8.7","","90","","","","5","","14","","12.9","","101.51","","","","","","Drizzle"
"-71.39","46.79","QUEBEC INTL A","7016293","2021-05-31 09:00","2021","05","31","09:00","","10.9","","9.2","","90","","","","8","","11","","24.1","","101.48","","","","","","NA"
"-71.39","46.79","QUEBEC INTL A","7016293","2021-05-31 10:00","2021","05","31","10:00","","11.4","","8.9","","84","","","","11","","13","","32.2","","101.42","","","","","","Cloudy"
"-71.39","46.79","QUEBEC INTL A","7016293","2021-05-31 11:00","2021","05","31","11:00","","11.9","","8.9","","82","","","","7","","13","","32.2","","101.37","","","","","","NA"
"-71.39","46.79","QUEBEC INTL A","7016293","2021-05-31 12:00","2021","05","31","12:00","","10.9","","9.1","","88","","","","8","","16","","24.1","","101.33","","","","","","Drizzle"
"-71.39","46.79","QUEBEC INTL A","7016293","2021-05-31 13:00","2021","05","31","13:00","","10.9","","9.3","","90","","","","8","","17","","24.1","","101.30","","","","","","Drizzle"
"-71.39","46.79","QUEBEC INTL A","7016293","2021-05-31 14:00","2021","05","31","14:00","","10.8","","9.5","","91","","","","8","","17","","24.1","","101.27","","","","","","Drizzle"
"-71.39","46.79","QUEBEC INTL A","7016293","2021-05-31 15:00","2021","05","31","15:00","","10.8","","8.7","","87","","","","8","","17","","32.2","","101.26","","","","","","Drizzle"
"-71.39","46.79","QUEBEC INTL A","7016293","2021-05-31 16:00","2021","05","31","16:00","","10.4","","8.2","","86","","","","7","","14","","32.2","","101.25","","","","","","Cloudy"
"-71.39","46.79","QUEBEC INTL A","7016293","2021-05-31 17:00","2021","05","31","17:00","","10.2","","8.0","","87","","","","7","","16","","32.2","","101.21","","","","","","NA"
"-71.39","46.79","QUEBEC INTL A","7016293","2021-05-31 18:00","2021","05","31","18:00","","10.0","","7.8","","86","","","","7","","21","","32.2","","101.18","","","","","","NA"
"-71.39","46.79","QUEBEC INTL A","7016293","2021-05-31 19:00","2021","05","31","19:00","","9.9","","7.2","","83","","","","7","","18","","32.2","","101.16","","","","","","Cloudy"
"-71.39","46.79","QUEBEC INTL A","7016293","2021-05-31 20:00","2021","05","31","20:00","","9.7","","7.3","","85","","","","7","","10","","24.1","","101.19","","","","","","NA"
"-71.39","46.79","QUEBEC INTL A","7016293","2021-05-31 21:00","2021","05","31","21:00","","9.7","","7.6","","87","","","","11","","4","","24.1","","101.22","","","","","","NA"
"-71.39","46.79","QUEBEC INTL A","7016293","2021-05-31 22:00","2021","05","31","22:00","","9.3","","8.4","","94","","","","","","0","","24.1","","101.18","","","","","","Cloudy"
"-71.39","46.79","QUEBEC INTL A","7016293","2021-05-31 23:00","2021","05","31","23:00","","9.2","","8.0","","92","","","","","","0","","24.1","","101.09","","","","","","NA"
