"Longitude (x)","Latitude (y)","Station Name","Climate ID","Date/Time (LST)","Year","Month","Day","Time (LST)","Flag","Temp (°C)","Temp Flag","Dew Point Temp (°C)","Dew Point Temp Flag","Rel Hum (%)","Rel Hum Flag","Precip. Amount (mm)","Precip. Amount Flag","Wind Dir (10s deg)","Wind Dir Flag","Wind Spd (km/h)","Wind Spd Flag","Visibility (km)","Visibility Flag","Stn Press (kPa)","Stn Press Flag","Hmdx","Hmdx Flag","Wind Chill","Wind Chill Flag","Weather"
"-71.39","46.79","QUEBEC INTL A","7016293","2017-01-01 00:00","2017","01","01","00:00","","-8.7","","-10.5","","87","","","","7","","17","","3.2","","99.90","","","","-16","","Snow"
"-71.39","46.79","QUEBEC INTL A","7016293","2017-01-01 01:00","2017","01","01","01:00","","-8.3","","-10.2","","86","","","","7","","19","","3.2","","99.86","","","","-16","","Snow"
"-71.39","46.79","QUEBEC INTL A","7016293","2017-01-01 02:00","2017","01","01","02:00","","-8.0","","-10.1","","85","","","","8","","18","","3.2","","99.84","","","","-15","","Snow,Blowing Snow"
"-71.39","46.79","QUEBEC INTL A","7016293","2017-01-01 03:00","2017","01","01","03:00","","-7.8","","-9.5","","88","","","","7","","15","","1.6","","99.86","","","","-14","","Snow,Blowing Snow"
"-71.39","46.79","QUEBEC INTL A","7016293","2017-01-01 04:00","2017","01","01","04:00","","-7.6","","-9.3","","88","","","","7","","20","","1.6","","99.79","","","","-15","","Snow,Blowing Snow"
"-71.39","46.79","QUEBEC INTL A","7016293","2017-01-01 05:00","2017","01","01","05:00","","-7.5","","-9.3","","87","","","","7","","19","","2.0","","99.79","","","","-15","","Snow,Blowing Snow"
"-71.39","46.79","QUEBEC INTL A","7016293","2017-01-01 06:00","2017","01","01","06:00","","-7.3","","-9.3","","86","","","","7","","21","","4.8","","99.83","","","","-15","","Snow,Blowing Snow"
"-71.39","46.79","QUEBEC INTL A","7016293","2017-01-01 07:00","2017","01","01","07:00","","-7.1","","-9.2","","85","","","","7","","15","","4.8","","99.92","","","","-13","","Snow,Blowing Snow"
"-71.39","46.79","QUEBEC INTL A","7016293","2017-01-01 08:00","2017","01","01","08:00","","-7.2","","-9.0","","87","","","","7","","11","","2.0","","100.06","","","","-12","","Snow Showers"
"-71.39","46.79","QUEBEC INTL A","7016293","2017-01-01 09:00","2017","01","01","09:00","","-6.9","","-8.7","","87","","","","8","","10","","9.7","","100.20","","","","-12","","Snow Showers"
"-71.39","46.79","QUEBEC INTL A","7016293","2017-01-01 10:00","2017","01","01","10:00","","-6.6","","-8.7","","85","","","","11","","5","","24.1","","100.37","","","","-9","","Snow"
"-71.39","46.79","QUEBEC INTL A","7016293","2017-01-01 11:00","2017","01","01","11:00","","-6.5","","-8.5","","86","","","","28","","7","","4.8","","100.47","","","","-10","","Snow"
"-71.39","46.79","QUEBEC INTL A","7016293","2017-01-01 12:00","2017","01","01","12:00","","-6.0","","-8.1","","85","","","","25","","17","","16.1","","100.53","","","","-12","","Snow"
"-71.39","46.79","QUEBEC INTL A","7016293","2017-01-01 13:00","2017","01","01","13:00","","-4.5","","-7.9","","77","","","","25","","25","","32.2","","100.61","","","","-12","","Mostly Cloudy"
"-71.39","46.79","QUEBEC INTL A","7016293","2017-01-01 14:00","2017","01","01","14:00","","-4.5","","-9.2","","70","","","","26","","32","","48.3","","100.73","","","","-13","","NA"
"-71.39","46.79","QUEBEC INTL A","7016293","2017-01-01 15:00","2017","01","01","15:00","","-5.2","","-9.1","","74","","","","27","","32","","40.2","","100.95","","","","-13","","Blowing Snow"
"-71.39","46.79","QUEBEC INTL A","7016293","2017-01-01 16:00","2017","01","01","16:00","","-4.8","","-9.1","","72","","","","28","","25","","24.1","","101.10","","","","-12","","Snow,Blowing Snow"
"-71.39","46.79","QUEBEC INTL A","7016293","2017-01-01 17:00","2017","01","01","17:00","","-5.1","","-9.6","","71","","","","29","","16","","24.1","","101.29","","","","-11","","NA"
"-71.39","46.79","QUEBEC INTL A","7016293","2017-01-01 18:00","2017","01","01","18:00","","-5.6","","-10.6","","68","","","","29","","25","","24.1","","101.44","","","","-13","","NA"
"-71.39","46.79","QUEBEC INTL A","7016293","2017-01-01 19:00","2017","01","01","19:00","","-6.2","","-11.2","","68","","","","29","","19","","24.1","","101.57","","","","-13","","Mainly Clear"
"-71.39","46.79","QUEBEC INTL A","7016293","2017-01-01 20:00","2017","01","01","20:00","","-6.4","","-11.8","","66","","","","29","","24","","24.1","","101.68","","","","-14","","NA"
"-71.39","46.79","QUEBEC INTL A","7016293","2017-01-01 21:00","2017","01","01","21:00","","-6.4","","-12.0","","65","","","","29","","19","","24.1","","101.81","","","","-13","","NA"
"-71.39","46.79","QUEBEC INTL A","7016293","2017-01-01 22:00","2017","01","01","22:00","","-9.0","","-12.0","","79","","","","12","","8","","24.1","","101.88","","","","-13","","Mainly Clear"
"-71.39","46.79","QUEBEC INTL A","7016293","2017-01-01 23:00","2017","01","01","23:00","","-10.3","","-12.7","","83","","","","","","0","","24.1","","101.93","","","","","","NA"
"-71.39","46.79","QUEBEC INTL A","7016293","2017-01-02 00:00","2017","01","02","00:00","","-9.9","","-12.3","","83","","","","35","","3","","24.1","","101.99","","","","-12","","NA"
"-71.39","46.79","QUEBEC INTL A","7016293","2017-01-02 01:00","2017","01","02","01:00","","-9.8","","-12.0","","84","","","","2","","6","","24.1","","102.01","","","","-13","","Cloudy"
"-71.39","46.79","QUEBEC INTL A","7016293","2017-01-02 02:00","2017","01","02","02:00","","-9.6","","-12.1","","82","","","","","","0","","24.1","","102.07","","","","","","NA"
"-71.39","46.79","QUEBEC INTL A","7016293","2017-01-02 03:00","2017","01","02","03:00","","-9.3","","-11.7","","83","","","","","","0","","16.1","","102.10","","","","","","Snow Showers"
"-71.39","46.79","QUEBEC INTL A","7016293","2017-01-02 04:00","2017","01","02","04:00","","-9.2","","-11.9","","81","","","","","","0","","24.1","","102.09","","","","","","Cloudy"
"-71.39","46.79","QUEBEC INTL A","7016293","2017-01-02 05:00","2017","01","02","05:00","","-9.1","","-11.6","","82","","","","36","","4","","24.1","","102.14","","","","-11","","NA"
"-71.39","46.79","QUEBEC INTL A","7016293","2017-01-02 06:00","2017","01","02","06:00","","-8.9","","-11.3","","83","","","","15","","6","","24.1","","102.22","","","","-12","","NA"
"-71.39","46.79","QUEBEC INTL A","7016293","2017-01-02 07:00","2017","01","02","07:00","","-8.1","","-10.2","","85","","","","","","0","","16.1","","102.30","","","","","","Cloudy"
"-71.39","46.79","QUEBEC INTL A","7016293","2017-01-02 08:00","2017","01","02","08:00","","-8.3","","-10.2","","86","","","","","","0","","16.1","","102.34","","","","","","NA"
"-71.39","46.79","QUEBEC INTL A","7016293","2017-01-02 09:00","2017","01","02","09:00","","-7.7","","-9.5","","87","","","","","","0","","24.1","","102.41","","","","","","NA"
"-71.39","46.79","QUEBEC INTL A","7016293","2017-01-02 10:00","2017","01","02","10:00","","-7.0","","-9.0","","86","","","","","","0","","24.1","","102.49","","","","","","Cloudy"
"-71.39","46.79","QUEBEC INTL A","7016293","2017-01-02 11:00","2017","01","02","11:00","","-6.2","","-8.6","","83","","","","31","","3","","16.1","","102.46","","","","-8","","NA"
"-71.39","46.79","QUEBEC INTL A","7016293","2017-01-02 12:00","2017","01","02","12:00","","-5.0","","-8.4","","77","","","","","","0","","16.1","","102.44","","","","","","NA"
"-71.39","46.79","QUEBEC INTL A","7016293","2017-01-02 13:00","2017","01","02","13:00","","-4.3","","-7.9","","76","","","","","","0","","16.1","","102.35","","","","","","Cloudy"
"-71.39","46.79","QUEBEC INTL A","7016293","2017-01-02 14:00","2017","01","02","14:00","","-4.2","","-7.8","","76","","","","27","","5","","24.1","","102.36","","","","-6","","NA"
"-71.39","46.79","QUEBEC INTL A","7016293","2017-01-02 15:00","2017","01","02","15:00","","-5.2","","-8.3","","79","","","","28","","5","","24.1","","102.38","","","","-7","","NA"
"-71.39","46.79","QUEBEC INTL A","7016293","2017-01-02 16:00","2017","01","02","16:00","","-6.3","","-8.7","","83","","","","26","","5","","24.1","","102.41","","","","-9","","Mostly Cloudy"
"-71.39","46.79","QUEBEC INTL A","7016293","2017-01-02 17:00","2017","01","02","17:00","","-7.3","","-9.1","","87","","","","31","","4","","16.1","","102.40","","","","-9","","NA"
"-71.39","46.79","QUEBEC INTL A","7016293","2017-01-02 18:00","2017","01","02","18:00","","-8.6","","-9.8","","91","","","","31","","4","","24.1","","102.40","","","","-11","","NA"
"-71.39","46.79","QUEBEC INTL A","7016293","2017-01-02 19:00","2017","01","02","19:00","","-9.6","","-10.8","","91","","","","5","","4","","16.1","","102.36","","","","-12","","Mainly Clear"
"-71.39","46.79","QUEBEC INTL A","7016293","2017-01-02 20:00","2017","01","02","20:00","","-10.0","","-11.3","","90","","","","36","","4","","16.1","","102.32","","","","-12","","NA"
"-71.39","46.79","QUEBEC INTL A","7016293","2017-01-02 21:00","2017","01","02","21:00","","-11.2","","-12.7","","89","","","","36","","9","","16.1","","102.26","","","","-16","","NA"
"-71.39","46.79","QUEBEC INTL A","7016293","2017-01-02 22:00","2017","01","02","22:00","","-10.0","","-11.5","","89","","","","4","","10","","24.1","","102.21","","","","-15","","Mainly Clear"
"-71.39","46.79","QUEBEC INTL A","7016293","2017-01-02 23:00","2017","01","02","23:00","","-10.4","","-11.9","","89","","","","4","","7","","24.1","","102.24","","","","-14","","NA"
"-71.39","46.79","QUEBEC INTL A","7016293","2017-01-03 00:00","2017","01","03","00:00","","-10.8","","-12.4","","88","","","","3","","8","","12.9","","102.07","","","","-15","","NA"
"-71.39","46.79","QUEBEC INTL A","7016293","2017-01-03 01:00","2017","01","03","01:00","","-5.3","","-6.3","","93","","","","7","","19","","12.9","","102.09","","","","-12","","Mostly Cloudy"
"-71.39","46.79","QUEBEC INTL A","7016293","2017-01-03 02:00","2017","01","03","02:00","","-5.6","","-6.7","","92","","","","7","","19","","12.9","","102.17","","","","-12","","NA"
"-71.39","46.79","QUEBEC INTL A","7016293","2017-01-03 03:00","2017","01","03","03:00","","-5.5","","-8.3","","81","","","","7","","26","","16.1","","102.11","","","","-13","","NA"
"-71.39","46.79","QUEBEC INTL A","7016293","2017-01-03 04:00","2017","01","03","04:00","","-5.8","","-8.2","","83","","","","6","","26","","16.1","","101.96","","","","-14","","Cloudy"
"-71.39","46.79","QUEBEC INTL A","7016293","2017-01-03 05:00","2017","01","03","05:00","","-6.0","","-8.8","","81","","","","6","","28","","16.1","","101.87","","","","-14","","NA"
"-71.39","46.79","QUEBEC INTL A","7016293","2017-01-03 06:00","2017","01","03","06:00","","-6.2","","-9.1","","80","","","","7","","28","","24.1","","101.83","","","","-14","","NA"
"-71.39","46.79","QUEBEC INTL A","7016293","2017-01-03 07:00","2017","01","03","07:00","","-6.1","","-9.3","","78","","","","6","","28","","24.1","","101.83","","","","-14","","Mostly Cloudy"
"-71.39","46.79","QUEBEC INTL A","7016293","2017-01-03 08:00","2017","01","03","08:00","","-6.0","","-9.1","","79","","","","7","","32","","32.2","","101.73","","","","-15","","NA"
"-71.39","46.79","QUEBEC INTL A","7016293","2017-01-03 09:00","2017","01","03","09:00","","-5.9","","-9.0","","79","","","","7","","29","","32.2","","101.67","","","","-14","","NA"
"-71.39","46.79","QUEBEC INTL A","7016293","2017-01-03 10:00","2017","01","03","10:00","","-5.9","","-9.0","","79","","","","7","","32","","32.2","","101.58","","","","-14","","Mostly Cloudy"
"-71.39","46.79","QUEBEC INTL A","7016293","2017-01-03 11:00","2017","01","03","11:00","","-5.8","","-9.0","","78","","","","7","","34","","8.1","","101.43","","","","-15","","Snow"
"-71.39","46.79","QUEBEC INTL A","7016293","2017-01-03 12:00","2017","01","03","12:00","","-5.8","","-8.6","","81","","","","7","","32","","4.0","","101.27","","","","-14","","Snow"
"-71.39","46.79","QUEBEC INTL A","7016293","2017-01-03 13:00","2017","01","03","13:00","","-5.5","","-8.1","","82","","","","7","","27","","3.2","","101.14","","","","-13","","Snow"
"-71.39","46.79","QUEBEC INTL A","7016293","2017-01-03 14:00","2017","01","03","14:00","","-5.4","","-7.7","","84","","","","6","","27","","3.2","","101.04","","","","-13","","Snow"
"-71.39","46.79","QUEBEC INTL A","7016293","2017-01-03 15:00","2017","01","03","15:00","","-5.4","","-7.2","","87","","","","7","","30","","1.6","","100.99","","","","-14","","Snow,Blowing Snow"
"-71.39","46.79","QUEBEC INTL A","7016293","2017-01-03 16:00","2017","01","03","16:00","","-5.2","","-6.7","","89","","","","7","","28","","2.0","","100.89","","","","-13","","Snow,Blowing Snow"
"-71.39","46.79","QUEBEC INTL A","7016293","2017-01-03 17:00","2017","01","03","17:00","","-5.0","","-6.5","","89","","","","7","","32","","3.2","","100.76","","","","-13","","Snow,Blowing Snow"
"-71.39","46.79","QUEBEC INTL A","7016293","2017-01-03 18:00","2017","01","03","18:00","","-4.8","","-6.3","","89","","","","7","","31","","1.6","","100.64","","","","-13","","Snow,Blowing Snow"
"-71.39","46.79","QUEBEC INTL A","7016293","2017-01-03 19:00","2017","01","03","19:00","","-4.3","","-5.9","","89","","","","7","","30","","2.0","","100.53","","","","-12","","Snow,Blowing Snow"
"-71.39","46.79","QUEBEC INTL A","7016293","2017-01-03 20:00","2017","01","03","20:00","","-4.2","","-5.8","","89","","","","7","","34","","2.0","","100.41","","","","-12","","Snow,Ice Pellets,Blowing Snow"
"-71.39","46.79","QUEBEC INTL A","7016293","2017-01-03 21:00","2017","01","03","21:00","","-4.1","","-5.7","","89","","","","6","","31","","3.2","","100.26","","","","-12","","Snow,Ice Pellets,Blowing Snow"
"-71.39","46.79","QUEBEC INTL A","7016293","2017-01-03 22:00","2017","01","03","22:00","","-4.0","","-5.7","","88","","","","6","","31","","2.0","","100.08","","","","-12","","Snow,Ice Pellets"
"-71.39","46.79","QUEBEC INTL A","7016293","2017-01-03 23:00","2017","01","03","23:00","","-4.1","","-6.1","","86","","","","7","","34","","4.8","","99.88","","","","-12","","Snow,Ice Pellets,Blowing Snow"
"-71.39","46.79","QUEBEC INTL A","7016293","2017-01-04 00:00","2017","01","04","00:00","","-4.2","","-6.2","","86","","","","7","","38","","4.8","","99.66","","","","-13","","Freezing Rain,Snow,Ice Pellets,Blowing Snow"
"-71.39","46.79","QUEBEC INTL A","7016293","2017-01-04 01:00","2017","01","04","01:00","","-4.5","","-6.5","","86","","","","7","","36","","2.8","","99.47","","","","-13","","Snow,Ice Pellets,Blowing Snow"
"-71.39","46.79","QUEBEC INTL A","7016293","2017-01-04 02:00","2017","01","04","02:00","","-4.9","","-6.6","","88","","","","7","","35","","1.6","","99.43","","","","-13","","Snow,Blowing Snow"
"-71.39","46.79","QUEBEC INTL A","7016293","2017-01-04 03:00","2017","01","04","03:00","","-5.2","","-6.7","","89","","","","7","","28","","1.2","","99.31","","","","-13","","Snow,Blowing Snow"
"-71.39","46.79","QUEBEC INTL A","7016293","2017-01-04 04:00","2017","01","04","04:00","","-5.3","","-6.8","","89","","","","7","","31","","1.2","","99.14","","","","-14","","Snow,Blowing Snow"
"-71.39","46.79","QUEBEC INTL A","7016293","2017-01-04 05:00","2017","01","04","05:00","","-5.5","","-7.0","","89","","","","7","","26","","1.0","","99.01","","","","-13","","Snow,Blowing Snow"
"-71.39","46.79","QUEBEC INTL A","7016293","2017-01-04 06:00","2017","01","04","06:00","","-5.4","","-6.9","","89","","","","6","","27","","1.6","","98.88","","","","-13","","Snow,Blowing Snow"
"-71.39","46.79","QUEBEC INTL A","7016293","2017-01-04 07:00","2017","01","04","07:00","","-5.2","","-6.7","","89","","","","7","","32","","1.6","","98.77","","","","-13","","Snow,Blowing Snow"
"-71.39","46.79","QUEBEC INTL A","7016293","2017-01-04 08:00","2017","01","04","08:00","","-4.7","","-6.1","","90","","","","7","","22","","1.6","","98.68","","","","-12","","Snow,Blowing Snow"
"-71.39","46.79","QUEBEC INTL A","7016293","2017-01-04 09:00","2017","01","04","09:00","","-4.4","","-6.1","","88","","","","7","","26","","2.4","","98.59","","","","-12","","Snow,Blowing Snow"
"-71.39","46.79","QUEBEC INTL A","7016293","2017-01-04 10:00","2017","01","04","10:00","","-4.0","","-5.9","","87","","","","7","","15","","4.8","","98.54","","","","-9","","Snow,Blowing Snow"
"-71.39","46.79","QUEBEC INTL A","7016293","2017-01-04 11:00","2017","01","04","11:00","","-3.3","","-5.6","","84","","","","9","","20","","4.8","","98.42","","","","-9","","Snow"
"-71.39","46.79","QUEBEC INTL A","7016293","2017-01-04 12:00","2017","01","04","12:00","","-3.1","","-5.6","","83","","","","8","","21","","12.9","","98.30","","","","-9","","NA"
"-71.39","46.79","QUEBEC INTL A","7016293","2017-01-04 13:00","2017","01","04","13:00","","-3.0","","-4.9","","87","","","","8","","10","","2.4","","98.25","","","","-7","","Snow"
"-71.39","46.79","QUEBEC INTL A","7016293","2017-01-04 14:00","2017","01","04","14:00","","-3.2","","-4.8","","89","","","","9","","14","","2.0","","98.22","","","","-8","","Snow"
"-71.39","46.79","QUEBEC INTL A","7016293","2017-01-04 15:00","2017","01","04","15:00","","-3.2","","-4.5","","91","","","","9","","13","","2.4","","98.15","","","","-8","","Snow"
"-71.39","46.79","QUEBEC INTL A","7016293","2017-01-04 16:00","2017","01","04","16:00","","-3.2","","-4.2","","93","","","","12","","7","","1.6","","98.15","","","","-6","","Snow"
"-71.39","46.79","QUEBEC INTL A","7016293","2017-01-04 17:00","2017","01","04","17:00","","-3.4","","-4.4","","93","","","","14","","5","","1.6","","98.20","","","","-5","","Snow"
"-71.39","46.79","QUEBEC INTL A","7016293","2017-01-04 18:00","2017","01","04","18:00","","-3.5","","-4.3","","94","","","","","","0","","8.1","","98.23","","","","","","Snow,Fog"
"-71.39","46.79","QUEBEC INTL A","7016293","2017-01-04 19:00","2017","01","04","19:00","","-3.5","","-4.3","","94","","","","4","","4","","9.7","","98.20","","","","-5","","Fog"
"-71.39","46.79","QUEBEC INTL A","7016293","2017-01-04 20:00","2017","01","04","20:00","","-3.0","","-4.0","","93","","","","11","","11","","9.7","","98.17","","","","-7","","Fog"
"-71.39","46.79","QUEBEC INTL A","7016293","2017-01-04 21:00","2017","01","04","21:00","","-2.8","","-3.6","","94","","","","31","","10","","6.4","","98.13","","","","-7","","Snow Pellets"
"-71.39","46.79","QUEBEC INTL A","7016293","2017-01-04 22:00","2017","01","04","22:00","","-1.8","","-2.9","","92","","","","25","","30","","4.8","","98.18","","","","-9","","Snow Showers,Fog"
"-71.39","46.79","QUEBEC INTL A","7016293","2017-01-04 23:00","2017","01","04","23:00","","-2.2","","-3.2","","93","","","","23","","26","","0.4","","98.28","","","","-9","","Heavy Snow Showers,Fog,Blowing Snow"
"-71.39","46.79","QUEBEC INTL A","7016293","2017-01-05 00:00","2017","01","05","00:00","","-3.7","","-6.2","","83","","","","24","","45","","9.7","","98.33","","","","-13","","Snow Showers,Blowing Snow"
"-71.39","46.79","QUEBEC INTL A","7016293","2017-01-05 01:00","2017","01","05","01:00","","-4.8","","-7.3","","83","","","","24","","39","","24.1","","98.38","","","","-14","","Blowing Snow"
"-71.39","46.79","QUEBEC INTL A","7016293","2017-01-05 02:00","2017","01","05","02:00","","-5.7","","-8.6","","80","","","","25","","35","","24.1","","98.46","","","","-14","","Blowing Snow"
"-71.39","46.79","QUEBEC INTL A","7016293","2017-01-05 03:00","2017","01","05","03:00","","-6.5","","-9.6","","79","","","","24","","37","","24.1","","98.52","","","","-16","","Blowing Snow"
"-71.39","46.79","QUEBEC INTL A","7016293","2017-01-05 04:00","2017","01","05","04:00","","-7.3","","-10.5","","78","","","","24","","37","","24.1","","98.51","","","","-17","","Blowing Snow"
"-71.39","46.79","QUEBEC INTL A","7016293","2017-01-05 05:00","2017","01","05","05:00","","-7.0","","-10.4","","77","","","","23","","45","","24.1","","98.53","","","","-17","","Blowing Snow"
"-71.39","46.79","QUEBEC INTL A","7016293","2017-01-05 06:00","2017","01","05","06:00","","-7.4","","-10.6","","78","","","","24","","46","","12.9","","98.56","","","","-18","","Snow Showers,Blowing Snow"
"-71.39","46.79","QUEBEC INTL A","7016293","2017-01-05 07:00","2017","01","05","07:00","","-7.6","","-10.5","","80","","","","24","","52","","12.9","","98.61","","","","-19","","Snow Showers,Blowing Snow"
"-71.39","46.79","QUEBEC INTL A","7016293","2017-01-05 08:00","2017","01","05","08:00","","-8.0","","-10.1","","85","","","","23","","49","","1.6","","98.69","","","","-19","","Snow Showers,Blowing Snow"
"-71.39","46.79","QUEBEC INTL A","7016293","2017-01-05 09:00","2017","01","05","09:00","","-11.8","","-15.6","","74","","","","27","","41","","2.8","","99.04","","","","-23","","Snow Showers,Blowing Snow"
"-71.39","46.79","QUEBEC INTL A","7016293","2017-01-05 10:00","2017","01","05","10:00","","-12.8","","-18.5","","63","","","","27","","33","","32.2","","99.24","","","","-24","","Blowing Snow"
"-71.39","46.79","QUEBEC INTL A","7016293","2017-01-05 11:00","2017","01","05","11:00","","-13.5","","-19.7","","60","","","","27","","49","","40.2","","99.32","","","","-26","","Blowing Snow"
"-71.39","46.79","QUEBEC INTL A","7016293","2017-01-05 12:00","2017","01","05","12:00","","-13.5","","-19.9","","59","","","","27","","41","","40.2","","99.36","","","","-26","","Blowing Snow"
"-71.39","46.79","QUEBEC INTL A","7016293","2017-01-05 13:00","2017","01","05","13:00","","-13.1","","-19.9","","57","","","","26","","26","","40.2","","99.47","","","","-23","","Mainly Clear"
"-71.39","46.79","QUEBEC INTL A","7016293","2017-01-05 14:00","2017","01","05","14:00","","-12.5","","-17.1","","69","","","","25","","25","","4.8","","99.53","","","","-22","","Snow Showers,Blowing Snow"
"-71.39","46.79","QUEBEC INTL A","7016293","2017-01-05 15:00","2017","01","05","15:00","","-11.5","","-15.8","","71","","","","24","","44","","12.9","","99.58","","","","-23","","Blowing Snow"
"-71.39","46.79","QUEBEC INTL A","7016293","2017-01-05 16:00","2017","01","05","16:00","","-11.1","","-15.7","","69","","","","25","","23","","32.2","","99.64","","","","-20","","Blowing Snow"
"-71.39","46.79","QUEBEC INTL A","7016293","2017-01-05 17:00","2017","01","05","17:00","","-10.9","","-15.4","","70","","","","25","","25","","16.1","","99.68","","","","-20","","Snow Showers"
"-71.39","46.79","QUEBEC INTL A","7016293","2017-01-05 18:00","2017","01","05","18:00","","-11.6","","-15.5","","73","","","","26","","17","","24.1","","99.75","","","","-19","","NA"
"-71.39","46.79","QUEBEC INTL A","7016293","2017-01-05 19:00","2017","01","05","19:00","","-12.8","","-16.5","","74","","","","27","","17","","24.1","","99.83","","","","-21","","Mostly Cloudy"
"-71.39","46.79","QUEBEC INTL A","7016293","2017-01-05 20:00","2017","01","05","20:00","","-12.6","","-16.3","","74","","","","26","","10","","24.1","","99.85","","","","-18","","NA"
"-71.39","46.79","QUEBEC INTL A","7016293","2017-01-05 21:00","2017","01","05","21:00","","-12.3","","-15.4","","78","","","","25","","14","","24.1","","99.90","","","","-19","","NA"
"-71.39","46.79","QUEBEC INTL A","7016293","2017-01-05 22:00","2017","01","05","22:00","","-12.1","","-15.4","","77","","","","26","","15","","24.1","","99.93","","","","-19","","Mostly Cloudy"
"-71.39","46.79","QUEBEC INTL A","7016293","2017-01-05 23:00","2017","01","05","23:00","","-13.2","","-16.1","","79","","","","25","","16","","24.1","","100.00","","","","-21","","NA"
"-71.39","46.79","QUEBEC INTL A","7016293","2017-01-06 00:00","2017","01","06","00:00","","-13.0","","-15.6","","81","","","","26","","16","","24.1","","99.99","","","","-21","","NA"
"-71.39","46.79","QUEBEC INTL A","7016293","2017-01-06 01:00","2017","01","06","01:00","","-14.7","","-17.3","","81","","","","24","","13","","24.1","","100.03","","","","-22","","Clear"
"-71.39","46.79","QUEBEC INTL A","7016293","2017-01-06 02:00","2017","01","06","02:00","","-14.6","","-17.2","","81","","","","23","","16","","24.1","","100.11","","","","-23","","NA"
"-71.39","46.79","QUEBEC INTL A","7016293","2017-01-06 03:00","2017","01","06","03:00","","-15.1","","-17.7","","81","","","","24","","16","","24.1","","100.17","","","","-23","","NA"
"-71.39","46.79","QUEBEC INTL A","7016293","2017-01-06 04:00","2017","01","06","04:00","","-15.5","","-18.2","","80","","","","23","","13","","24.1","","100.24","","","","-23","","Mainly Clear"
"-71.39","46.79","QUEBEC INTL A","7016293","2017-01-06 05:00","2017","01","06","05:00","","-16.3","","-19.5","","77","","","","23","","13","","24.1","","100.28","","","","-24","","NA"
"-71.39","46.79","QUEBEC INTL A","7016293","2017-01-06 06:00","2017","01","06","06:00","","-17.3","","-20.1","","79","","","","23","","17","","24.1","","100.36","","","","-26","","NA"
"-71.39","46.79","QUEBEC INTL A","7016293","2017-01-06 07:00","2017","01","06","07:00","","-18.4","","-20.9","","81","","","","26","","7","","24.1","","100.48","","","","-24","","Mainly Clear"
"-71.39","46.79","QUEBEC INTL A","7016293","2017-01-06 08:00","2017","01","06","08:00","","-19.3","","-21.9","","80","","","","29","","10","","48.3","","100.56","","","","-26","","NA"
"-71.39","46.79","QUEBEC INTL A","7016293","2017-01-06 09:00","2017","01","06","09:00","","-16.7","","-20.6","","72","","","","23","","10","","48.3","","100.68","","","","-23","","NA"
"-71.39","46.79","QUEBEC INTL A","7016293","2017-01-06 10:00","2017","01","06","10:00","","-14.3","","-19.5","","65","","","","23","","17","","48.3","","100.79","","","","-23","","Mainly Clear"
"-71.39","46.79","QUEBEC INTL A","7016293","2017-01-06 11:00","2017","01","06","11:00","","-13.2","","-19.0","","62","","","","25","","18","","48.3","","100.82","","","","-21","","NA"
"-71.39","46.79","QUEBEC INTL A","7016293","2017-01-06 12:00","2017","01","06","12:00","","-12.4","","-18.9","","59","","","","23","","21","","48.3","","100.82","","","","-21","","NA"
"-71.39","46.79","QUEBEC INTL A","7016293","2017-01-06 13:00","2017","01","06","13:00","","-11.8","","-18.9","","56","","","","23","","20","","48.3","","100.80","","","","-20","","Mainly Clear"
"-71.39","46.79","QUEBEC INTL A","7016293","2017-01-06 14:00","2017","01","06","14:00","","-11.7","","-18.0","","60","","","","24","","18","","48.3","","100.85","","","","-20","","NA"
"-71.39","46.79","QUEBEC INTL A","7016293","2017-01-06 15:00","2017","01","06","15:00","","-12.0","","-18.3","","60","","","","24","","16","","48.3","","100.90","","","","-19","","NA"
"-71.39","46.79","QUEBEC INTL A","7016293","2017-01-06 16:00","2017","01","06","16:00","","-12.6","","-18.9","","60","","","","24","","18","","48.3","","100.98","","","","-21","","Clear"
"-71.39","46.79","QUEBEC INTL A","7016293","2017-01-06 17:00","2017","01","06","17:00","","-14.3","","-19.3","","66","","","","27","","12","","24.1","","101.02","","","","-21","","NA"
"-71.39","46.79","QUEBEC INTL A","7016293","2017-01-06 18:00","2017","01","06","18:00","","-16.1","","-20.9","","67","","","","30","","3","","24.1","","101.11","","","","-18","","NA"
"-71.39","46.79","QUEBEC INTL A","7016293","2017-01-06 19:00","2017","01","06","19:00","","-17.9","","-21.5","","74","","","","31","","4","","24.1","","101.20","","","","-21","","Clear"
"-71.39","46.79","QUEBEC INTL A","7016293","2017-01-06 20:00","2017","01","06","20:00","","-17.7","","-20.5","","79","","","","","","0","","24.1","","101.23","","","","","","NA"
"-71.39","46.79","QUEBEC INTL A","7016293","2017-01-06 21:00","2017","01","06","21:00","","-17.4","","-20.5","","77","","","","2","","4","","24.1","","101.30","","","","-21","","NA"
"-71.39","46.79","QUEBEC INTL A","7016293","2017-01-06 22:00","2017","01","06","22:00","","-18.6","","-21.5","","78","","","","34","","5","","24.1","","101.37","","","","-23","","Clear"
"-71.39","46.79","QUEBEC INTL A","7016293","2017-01-06 23:00","2017","01","06","23:00","","-20.4","","-23.2","","79","","","","29","","3","","24.1","","101.42","","","","-23","","NA"
"-71.39","46.79","QUEBEC INTL A","7016293","2017-01-07 00:00","2017","01","07","00:00","","-20.2","","-23.0","","79","","","","1","","4","","24.1","","101.45","","","","-24","","NA"
"-71.39","46.79","QUEBEC INTL A","7016293","2017-01-07 01:00","2017","01","07","01:00","","-21.6","","-24.3","","79","","","","","","0","","24.1","","101.47","","","","","","Clear"
"-71.39","46.79","QUEBEC INTL A","7016293","2017-01-07 02:00","2017","01","07","02:00","","-22.7","","-25.6","","78","","","","36","","5","","24.1","","101.57","","","","-27","","NA"
"-71.39","46.79","QUEBEC INTL A","7016293","2017-01-07 03:00","2017","01","07","03:00","","-22.6","","-25.5","","78","","","","1","","3","","24.1","","101.66","","","","-25","","NA"
"-71.39","46.79","QUEBEC INTL A","7016293","2017-01-07 04:00","2017","01","07","04:00","","-21.8","","-24.8","","77","","","","4","","4","","24.1","","101.70","","","","-25","","Mainly Clear"
"-71.39","46.79","QUEBEC INTL A","7016293","2017-01-07 05:00","2017","01","07","05:00","","-21.8","","-25.3","","74","","","","","","0","","24.1","","101.75","","","","","","NA"
"-71.39","46.79","QUEBEC INTL A","7016293","2017-01-07 06:00","2017","01","07","06:00","","-20.3","","-23.7","","75","","","","1","","6","","24.1","","101.77","","","","-25","","NA"
"-71.39","46.79","QUEBEC INTL A","7016293","2017-01-07 07:00","2017","01","07","07:00","","-19.1","","-22.6","","74","","","","5","","3","","32.2","","101.81","","","","-22","","Ice Crystals"
"-71.39","46.79","QUEBEC INTL A","7016293","2017-01-07 08:00","2017","01","07","08:00","","-18.4","","-21.8","","75","","","","1","","5","","9.7","","101.85","","","","-22","","Ice Crystals"
"-71.39","46.79","QUEBEC INTL A","7016293","2017-01-07 09:00","2017","01","07","09:00","","-17.8","","-21.4","","74","","","","3","","9","","8.1","","101.90","","","","-24","","Snow"
"-71.39","46.79","QUEBEC INTL A","7016293","2017-01-07 10:00","2017","01","07","10:00","","-17.1","","-20.2","","77","","","","35","","7","","2.4","","101.88","","","","-22","","Snow"
"-71.39","46.79","QUEBEC INTL A","7016293","2017-01-07 11:00","2017","01","07","11:00","","-16.3","","-19.3","","78","","","","","","0","","24.1","","101.83","","","","","","NA"
"-71.39","46.79","QUEBEC INTL A","7016293","2017-01-07 12:00","2017","01","07","12:00","","-14.8","","-18.0","","77","","","","28","","3","","24.1","","101.79","","","","-17","","NA"
"-71.39","46.79","QUEBEC INTL A","7016293","2017-01-07 13:00","2017","01","07","13:00","","-13.3","","-16.8","","75","","","","23","","16","","48.3","","101.77","","","","-21","","Mainly Clear"
"-71.39","46.79","QUEBEC INTL A","7016293","2017-01-07 14:00","2017","01","07","14:00","","-12.7","","-17.1","","70","","","","21","","16","","48.3","","101.72","","","","-20","","NA"
"-71.39","46.79","QUEBEC INTL A","7016293","2017-01-07 15:00","2017","01","07","15:00","","-13.4","","-16.9","","75","","","","23","","18","","48.3","","101.64","","","","-22","","NA"
"-71.39","46.79","QUEBEC INTL A","7016293","2017-01-07 16:00","2017","01","07","16:00","","-13.8","","-17.5","","74","","","","23","","19","","40.2","","101.58","","","","-22","","Mostly Cloudy"
"-71.39","46.79","QUEBEC INTL A","7016293","2017-01-07 17:00","2017","01","07","17:00","","-14.7","","-18.7","","72","","","","22","","13","","24.1","","101.60","","","","-22","","NA"
"-71.39","46.79","QUEBEC INTL A","7016293","2017-01-07 18:00","2017","01","07","18:00","","-16.1","","-20.4","","70","","","","23","","11","","24.1","","101.62","","","","-23","","NA"
"-71.39","46.79","QUEBEC INTL A","7016293","2017-01-07 19:00","2017","01","07","19:00","","-16.8","","-20.7","","72","","","","25","","10","","24.1","","101.61","","","","-23","","Mostly Cloudy"
"-71.39","46.79","QUEBEC INTL A","7016293","2017-01-07 20:00","2017","01","07","20:00","","-16.8","","-20.6","","73","","","","20","","6","","24.1","","101.58","","","","-21","","NA"
"-71.39","46.79","QUEBEC INTL A","7016293","2017-01-07 21:00","2017","01","07","21:00","","-15.3","","-20.3","","66","","","","34","","6","","24.1","","101.46","","","","-20","","NA"
"-71.39","46.79","QUEBEC INTL A","7016293","2017-01-07 22:00","2017","01","07","22:00","","-15.8","","-21.3","","63","","","","35","","10","","24.1","","101.36","","","","-22","","Cloudy"
"-71.39","46.79","QUEBEC INTL A","7016293","2017-01-07 23:00","2017","01","07","23:00","","-16.3","","-22.2","","61","","","","35","","6","","24.1","","101.29","","","","-21","","NA"
"-71.39","46.79","QUEBEC INTL A","7016293","2017-01-08 00:00","2017","01","08","00:00","","-16.2","","-21.9","","62","","","","2","","8","","24.1","","101.27","","","","-22","","NA"
"-71.39","46.79","QUEBEC INTL A","7016293","2017-01-08 01:00","2017","01","08","01:00","","-16.3","","-22.4","","60","","","","34","","11","","24.1","","101.23","","","","-23","","Cloudy"
"-71.39","46.79","QUEBEC INTL A","7016293","2017-01-08 02:00","2017","01","08","02:00","","-16.5","","-22.4","","61","","","","33","","12","","24.1","","101.19","","","","-24","","NA"
"-71.39","46.79","QUEBEC INTL A","7016293","2017-01-08 03:00","2017","01","08","03:00","","-16.9","","-22.6","","62","","","","","","0","","24.1","","101.19","","","","","","NA"
"-71.39","46.79","QUEBEC INTL A","7016293","2017-01-08 04:00","2017","01","08","04:00","","-19.0","","-24.0","","65","","","","36","","7","","24.1","","101.16","","","","-24","","Mostly Cloudy"
"-71.39","46.79","QUEBEC INTL A","7016293","2017-01-08 05:00","2017","01","08","05:00","","-20.1","","-23.9","","72","","","","","","0","","24.1","","101.15","","","","","","NA"
"-71.39","46.79","QUEBEC INTL A","7016293","2017-01-08 06:00","2017","01","08","06:00","","-19.0","","-23.5","","68","","","","30","","4","","24.1","","101.18","","","","-22","","NA"
"-71.39","46.79","QUEBEC INTL A","7016293","2017-01-08 07:00","2017","01","08","07:00","","-22.5","","-26.0","","74","","","","","","0","","48.3","","101.21","","","","","","Mainly Clear"
"-71.39","46.79","QUEBEC INTL A","7016293","2017-01-08 08:00","2017","01","08","08:00","","-21.4","","-24.1","","79","","","","23","","7","","48.3","","101.23","","","","-27","","NA"
"-71.39","46.79","QUEBEC INTL A","7016293","2017-01-08 09:00","2017","01","08","09:00","","-20.7","","-23.9","","76","","","","24","","7","","48.3","","101.26","","","","-26","","NA"
"-71.39","46.79","QUEBEC INTL A","7016293","2017-01-08 10:00","2017","01","08","10:00","","-17.9","","-23.3","","63","","","","23","","11","","48.3","","101.24","","","","-25","","Mainly Clear"
"-71.39","46.79","QUEBEC INTL A","7016293","2017-01-08 11:00","2017","01","08","11:00","","-17.1","","-23.0","","61","","","","24","","13","","48.3","","101.20","","","","-25","","NA"
"-71.39","46.79","QUEBEC INTL A","7016293","2017-01-08 12:00","2017","01","08","12:00","","-15.8","","-21.0","","65","","","","24","","24","","48.3","","101.15","","","","-26","","NA"
"-71.39","46.79","QUEBEC INTL A","7016293","2017-01-08 13:00","2017","01","08","13:00","","-13.9","","-20.5","","58","","","","24","","17","","48.3","","101.17","","","","-22","","Mainly Clear"
"-71.39","46.79","QUEBEC INTL A","7016293","2017-01-08 14:00","2017","01","08","14:00","","-13.8","","-20.2","","59","","","","24","","11","","48.3","","101.19","","","","-20","","NA"
"-71.39","46.79","QUEBEC INTL A","7016293","2017-01-08 15:00","2017","01","08","15:00","","-12.7","","-22.6","","44","","","","30","","16","","48.3","","101.29","","","","-20","","NA"
"-71.39","46.79","QUEBEC INTL A","7016293","2017-01-08 16:00","2017","01","08","16:00","","-14.9","","-22.9","","51","","","","27","","23","","48.3","","101.43","","","","-25","","Mainly Clear"
"-71.39","46.79","QUEBEC INTL A","7016293","2017-01-08 17:00","2017","01","08","17:00","","-16.2","","-23.5","","54","","","","30","","16","","32.2","","101.56","","","","-25","","NA"
"-71.39","46.79","QUEBEC INTL A","7016293","2017-01-08 18:00","2017","01","08","18:00","","-17.5","","-24.1","","57","","","","28","","18","","24.1","","101.67","","","","-27","","NA"
"-71.39","46.79","QUEBEC INTL A","7016293","2017-01-08 19:00","2017","01","08","19:00","","-18.7","","-24.9","","59","","","","26","","24","","24.1","","101.72","","","","-30","","Mainly Clear"
"-71.39","46.79","QUEBEC INTL A","7016293","2017-01-08 20:00","2017","01","08","20:00","","-18.1","","-24.3","","59","","","","27","","18","","24.1","","101.79","","","","-28","","NA"
"-71.39","46.79","QUEBEC INTL A","7016293","2017-01-08 21:00","2017","01","08","21:00","","-19.1","","-25.1","","60","","","","25","","17","","24.1","","101.90","","","","-29","","NA"
"-71.39","46.79","QUEBEC INTL A","7016293","2017-01-08 22:00","2017","01","08","22:00","","-20.5","","-25.3","","66","","","","24","","22","","32.2","","101.94","","","","-32","","Mainly Clear"
"-71.39","46.79","QUEBEC INTL A","7016293","2017-01-08 23:00","2017","01","08","23:00","","-21.1","","-25.9","","66","","","","25","","18","","32.2","","102.03","","","","-31","","NA"
"-71.39","46.79","QUEBEC INTL A","7016293","2017-01-09 00:00","2017","01","09","00:00","","-21.8","","-26.7","","65","","","","26","","20","","32.2","","102.09","","","","-33","","NA"
"-71.39","46.79","QUEBEC INTL A","7016293","2017-01-09 01:00","2017","01","09","01:00","","-21.9","","-27.0","","64","","","","26","","15","","32.2","","102.14","","","","-31","","Clear"
"-71.39","46.79","QUEBEC INTL A","7016293","2017-01-09 02:00","2017","01","09","02:00","","-22.5","","-26.9","","68","","","","25","","18","","32.2","","102.23","","","","-33","","NA"
"-71.39","46.79","QUEBEC INTL A","7016293","2017-01-09 03:00","2017","01","09","03:00","","-24.0","","-28.2","","69","","","","23","","18","","32.2","","102.32","","","","-35","","NA"
"-71.39","46.79","QUEBEC INTL A","7016293","2017-01-09 04:00","2017","01","09","04:00","","-22.9","","-27.5","","67","","","","26","","15","","32.2","","102.40","","","","-33","","Clear"
"-71.39","46.79","QUEBEC INTL A","7016293","2017-01-09 05:00","2017","01","09","05:00","","-23.9","","-28.3","","68","","","","25","","16","","32.2","","102.46","","","","-34","","NA"
"-71.39","46.79","QUEBEC INTL A","7016293","2017-01-09 06:00","2017","01","09","06:00","","-24.5","","-28.7","","69","","","","24","","14","","32.2","","102.54","","","","-34","","NA"
"-71.39","46.79","QUEBEC INTL A","7016293","2017-01-09 07:00","2017","01","09","07:00","","-25.7","","-29.5","","71","","","","24","","15","","32.2","","102.58","","","","-36","","Clear"
"-71.39","46.79","QUEBEC INTL A","7016293","2017-01-09 08:00","2017","01","09","08:00","","-24.4","","-28.6","","69","","","","25","","13","","32.2","","102.65","","","","-34","","NA"
"-71.39","46.79","QUEBEC INTL A","7016293","2017-01-09 09:00","2017","01","09","09:00","","-23.7","","-28.4","","66","","","","27","","7","","32.2","","102.68","","","","-30","","NA"
"-71.39","46.79","QUEBEC INTL A","7016293","2017-01-09 10:00","2017","01","09","10:00","","-21.9","","-27.2","","63","","","","24","","15","","32.2","","102.72","","","","-31","","Mainly Clear"
"-71.39","46.79","QUEBEC INTL A","7016293","2017-01-09 11:00","2017","01","09","11:00","","-20.8","","-25.8","","65","","","","23","","15","","32.2","","102.72","","","","-30","","NA"
"-71.39","46.79","QUEBEC INTL A","7016293","2017-01-09 12:00","2017","01","09","12:00","","-19.7","","-24.7","","65","","","","23","","12","","32.2","","102.63","","","","-28","","NA"
"-71.39","46.79","QUEBEC INTL A","7016293","2017-01-09 13:00","2017","01","09","13:00","","-18.9","","-24.3","","63","","","","21","","10","","32.2","","102.59","","","","-26","","Mostly Cloudy"
"-71.39","46.79","QUEBEC INTL A","7016293","2017-01-09 14:00","2017","01","09","14:00","","-18.3","","-24.1","","61","","","","28","","4","","24.1","","102.53","","","","-22","","NA"
"-71.39","46.79","QUEBEC INTL A","7016293","2017-01-09 15:00","2017","01","09","15:00","","-17.8","","-23.4","","62","","","","1","","7","","12.9","","102.44","","","","-23","","Ice Crystals"
"-71.39","46.79","QUEBEC INTL A","7016293","2017-01-09 16:00","2017","01","09","16:00","","-17.4","","-22.3","","66","","","","1","","8","","9.7","","102.38","","","","-23","","Snow"
"-71.39","46.79","QUEBEC INTL A","7016293","2017-01-09 17:00","2017","01","09","17:00","","-17.4","","-21.2","","73","","","","1","","9","","9.7","","102.35","","","","-24","","Snow"
"-71.39","46.79","QUEBEC INTL A","7016293","2017-01-09 18:00","2017","01","09","18:00","","-17.3","","-20.6","","76","","","","35","","12","","9.7","","102.33","","","","-25","","Snow"
"-71.39","46.79","QUEBEC INTL A","7016293","2017-01-09 19:00","2017","01","09","19:00","","-17.0","","-20.0","","78","","","","35","","10","","9.7","","102.33","","","","-24","","Ice Crystals"
"-71.39","46.79","QUEBEC INTL A","7016293","2017-01-09 20:00","2017","01","09","20:00","","-16.7","","-19.5","","79","","","","1","","7","","8.1","","102.32","","","","-22","","Snow"
"-71.39","46.79","QUEBEC INTL A","7016293","2017-01-09 21:00","2017","01","09","21:00","","-16.5","","-19.2","","80","","","","1","","4","","6.4","","102.34","","","","-20","","Snow"
"-71.39","46.79","QUEBEC INTL A","7016293","2017-01-09 22:00","2017","01","09","22:00","","-16.3","","-18.8","","81","","","","1","","6","","3.2","","102.36","","","","-21","","Snow"
"-71.39","46.79","QUEBEC INTL A","7016293","2017-01-09 23:00","2017","01","09","23:00","","-16.5","","-18.9","","82","","","","1","","6","","6.4","","102.36","","","","-21","","Snow"
"-71.39","46.79","QUEBEC INTL A","7016293","2017-01-10 00:00","2017","01","10","00:00","","-16.0","","-18.6","","81","","","","2","","5","","4.0","","102.32","","","","-20","","Snow"
"-71.39","46.79","QUEBEC INTL A","7016293","2017-01-10 01:00","2017","01","10","01:00","","-15.8","","-18.4","","81","","","","3","","4","","6.4","","102.32","","","","-19","","Snow"
"-71.39","46.79","QUEBEC INTL A","7016293","2017-01-10 02:00","2017","01","10","02:00","","-16.0","","-18.6","","81","","","","2","","8","","8.1","","102.36","","","","-22","","Snow"
"-71.39","46.79","QUEBEC INTL A","7016293","2017-01-10 03:00","2017","01","10","03:00","","-15.1","","-17.7","","81","","","","2","","5","","8.1","","102.41","","","","-19","","Snow"
"-71.39","46.79","QUEBEC INTL A","7016293","2017-01-10 04:00","2017","01","10","04:00","","-14.7","","-17.3","","81","","","","3","","5","","8.1","","102.43","","","","-18","","Snow"
"-71.39","46.79","QUEBEC INTL A","7016293","2017-01-10 05:00","2017","01","10","05:00","","-14.4","","-16.8","","82","","","","4","","5","","16.1","","102.47","","","","-18","","NA"
"-71.39","46.79","QUEBEC INTL A","7016293","2017-01-10 06:00","2017","01","10","06:00","","-13.8","","-16.2","","82","","","","2","","8","","16.1","","102.55","","","","-19","","Snow"
"-71.39","46.79","QUEBEC INTL A","7016293","2017-01-10 07:00","2017","01","10","07:00","","-13.8","","-16.2","","82","","","","2","","7","","24.1","","102.57","","","","-18","","Snow"
"-71.39","46.79","QUEBEC INTL A","7016293","2017-01-10 08:00","2017","01","10","08:00","","-12.9","","-15.5","","81","","","","2","","6","","32.2","","102.59","","","","-17","","Snow"
"-71.39","46.79","QUEBEC INTL A","7016293","2017-01-10 09:00","2017","01","10","09:00","","-11.9","","-14.5","","81","","","","2","","7","","24.1","","102.60","","","","-16","","Snow"
"-71.39","46.79","QUEBEC INTL A","7016293","2017-01-10 10:00","2017","01","10","10:00","","-10.4","","-13.7","","77","","","","7","","6","","12.9","","102.57","","","","-14","","Snow"
"-71.39","46.79","QUEBEC INTL A","7016293","2017-01-10 11:00","2017","01","10","11:00","","-9.5","","-13.0","","76","","","","6","","10","","19.3","","102.44","","","","-15","","NA"
"-71.39","46.79","QUEBEC INTL A","7016293","2017-01-10 12:00","2017","01","10","12:00","","-8.8","","-13.2","","71","","","","5","","16","","24.1","","102.28","","","","-16","","NA"
"-71.39","46.79","QUEBEC INTL A","7016293","2017-01-10 13:00","2017","01","10","13:00","","-7.9","","-13.0","","67","","","","6","","14","","32.2","","102.17","","","","-14","","Cloudy"
"-71.39","46.79","QUEBEC INTL A","7016293","2017-01-10 14:00","2017","01","10","14:00","","-7.0","","-12.5","","65","","","","6","","10","","32.2","","102.08","","","","-12","","NA"
"-71.39","46.79","QUEBEC INTL A","7016293","2017-01-10 15:00","2017","01","10","15:00","","-6.9","","-11.5","","70","","","","7","","12","","32.2","","102.00","","","","-12","","NA"
"-71.39","46.79","QUEBEC INTL A","7016293","2017-01-10 16:00","2017","01","10","16:00","","-6.7","","-10.6","","74","","","","7","","14","","32.2","","101.91","","","","-12","","Cloudy"
"-71.39","46.79","QUEBEC INTL A","7016293","2017-01-10 17:00","2017","01","10","17:00","","-6.6","","-10.5","","74","","","","6","","17","","24.1","","101.77","","","","-13","","NA"
"-71.39","46.79","QUEBEC INTL A","7016293","2017-01-10 18:00","2017","01","10","18:00","","-6.2","","-9.4","","78","","","","8","","14","","24.1","","101.67","","","","-12","","NA"
"-71.39","46.79","QUEBEC INTL A","7016293","2017-01-10 19:00","2017","01","10","19:00","","-5.8","","-9.0","","78","","","","7","","17","","24.1","","101.55","","","","-12","","Cloudy"
"-71.39","46.79","QUEBEC INTL A","7016293","2017-01-10 20:00","2017","01","10","20:00","","-5.3","","-9.2","","74","","","","7","","24","","24.1","","101.40","","","","-13","","Snow"
"-71.39","46.79","QUEBEC INTL A","7016293","2017-01-10 21:00","2017","01","10","21:00","","-5.4","","-6.9","","89","","","","8","","14","","2.0","","101.18","","","","-11","","Snow,Fog"
"-71.39","46.79","QUEBEC INTL A","7016293","2017-01-10 22:00","2017","01","10","22:00","","-5.3","","-6.5","","91","","","","6","","22","","1.6","","100.97","","","","-12","","Snow,Fog"
"-71.39","46.79","QUEBEC INTL A","7016293","2017-01-10 23:00","2017","01","10","23:00","","-4.8","","-5.9","","92","","","","7","","17","","1.2","","100.79","","","","-11","","Snow,Fog"
"-71.39","46.79","QUEBEC INTL A","7016293","2017-01-11 00:00","2017","01","11","00:00","","-4.2","","-5.2","","93","","","","7","","19","","1.2","","100.56","","","","-10","","Snow,Fog"
"-71.39","46.79","QUEBEC INTL A","7016293","2017-01-11 01:00","2017","01","11","01:00","","-3.6","","-4.4","","94","","","","7","","15","","1.2","","100.39","","","","-9","","Snow,Fog"
"-71.39","46.79","QUEBEC INTL A","7016293","2017-01-11 02:00","2017","01","11","02:00","","-2.6","","-3.3","","95","","","","8","","14","","1.2","","100.24","","","","-7","","Snow,Fog"
"-71.39","46.79","QUEBEC INTL A","7016293","2017-01-11 03:00","2017","01","11","03:00","","-2.1","","-2.8","","95","","","","6","","17","","1.6","","100.00","","","","-7","","Snow,Fog"
"-71.39","46.79","QUEBEC INTL A","7016293","2017-01-11 04:00","2017","01","11","04:00","","-0.2","","-0.8","","96","","","","6","","13","","1.6","","99.89","","","","-4","","Snow,Fog"
"-71.39","46.79","QUEBEC INTL A","7016293","2017-01-11 05:00","2017","01","11","05:00","","1.3","","0.6","","95","","","","10","","8","","4.8","","99.69","","","","","","Rain,Snow,Fog"
"-71.39","46.79","QUEBEC INTL A","7016293","2017-01-11 06:00","2017","01","11","06:00","","2.5","","1.0","","90","","","","17","","11","","8.1","","99.57","","","","","","Rain,Fog"
"-71.39","46.79","QUEBEC INTL A","7016293","2017-01-11 07:00","2017","01","11","07:00","","3.0","","1.2","","88","","","","19","","22","","19.3","","99.48","","","","","","Rain"
"-71.39","46.79","QUEBEC INTL A","7016293","2017-01-11 08:00","2017","01","11","08:00","","4.0","","0.7","","79","","","","22","","46","","32.2","","99.60","","","","","","Rain"
"-71.39","46.79","QUEBEC INTL A","7016293","2017-01-11 09:00","2017","01","11","09:00","","3.8","","-0.6","","73","","","","23","","55","","40.2","","99.81","","","","","","NA"
"-71.39","46.79","QUEBEC INTL A","7016293","2017-01-11 10:00","2017","01","11","10:00","","3.4","","-1.9","","68","","","","23","","49","","40.2","","100.03","","","","","","Cloudy"
"-71.39","46.79","QUEBEC INTL A","7016293","2017-01-11 11:00","2017","01","11","11:00","","3.4","","-2.4","","66","","","","23","","50","","48.3","","100.13","","","","","","NA"
"-71.39","46.79","QUEBEC INTL A","7016293","2017-01-11 12:00","2017","01","11","12:00","","3.3","","-2.5","","66","","","","24","","52","","48.3","","100.26","","","","","","NA"
"-71.39","46.79","QUEBEC INTL A","7016293","2017-01-11 13:00","2017","01","11","13:00","","3.1","","-2.2","","68","","","","24","","50","","48.3","","100.44","","","","","","Mostly Cloudy"
"-71.39","46.79","QUEBEC INTL A","7016293","2017-01-11 14:00","2017","01","11","14:00","","3.4","","-3.0","","63","","","","24","","43","","48.3","","100.64","","","","","","NA"
"-71.39","46.79","QUEBEC INTL A","7016293","2017-01-11 15:00","2017","01","11","15:00","","3.1","","-2.6","","66","","","","23","","30","","48.3","","100.80","","","","","","NA"
"-71.39","46.79","QUEBEC INTL A","7016293","2017-01-11 16:00","2017","01","11","16:00","","3.0","","-2.5","","67","","","","21","","19","","24.1","","100.89","","","","","","Mainly Clear"
"-71.39","46.79","QUEBEC INTL A","7016293","2017-01-11 17:00","2017","01","11","17:00","","1.4","","-2.6","","75","","","","24","","16","","24.1","","101.01","","","","","","NA"
"-71.39","46.79","QUEBEC INTL A","7016293","2017-01-11 18:00","2017","01","11","18:00","","1.1","","-2.7","","76","","","","24","","9","","24.1","","101.11","","","","","","NA"
"-71.39","46.79","QUEBEC INTL A","7016293","2017-01-11 19:00","2017","01","11","19:00","","1.1","","-2.7","","76","","","","14","","8","","24.1","","101.10","","","","","","Mostly Cloudy"
"-71.39","46.79","QUEBEC INTL A","7016293","2017-01-11 20:00","2017","01","11","20:00","","0.6","","-2.6","","79","","","","14","","9","","24.1","","100.98","","","","","","NA"
"-71.39","46.79","QUEBEC INTL A","7016293","2017-01-11 21:00","2017","01","11","21:00","","1.0","","-2.4","","78","","","","7","","11","","24.1","","100.77","","","","","","NA"
"-71.39","46.79","QUEBEC INTL A","7016293","2017-01-11 22:00","2017","01","11","22:00","","0.0","","-2.2","","85","","","","34","","8","","24.1","","100.70","","","","-3","","Mostly Cloudy"
"-71.39","46.79","QUEBEC INTL A","7016293","2017-01-11 23:00","2017","01","11","23:00","","0.7","","-2.4","","80","","","","9","","8","","16.1","","100.59","","","","","","NA"
"-71.39","46.79","QUEBEC INTL A","7016293","2017-01-12 00:00","2017","01","12","00:00","","-0.2","","-2.4","","85","","","","35","","12","","16.1","","100.54","","","","-4","","NA"
"-71.39","46.79","QUEBEC INTL A","7016293","2017-01-12 01:00","2017","01","12","01:00","","0.5","","-2.4","","81","","","","5","","9","","16.1","","100.47","","","","","","Cloudy"
"-71.39","46.79","QUEBEC INTL A","7016293","2017-01-12 02:00","2017","01","12","02:00","","-0.8","","-2.7","","87","","","","3","","10","","24.1","","100.34","","","","-4","","NA"
"-71.39","46.79","QUEBEC INTL A","7016293","2017-01-12 03:00","2017","01","12","03:00","","-0.2","","-3.1","","81","","","","2","","6","","24.1","","100.31","","","","-2","","NA"
"-71.39","46.79","QUEBEC INTL A","7016293","2017-01-12 04:00","2017","01","12","04:00","","-0.3","","-3.3","","80","","","","2","","10","","24.1","","100.19","","","","-4","","Mostly Cloudy"
"-71.39","46.79","QUEBEC INTL A","7016293","2017-01-12 05:00","2017","01","12","05:00","","0.5","","-2.4","","81","","","","1","","9","","24.1","","100.10","","","","","","NA"
"-71.39","46.79","QUEBEC INTL A","7016293","2017-01-12 06:00","2017","01","12","06:00","","1.1","","-1.5","","83","","","","3","","10","","16.1","","100.01","","","","","","Rain"
"-71.39","46.79","QUEBEC INTL A","7016293","2017-01-12 07:00","2017","01","12","07:00","","1.3","","-0.8","","86","","","","36","","7","","8.1","","99.94","","","","","","Rain,Fog"
"-71.39","46.79","QUEBEC INTL A","7016293","2017-01-12 08:00","2017","01","12","08:00","","0.8","","-0.2","","93","","","","4","","11","","9.7","","99.93","","","","","","Rain,Fog"
"-71.39","46.79","QUEBEC INTL A","7016293","2017-01-12 09:00","2017","01","12","09:00","","1.4","","0.7","","95","","","","36","","9","","9.7","","99.92","","","","","","Rain,Fog"
"-71.39","46.79","QUEBEC INTL A","7016293","2017-01-12 10:00","2017","01","12","10:00","","1.4","","1.0","","97","","","","3","","8","","2.4","","99.89","","","","","","Rain,Fog"
"-71.39","46.79","QUEBEC INTL A","7016293","2017-01-12 11:00","2017","01","12","11:00","","1.5","","1.1","","97","","","","1","","7","","1.2","","99.85","","","","","","Rain,Fog"
"-71.39","46.79","QUEBEC INTL A","7016293","2017-01-12 12:00","2017","01","12","12:00","","2.1","","1.8","","98","","","","36","","4","","1.2","","99.78","","","","","","Rain,Fog"
"-71.39","46.79","QUEBEC INTL A","7016293","2017-01-12 13:00","2017","01","12","13:00","","2.4","","2.1","","98","","","","","","0","","1.2","","99.75","","","","","","Rain,Fog"
"-71.39","46.79","QUEBEC INTL A","7016293","2017-01-12 14:00","2017","01","12","14:00","","2.7","","2.4","","98","","","","15","","5","","0.6","","99.77","","","","","","Rain,Fog"
"-71.39","46.79","QUEBEC INTL A","7016293","2017-01-12 15:00","2017","01","12","15:00","","1.9","","1.6","","98","","","","35","","3","","0.6","","99.82","","","","","","Drizzle,Fog"
"-71.39","46.79","QUEBEC INTL A","7016293","2017-01-12 16:00","2017","01","12","16:00","","1.9","","1.6","","98","","","","19","","9","","0.6","","99.82","","","","","","Fog"
"-71.39","46.79","QUEBEC INTL A","7016293","2017-01-12 17:00","2017","01","12","17:00","","1.6","","1.3","","98","","","","24","","12","","0.4","","99.78","","","","","","Fog"
"-71.39","46.79","QUEBEC INTL A","7016293","2017-01-12 18:00","2017","01","12","18:00","","2.2","","2.1","","99","","","","22","","15","","0.6","","99.81","","","","","","Drizzle,Fog"
"-71.39","46.79","QUEBEC INTL A","7016293","2017-01-12 19:00","2017","01","12","19:00","","1.7","","1.6","","99","","","","23","","14","","2.4","","99.81","","","","","","Fog"
"-71.39","46.79","QUEBEC INTL A","7016293","2017-01-12 20:00","2017","01","12","20:00","","1.5","","1.4","","99","","","","22","","11","","4.8","","99.84","","","","","","Rain,Fog"
"-71.39","46.79","QUEBEC INTL A","7016293","2017-01-12 21:00","2017","01","12","21:00","","0.8","","0.5","","98","","","","23","","21","","8.1","","99.90","","","","","","Rain,Fog"
"-71.39","46.79","QUEBEC INTL A","7016293","2017-01-12 22:00","2017","01","12","22:00","","0.3","","0.0","","98","","","","23","","17","","9.7","","99.98","","","","","","Rain,Fog"
"-71.39","46.79","QUEBEC INTL A","7016293","2017-01-12 23:00","2017","01","12","23:00","","-0.8","","-1.1","","98","","","","23","","25","","8.1","","100.08","","","","-7","","Freezing Drizzle,Fog"
"-71.39","46.79","QUEBEC INTL A","7016293","2017-01-13 00:00","2017","01","13","00:00","","-1.4","","-2.1","","95","","","","24","","30","","16.1","","100.14","","","","-8","","NA"
"-71.39","46.79","QUEBEC INTL A","7016293","2017-01-13 01:00","2017","01","13","01:00","","-2.2","","-3.9","","88","","","","25","","33","","16.1","","100.26","","","","-10","","Cloudy"
"-71.39","46.79","QUEBEC INTL A","7016293","2017-01-13 02:00","2017","01","13","02:00","","-2.6","","-4.8","","85","","","","25","","23","","24.1","","100.38","","","","-9","","NA"
"-71.39","46.79","QUEBEC INTL A","7016293","2017-01-13 03:00","2017","01","13","03:00","","-2.5","","-5.2","","82","","","","25","","21","","24.1","","100.49","","","","-9","","NA"
"-71.39","46.79","QUEBEC INTL A","7016293","2017-01-13 04:00","2017","01","13","04:00","","-3.1","","-5.4","","84","","","","24","","23","","24.1","","100.64","","","","-10","","Mostly Cloudy"
"-71.39","46.79","QUEBEC INTL A","7016293","2017-01-13 05:00","2017","01","13","05:00","","-3.4","","-6.9","","77","","","","26","","37","","24.1","","100.80","","","","-12","","NA"
"-71.39","46.79","QUEBEC INTL A","7016293","2017-01-13 06:00","2017","01","13","06:00","","-4.9","","-8.0","","79","","","","25","","26","","24.1","","100.96","","","","-12","","NA"
"-71.39","46.79","QUEBEC INTL A","7016293","2017-01-13 07:00","2017","01","13","07:00","","-5.8","","-9.4","","76","","","","25","","29","","32.2","","101.15","","","","-14","","Mainly Clear"
"-71.39","46.79","QUEBEC INTL A","7016293","2017-01-13 08:00","2017","01","13","08:00","","-6.3","","-11.9","","65","","","","26","","30","","40.2","","101.27","","","","-15","","NA"
"-71.39","46.79","QUEBEC INTL A","7016293","2017-01-13 09:00","2017","01","13","09:00","","-6.0","","-12.2","","62","","","","27","","44","","40.2","","101.33","","","","-16","","Snow Showers"
"-71.39","46.79","QUEBEC INTL A","7016293","2017-01-13 10:00","2017","01","13","10:00","","-6.3","","-12.7","","61","","","","27","","43","","40.2","","101.45","","","","-16","","Snow Showers"
"-71.39","46.79","QUEBEC INTL A","7016293","2017-01-13 11:00","2017","01","13","11:00","","-8.1","","-16.6","","51","","","","27","","54","","24.1","","101.60","","","","-20","","Blowing Snow"
"-71.39","46.79","QUEBEC INTL A","7016293","2017-01-13 12:00","2017","01","13","12:00","","-8.7","","-17.4","","50","","","","27","","40","","32.2","","101.77","","","","-19","","Blowing Snow"
"-71.39","46.79","QUEBEC INTL A","7016293","2017-01-13 13:00","2017","01","13","13:00","","-10.3","","-17.7","","55","","","","28","","39","","32.2","","101.98","","","","-21","","Blowing Snow"
"-71.39","46.79","QUEBEC INTL A","7016293","2017-01-13 14:00","2017","01","13","14:00","","-11.0","","-18.4","","55","","","","28","","39","","32.2","","102.17","","","","-22","","Snow Showers"
"-71.39","46.79","QUEBEC INTL A","7016293","2017-01-13 15:00","2017","01","13","15:00","","-12.1","","-20.1","","52","","","","28","","36","","32.2","","102.35","","","","-23","","NA"
"-71.39","46.79","QUEBEC INTL A","7016293","2017-01-13 16:00","2017","01","13","16:00","","-12.4","","-19.9","","54","","","","28","","22","","40.2","","102.51","","","","-21","","Mainly Clear"
"-71.39","46.79","QUEBEC INTL A","7016293","2017-01-13 17:00","2017","01","13","17:00","","-13.2","","-21.1","","52","","","","28","","30","","24.1","","102.61","","","","-24","","NA"
"-71.39","46.79","QUEBEC INTL A","7016293","2017-01-13 18:00","2017","01","13","18:00","","-14.1","","-21.3","","55","","","","27","","25","","24.1","","102.74","","","","-24","","NA"
"-71.39","46.79","QUEBEC INTL A","7016293","2017-01-13 19:00","2017","01","13","19:00","","-14.5","","-21.1","","58","","","","25","","26","","24.1","","102.86","","","","-25","","Mainly Clear"
"-71.39","46.79","QUEBEC INTL A","7016293","2017-01-13 20:00","2017","01","13","20:00","","-15.2","","-21.9","","57","","","","26","","26","","24.1","","102.93","","","","-26","","NA"
"-71.39","46.79","QUEBEC INTL A","7016293","2017-01-13 21:00","2017","01","13","21:00","","-15.8","","-22.9","","55","","","","29","","25","","24.1","","103.00","","","","-26","","NA"
"-71.39","46.79","QUEBEC INTL A","7016293","2017-01-13 22:00","2017","01","13","22:00","","-16.6","","-23.7","","55","","","","28","","28","","24.1","","103.04","","","","-28","","Mainly Clear"
"-71.39","46.79","QUEBEC INTL A","7016293","2017-01-13 23:00","2017","01","13","23:00","","-17.4","","-23.4","","60","","","","27","","23","","24.1","","103.05","","","","-28","","NA"
"-71.39","46.79","QUEBEC INTL A","7016293","2017-01-14 00:00","2017","01","14","00:00","","-18.1","","-23.9","","61","","","","28","","21","","24.1","","103.08","","","","-28","","NA"
"-71.39","46.79","QUEBEC INTL A","7016293","2017-01-14 01:00","2017","01","14","01:00","","-18.7","","-24.5","","61","","","","25","","14","","24.1","","103.12","","","","-27","","Clear"
"-71.39","46.79","QUEBEC INTL A","7016293","2017-01-14 02:00","2017","01","14","02:00","","-19.4","","-24.6","","64","","","","25","","17","","24.1","","103.10","","","","-29","","NA"
"-71.39","46.79","QUEBEC INTL A","7016293","2017-01-14 03:00","2017","01","14","03:00","","-20.3","","-24.9","","67","","","","25","","16","","24.1","","103.07","","","","-30","","NA"
"-71.39","46.79","QUEBEC INTL A","7016293","2017-01-14 04:00","2017","01","14","04:00","","-20.9","","-25.2","","69","","","","25","","18","","24.1","","103.07","","","","-31","","Clear"
"-71.39","46.79","QUEBEC INTL A","7016293","2017-01-14 05:00","2017","01","14","05:00","","-21.5","","-25.8","","69","","","","24","","11","","24.1","","103.03","","","","-29","","NA"
"-71.39","46.79","QUEBEC INTL A","7016293","2017-01-14 06:00","2017","01","14","06:00","","-21.8","","-26.1","","69","","","","23","","16","","24.1","","103.02","","","","-32","","NA"
"-71.39","46.79","QUEBEC INTL A","7016293","2017-01-14 07:00","2017","01","14","07:00","","-21.9","","-26.2","","69","","","","24","","16","","32.2","","102.98","","","","-32","","Clear"
"-71.39","46.79","QUEBEC INTL A","7016293","2017-01-14 08:00","2017","01","14","08:00","","-21.6","","-26.4","","66","","","","25","","14","","48.3","","103.00","","","","-31","","NA"
"-71.39","46.79","QUEBEC INTL A","7016293","2017-01-14 09:00","2017","01","14","09:00","","-21.5","","-26.3","","66","","","","24","","13","","48.3","","102.97","","","","-30","","NA"
"-71.39","46.79","QUEBEC INTL A","7016293","2017-01-14 10:00","2017","01","14","10:00","","-19.7","","-25.1","","63","","","","24","","14","","48.3","","102.90","","","","-28","","Clear"
"-71.39","46.79","QUEBEC INTL A","7016293","2017-01-14 11:00","2017","01","14","11:00","","-18.9","","-24.9","","60","","","","25","","12","","48.3","","102.77","","","","-27","","NA"
"-71.39","46.79","QUEBEC INTL A","7016293","2017-01-14 12:00","2017","01","14","12:00","","-17.5","","-23.3","","61","","","","25","","17","","48.3","","102.65","","","","-27","","NA"
"-71.39","46.79","QUEBEC INTL A","7016293","2017-01-14 13:00","2017","01","14","13:00","","-17.0","","-23.6","","57","","","","24","","21","","48.3","","102.48","","","","-27","","Mainly Clear"
"-71.39","46.79","QUEBEC INTL A","7016293","2017-01-14 14:00","2017","01","14","14:00","","-16.6","","-23.5","","56","","","","25","","13","","48.3","","102.39","","","","-24","","NA"
"-71.39","46.79","QUEBEC INTL A","7016293","2017-01-14 15:00","2017","01","14","15:00","","-16.3","","-22.8","","58","","","","21","","12","","48.3","","102.24","","","","-24","","NA"
"-71.39","46.79","QUEBEC INTL A","7016293","2017-01-14 16:00","2017","01","14","16:00","","-16.0","","-22.9","","56","","","","25","","13","","48.3","","102.08","","","","-24","","Mostly Cloudy"
"-71.39","46.79","QUEBEC INTL A","7016293","2017-01-14 17:00","2017","01","14","17:00","","-16.0","","-22.5","","58","","","","28","","8","","24.1","","101.95","","","","-22","","NA"
"-71.39","46.79","QUEBEC INTL A","7016293","2017-01-14 18:00","2017","01","14","18:00","","-16.5","","-22.6","","60","","","","35","","6","","24.1","","101.85","","","","-21","","NA"
"-71.39","46.79","QUEBEC INTL A","7016293","2017-01-14 19:00","2017","01","14","19:00","","-16.3","","-22.0","","62","","","","35","","5","","24.1","","101.70","","","","-20","","Cloudy"
"-71.39","46.79","QUEBEC INTL A","7016293","2017-01-14 20:00","2017","01","14","20:00","","-15.9","","-20.7","","67","","","","1","","5","","8.1","","101.57","","","","-20","","Snow"
"-71.39","46.79","QUEBEC INTL A","7016293","2017-01-14 21:00","2017","01","14","21:00","","-16.2","","-19.2","","78","","","","35","","8","","1.2","","101.48","","","","-22","","Snow"
"-71.39","46.79","QUEBEC INTL A","7016293","2017-01-14 22:00","2017","01","14","22:00","","-16.0","","-18.7","","80","","","","35","","10","","2.0","","101.41","","","","-22","","Snow"
"-71.39","46.79","QUEBEC INTL A","7016293","2017-01-14 23:00","2017","01","14","23:00","","-15.7","","-18.4","","80","","","","","","0","","2.0","","101.32","","","","","","Snow"
"-71.39","46.79","QUEBEC INTL A","7016293","2017-01-15 00:00","2017","01","15","00:00","","-15.3","","-17.7","","82","","","","","","0","","2.4","","101.22","","","","","","Snow"
"-71.39","46.79","QUEBEC INTL A","7016293","2017-01-15 01:00","2017","01","15","01:00","","-13.9","","-16.6","","80","","","","25","","11","","6.4","","101.13","","","","-20","","Snow"
"-71.39","46.79","QUEBEC INTL A","7016293","2017-01-15 02:00","2017","01","15","02:00","","-13.9","","-16.5","","81","","","","25","","8","","8.1","","101.15","","","","-19","","Snow"
"-71.39","46.79","QUEBEC INTL A","7016293","2017-01-15 03:00","2017","01","15","03:00","","-14.3","","-16.9","","81","","","","22","","15","","11.3","","101.15","","","","-22","","Snow"
"-71.39","46.79","QUEBEC INTL A","7016293","2017-01-15 04:00","2017","01","15","04:00","","-13.7","","-16.6","","79","","","","22","","18","","16.1","","101.22","","","","-22","","Mostly Cloudy"
"-71.39","46.79","QUEBEC INTL A","7016293","2017-01-15 05:00","2017","01","15","05:00","","-13.9","","-17.3","","76","","","","21","","17","","24.1","","101.26","","","","-22","","NA"
"-71.39","46.79","QUEBEC INTL A","7016293","2017-01-15 06:00","2017","01","15","06:00","","-14.2","","-18.5","","70","","","","24","","23","","24.1","","101.39","","","","-24","","NA"
"-71.39","46.79","QUEBEC INTL A","7016293","2017-01-15 07:00","2017","01","15","07:00","","-14.4","","-19.3","","67","","","","28","","17","","48.3","","101.55","","","","-23","","Mainly Clear"
"-71.39","46.79","QUEBEC INTL A","7016293","2017-01-15 08:00","2017","01","15","08:00","","-15.0","","-20.8","","62","","","","29","","14","","48.3","","101.68","","","","-23","","NA"
"-71.39","46.79","QUEBEC INTL A","7016293","2017-01-15 09:00","2017","01","15","09:00","","-15.4","","-20.4","","66","","","","27","","16","","48.3","","101.82","","","","-24","","NA"
"-71.39","46.79","QUEBEC INTL A","7016293","2017-01-15 10:00","2017","01","15","10:00","","-14.5","","-20.5","","61","","","","27","","16","","48.3","","101.92","","","","-23","","Mainly Clear"
"-71.39","46.79","QUEBEC INTL A","7016293","2017-01-15 11:00","2017","01","15","11:00","","-13.7","","-21.1","","54","","","","34","","10","","48.3","","101.89","","","","-20","","NA"
"-71.39","46.79","QUEBEC INTL A","7016293","2017-01-15 12:00","2017","01","15","12:00","","-13.1","","-21.5","","50","","","","29","","16","","48.3","","101.82","","","","-21","","NA"
"-71.39","46.79","QUEBEC INTL A","7016293","2017-01-15 13:00","2017","01","15","13:00","","-12.8","","-21.4","","49","","","","25","","7","","48.3","","101.82","","","","-17","","Clear"
"-71.39","46.79","QUEBEC INTL A","7016293","2017-01-15 14:00","2017","01","15","14:00","","-12.6","","-20.1","","54","","","","24","","18","","48.3","","101.83","","","","-21","","NA"
"-71.39","46.79","QUEBEC INTL A","7016293","2017-01-15 15:00","2017","01","15","15:00","","-12.8","","-19.9","","56","","","","24","","21","","48.3","","101.87","","","","-22","","NA"
"-71.39","46.79","QUEBEC INTL A","7016293","2017-01-15 16:00","2017","01","15","16:00","","-14.2","","-20.8","","58","","","","24","","19","","48.3","","101.90","","","","-23","","Clear"
"-71.39","46.79","QUEBEC INTL A","7016293","2017-01-15 17:00","2017","01","15","17:00","","-15.3","","-21.2","","61","","","","25","","15","","48.3","","101.97","","","","-23","","NA"
"-71.39","46.79","QUEBEC INTL A","7016293","2017-01-15 18:00","2017","01","15","18:00","","-16.0","","-21.5","","63","","","","24","","14","","24.1","","102.02","","","","-24","","NA"
"-71.39","46.79","QUEBEC INTL A","7016293","2017-01-15 19:00","2017","01","15","19:00","","-16.2","","-21.2","","66","","","","27","","10","","24.1","","102.04","","","","-23","","Mostly Cloudy"
"-71.39","46.79","QUEBEC INTL A","7016293","2017-01-15 20:00","2017","01","15","20:00","","-14.2","","-20.8","","58","","","","34","","9","","24.1","","102.04","","","","-20","","NA"
"-71.39","46.79","QUEBEC INTL A","7016293","2017-01-15 21:00","2017","01","15","21:00","","-15.3","","-20.5","","65","","","","","","0","","24.1","","102.05","","","","","","NA"
"-71.39","46.79","QUEBEC INTL A","7016293","2017-01-15 22:00","2017","01","15","22:00","","-15.3","","-20.3","","66","","","","","","0","","24.1","","102.04","","","","","","Mostly Cloudy"
"-71.39","46.79","QUEBEC INTL A","7016293","2017-01-15 23:00","2017","01","15","23:00","","-16.5","","-20.8","","70","","","","","","0","","24.1","","102.01","","","","","","NA"
"-71.39","46.79","QUEBEC INTL A","7016293","2017-01-16 00:00","2017","01","16","00:00","","-17.7","","-21.3","","74","","","","1","","5","","24.1","","101.94","","","","-22","","NA"
"-71.39","46.79","QUEBEC INTL A","7016293","2017-01-16 01:00","2017","01","16","01:00","","-16.5","","-20.6","","71","","","","35","","8","","24.1","","101.95","","","","-22","","Mostly Cloudy"
"-71.39","46.79","QUEBEC INTL A","7016293","2017-01-16 02:00","2017","01","16","02:00","","-15.7","","-20.5","","67","","","","3","","5","","24.1","","101.90","","","","-19","","NA"
"-71.39","46.79","QUEBEC INTL A","7016293","2017-01-16 03:00","2017","01","16","03:00","","-15.8","","-20.1","","70","","","","31","","4","","24.1","","101.88","","","","-19","","NA"
"-71.39","46.79","QUEBEC INTL A","7016293","2017-01-16 04:00","2017","01","16","04:00","","-16.4","","-20.3","","72","","","","2","","6","","24.1","","101.82","","","","-21","","Mainly Clear"
"-71.39","46.79","QUEBEC INTL A","7016293","2017-01-16 05:00","2017","01","16","05:00","","-16.6","","-20.4","","73","","","","3","","5","","24.1","","101.74","","","","-20","","NA"
"-71.39","46.79","QUEBEC INTL A","7016293","2017-01-16 06:00","2017","01","16","06:00","","-15.3","","-19.4","","71","","","","","","0","","24.1","","101.61","","","","","","NA"
"-71.39","46.79","QUEBEC INTL A","7016293","2017-01-16 07:00","2017","01","16","07:00","","-15.5","","-19.3","","73","","","","33","","4","","24.1","","101.53","","","","-18","","Mostly Cloudy"
"-71.39","46.79","QUEBEC INTL A","7016293","2017-01-16 08:00","2017","01","16","08:00","","-13.8","","-18.0","","71","","","","2","","7","","40.2","","101.45","","","","-18","","NA"
"-71.39","46.79","QUEBEC INTL A","7016293","2017-01-16 09:00","2017","01","16","09:00","","-12.3","","-16.7","","70","","","","","","0","","40.2","","101.35","","","","","","NA"
"-71.39","46.79","QUEBEC INTL A","7016293","2017-01-16 10:00","2017","01","16","10:00","","-10.5","","-14.8","","71","","","","27","","4","","40.2","","101.26","","","","-13","","Cloudy"
"-71.39","46.79","QUEBEC INTL A","7016293","2017-01-16 11:00","2017","01","16","11:00","","-8.2","","-12.1","","74","","","","23","","13","","32.2","","101.16","","","","-14","","NA"
"-71.39","46.79","QUEBEC INTL A","7016293","2017-01-16 12:00","2017","01","16","12:00","","-7.9","","-10.3","","83","","","","26","","8","","2.4","","101.07","","","","-12","","Snow Showers"
"-71.39","46.79","QUEBEC INTL A","7016293","2017-01-16 13:00","2017","01","16","13:00","","-5.7","","-8.9","","78","","","","23","","15","","24.1","","100.92","","","","-11","","Cloudy"
"-71.39","46.79","QUEBEC INTL A","7016293","2017-01-16 14:00","2017","01","16","14:00","","-4.5","","-7.8","","78","","","","26","","16","","24.1","","100.84","","","","-10","","NA"
"-71.39","46.79","QUEBEC INTL A","7016293","2017-01-16 15:00","2017","01","16","15:00","","-3.8","","-7.1","","78","","","","26","","8","","24.1","","100.87","","","","-7","","NA"
"-71.39","46.79","QUEBEC INTL A","7016293","2017-01-16 16:00","2017","01","16","16:00","","-2.5","","-6.0","","77","","","","25","","13","","32.2","","100.92","","","","-7","","Mostly Cloudy"
"-71.39","46.79","QUEBEC INTL A","7016293","2017-01-16 17:00","2017","01","16","17:00","","-2.2","","-5.5","","78","","","","25","","16","","24.1","","100.96","","","","-7","","NA"
"-71.39","46.79","QUEBEC INTL A","7016293","2017-01-16 18:00","2017","01","16","18:00","","-1.8","","-5.5","","76","","","","24","","17","","24.1","","100.99","","","","-7","","NA"
"-71.39","46.79","QUEBEC INTL A","7016293","2017-01-16 19:00","2017","01","16","19:00","","-1.8","","-5.3","","77","","","","24","","20","","24.1","","101.00","","","","-8","","Cloudy"
"-71.39","46.79","QUEBEC INTL A","7016293","2017-01-16 20:00","2017","01","16","20:00","","-1.7","","-5.4","","76","","","","26","","20","","24.1","","101.05","","","","-7","","NA"
"-71.39","46.79","QUEBEC INTL A","7016293","2017-01-16 21:00","2017","01","16","21:00","","-2.3","","-5.6","","78","","","","26","","21","","24.1","","101.07","","","","-8","","NA"
"-71.39","46.79","QUEBEC INTL A","7016293","2017-01-16 22:00","2017","01","16","22:00","","-2.6","","-6.1","","77","","","","26","","23","","16.1","","101.11","","","","-9","","Snow"
"-71.39","46.79","QUEBEC INTL A","7016293","2017-01-16 23:00","2017","01","16","23:00","","-2.8","","-6.5","","76","","","","27","","22","","19.3","","101.12","","","","-9","","NA"
"-71.39","46.79","QUEBEC INTL A","7016293","2017-01-17 00:00","2017","01","17","00:00","","-2.3","","-5.6","","78","","","","26","","18","","24.1","","101.15","","","","-8","","NA"
"-71.39","46.79","QUEBEC INTL A","7016293","2017-01-17 01:00","2017","01","17","01:00","","-2.4","","-5.4","","80","","","","26","","19","","24.1","","101.13","","","","-8","","Cloudy"
"-71.39","46.79","QUEBEC INTL A","7016293","2017-01-17 02:00","2017","01","17","02:00","","-2.4","","-5.7","","78","","","","27","","15","","24.1","","101.22","","","","-7","","NA"
"-71.39","46.79","QUEBEC INTL A","7016293","2017-01-17 03:00","2017","01","17","03:00","","-1.9","","-7.8","","64","","","","31","","19","","24.1","","101.32","","","","-7","","NA"
"-71.39","46.79","QUEBEC INTL A","7016293","2017-01-17 04:00","2017","01","17","04:00","","-3.2","","-9.7","","61","","","","35","","17","","24.1","","101.41","","","","-9","","Mostly Cloudy"
"-71.39","46.79","QUEBEC INTL A","7016293","2017-01-17 05:00","2017","01","17","05:00","","-4.4","","-10.4","","63","","","","32","","11","","24.1","","101.48","","","","-9","","NA"
"-71.39","46.79","QUEBEC INTL A","7016293","2017-01-17 06:00","2017","01","17","06:00","","-7.0","","-11.2","","72","","","","31","","7","","24.1","","101.55","","","","-11","","NA"
"-71.39","46.79","QUEBEC INTL A","7016293","2017-01-17 07:00","2017","01","17","07:00","","-8.7","","-12.5","","74","","","","29","","10","","48.3","","101.57","","","","-14","","Mainly Clear"
"-71.39","46.79","QUEBEC INTL A","7016293","2017-01-17 08:00","2017","01","17","08:00","","-7.6","","-12.2","","70","","","","1","","6","","48.3","","101.67","","","","-11","","NA"
"-71.39","46.79","QUEBEC INTL A","7016293","2017-01-17 09:00","2017","01","17","09:00","","-7.3","","-12.1","","69","","","","1","","8","","48.3","","101.74","","","","-11","","NA"
"-71.39","46.79","QUEBEC INTL A","7016293","2017-01-17 10:00","2017","01","17","10:00","","-5.1","","-11.1","","63","","","","5","","13","","48.3","","101.78","","","","-10","","Mainly Clear"
"-71.39","46.79","QUEBEC INTL A","7016293","2017-01-17 11:00","2017","01","17","11:00","","-4.5","","-10.7","","62","","","","6","","19","","48.3","","101.70","","","","-11","","NA"
"-71.39","46.79","QUEBEC INTL A","7016293","2017-01-17 12:00","2017","01","17","12:00","","-4.8","","-11.0","","62","","","","9","","22","","48.3","","101.68","","","","-12","","NA"
"-71.39","46.79","QUEBEC INTL A","7016293","2017-01-17 13:00","2017","01","17","13:00","","-4.9","","-11.3","","61","","","","7","","18","","48.3","","101.68","","","","-11","","Mainly Clear"
"-71.39","46.79","QUEBEC INTL A","7016293","2017-01-17 14:00","2017","01","17","14:00","","-5.5","","-11.9","","61","","","","6","","22","","48.3","","101.65","","","","-13","","NA"
"-71.39","46.79","QUEBEC INTL A","7016293","2017-01-17 15:00","2017","01","17","15:00","","-5.7","","-12.7","","58","","","","6","","23","","48.3","","101.61","","","","-13","","NA"
"-71.39","46.79","QUEBEC INTL A","7016293","2017-01-17 16:00","2017","01","17","16:00","","-6.6","","-12.5","","63","","","","6","","14","","48.3","","101.58","","","","-12","","Mostly Cloudy"
"-71.39","46.79","QUEBEC INTL A","7016293","2017-01-17 17:00","2017","01","17","17:00","","-7.4","","-12.5","","67","","","","6","","22","","24.1","","101.54","","","","-15","","NA"
"-71.39","46.79","QUEBEC INTL A","7016293","2017-01-17 18:00","2017","01","17","18:00","","-7.7","","-12.3","","70","","","","7","","27","","24.1","","101.52","","","","-16","","NA"
"-71.39","46.79","QUEBEC INTL A","7016293","2017-01-17 19:00","2017","01","17","19:00","","-8.0","","-11.9","","74","","","","7","","31","","24.1","","101.51","","","","-17","","Mainly Clear"
"-71.39","46.79","QUEBEC INTL A","7016293","2017-01-17 20:00","2017","01","17","20:00","","-8.2","","-11.7","","76","","","","7","","32","","24.1","","101.46","","","","-17","","NA"
"-71.39","46.79","QUEBEC INTL A","7016293","2017-01-17 21:00","2017","01","17","21:00","","-8.3","","-12.7","","71","","","","7","","32","","24.1","","101.45","","","","-18","","NA"
"-71.39","46.79","QUEBEC INTL A","7016293","2017-01-17 22:00","2017","01","17","22:00","","-8.3","","-13.2","","68","","","","6","","28","","24.1","","101.42","","","","-17","","Mostly Cloudy"
"-71.39","46.79","QUEBEC INTL A","7016293","2017-01-17 23:00","2017","01","17","23:00","","-8.2","","-13.7","","65","","","","7","","28","","24.1","","101.39","","","","-17","","NA"
"-71.39","46.79","QUEBEC INTL A","7016293","2017-01-18 00:00","2017","01","18","00:00","","-8.3","","-13.6","","66","","","","7","","25","","24.1","","101.33","","","","-17","","NA"
"-71.39","46.79","QUEBEC INTL A","7016293","2017-01-18 01:00","2017","01","18","01:00","","-8.3","","-13.4","","67","","","","6","","28","","24.1","","101.28","","","","-17","","Cloudy"
"-71.39","46.79","QUEBEC INTL A","7016293","2017-01-18 02:00","2017","01","18","02:00","","-8.3","","-13.0","","69","","","","7","","23","","24.1","","101.24","","","","-16","","NA"
"-71.39","46.79","QUEBEC INTL A","7016293","2017-01-18 03:00","2017","01","18","03:00","","-8.3","","-13.0","","69","","","","7","","26","","24.1","","101.20","","","","-17","","NA"
"-71.39","46.79","QUEBEC INTL A","7016293","2017-01-18 04:00","2017","01","18","04:00","","-8.3","","-13.4","","67","","","","7","","22","","24.1","","101.12","","","","-16","","Mostly Cloudy"
"-71.39","46.79","QUEBEC INTL A","7016293","2017-01-18 05:00","2017","01","18","05:00","","-8.5","","-14.0","","65","","","","6","","22","","24.1","","101.13","","","","-16","","NA"
"-71.39","46.79","QUEBEC INTL A","7016293","2017-01-18 06:00","2017","01","18","06:00","","-8.3","","-14.2","","63","","","","7","","21","","24.1","","101.12","","","","-16","","NA"
"-71.39","46.79","QUEBEC INTL A","7016293","2017-01-18 07:00","2017","01","18","07:00","","-8.2","","-14.3","","62","","","","7","","22","","48.3","","101.07","","","","-16","","Cloudy"
"-71.39","46.79","QUEBEC INTL A","7016293","2017-01-18 08:00","2017","01","18","08:00","","-8.0","","-13.7","","64","","","","6","","28","","48.3","","101.00","","","","-17","","NA"
"-71.39","46.79","QUEBEC INTL A","7016293","2017-01-18 09:00","2017","01","18","09:00","","-7.6","","-12.9","","66","","","","7","","14","","48.3","","101.02","","","","-14","","NA"
"-71.39","46.79","QUEBEC INTL A","7016293","2017-01-18 10:00","2017","01","18","10:00","","-7.4","","-12.7","","66","","","","6","","25","","48.3","","100.99","","","","-15","","Cloudy"
"-71.39","46.79","QUEBEC INTL A","7016293","2017-01-18 11:00","2017","01","18","11:00","","-6.9","","-12.4","","65","","","","7","","19","","48.3","","100.94","","","","-14","","NA"
"-71.39","46.79","QUEBEC INTL A","7016293","2017-01-18 12:00","2017","01","18","12:00","","-6.5","","-11.9","","66","","","","7","","19","","48.3","","100.87","","","","-13","","NA"
"-71.39","46.79","QUEBEC INTL A","7016293","2017-01-18 13:00","2017","01","18","13:00","","-6.1","","-11.5","","66","","","","7","","17","","24.1","","100.79","","","","-12","","Cloudy"
"-71.39","46.79","QUEBEC INTL A","7016293","2017-01-18 14:00","2017","01","18","14:00","","-5.8","","-11.0","","67","","","","6","","17","","24.1","","100.75","","","","-12","","NA"
"-71.39","46.79","QUEBEC INTL A","7016293","2017-01-18 15:00","2017","01","18","15:00","","-5.5","","-10.5","","68","","","","6","","21","","24.1","","100.80","","","","-12","","NA"
"-71.39","46.79","QUEBEC INTL A","7016293","2017-01-18 16:00","2017","01","18","16:00","","-5.0","","-10.0","","68","","","","7","","14","","24.1","","100.77","","","","-10","","Cloudy"
"-71.39","46.79","QUEBEC INTL A","7016293","2017-01-18 17:00","2017","01","18","17:00","","-5.2","","-9.3","","73","","","","6","","21","","16.1","","100.80","","","","-12","","Snow"
"-71.39","46.79","QUEBEC INTL A","7016293","2017-01-18 18:00","2017","01","18","18:00","","-5.2","","-8.8","","76","","","","7","","17","","16.1","","100.77","","","","-11","","Snow"
"-71.39","46.79","QUEBEC INTL A","7016293","2017-01-18 19:00","2017","01","18","19:00","","-5.3","","-7.6","","84","","","","7","","16","","8.1","","100.73","","","","-11","","Snow"
"-71.39","46.79","QUEBEC INTL A","7016293","2017-01-18 20:00","2017","01","18","20:00","","-5.3","","-6.8","","89","","","","7","","11","","3.2","","100.68","","","","-10","","Snow"
"-71.39","46.79","QUEBEC INTL A","7016293","2017-01-18 21:00","2017","01","18","21:00","","-5.2","","-6.6","","90","","","","6","","14","","3.2","","100.62","","","","-11","","Snow"
"-71.39","46.79","QUEBEC INTL A","7016293","2017-01-18 22:00","2017","01","18","22:00","","-5.1","","-6.4","","91","","","","7","","8","","1.2","","100.57","","","","-9","","Snow"
"-71.39","46.79","QUEBEC INTL A","7016293","2017-01-18 23:00","2017","01","18","23:00","","-5.0","","-6.1","","92","","","","6","","10","","1.6","","100.47","","","","-9","","Snow"
"-71.39","46.79","QUEBEC INTL A","7016293","2017-01-19 00:00","2017","01","19","00:00","","-5.0","","-6.1","","92","","","","5","","8","","2.0","","100.41","","","","-9","","Snow"
"-71.39","46.79","QUEBEC INTL A","7016293","2017-01-19 01:00","2017","01","19","01:00","","-4.9","","-6.0","","92","","","","3","","8","","2.0","","100.36","","","","-8","","Snow"
"-71.39","46.79","QUEBEC INTL A","7016293","2017-01-19 02:00","2017","01","19","02:00","","-4.9","","-5.9","","93","","","","34","","6","","2.4","","100.37","","","","-8","","Snow"
"-71.39","46.79","QUEBEC INTL A","7016293","2017-01-19 03:00","2017","01","19","03:00","","-4.8","","-5.6","","94","","","","26","","5","","4.8","","100.34","","","","-7","","Snow"
"-71.39","46.79","QUEBEC INTL A","7016293","2017-01-19 04:00","2017","01","19","04:00","","-4.6","","-5.6","","93","","","","","","0","","11.3","","100.33","","","","","","Snow"
"-71.39","46.79","QUEBEC INTL A","7016293","2017-01-19 05:00","2017","01","19","05:00","","-4.0","","-5.1","","92","","","","25","","15","","6.4","","100.37","","","","-9","","Snow"
"-71.39","46.79","QUEBEC INTL A","7016293","2017-01-19 06:00","2017","01","19","06:00","","-4.0","","-5.3","","91","","","","23","","15","","12.9","","100.38","","","","-9","","Snow"
"-71.39","46.79","QUEBEC INTL A","7016293","2017-01-19 07:00","2017","01","19","07:00","","-4.1","","-5.5","","90","","","","23","","20","","16.1","","100.41","","","","-10","","Cloudy"
"-71.39","46.79","QUEBEC INTL A","7016293","2017-01-19 08:00","2017","01","19","08:00","","-4.1","","-5.5","","90","","","","23","","21","","16.1","","100.43","","","","-11","","NA"
"-71.39","46.79","QUEBEC INTL A","7016293","2017-01-19 09:00","2017","01","19","09:00","","-3.8","","-5.2","","90","","","","24","","25","","12.9","","100.45","","","","-11","","NA"
"-71.39","46.79","QUEBEC INTL A","7016293","2017-01-19 10:00","2017","01","19","10:00","","-3.4","","-5.1","","88","","","","22","","20","","19.3","","100.48","","","","-10","","Cloudy"
"-71.39","46.79","QUEBEC INTL A","7016293","2017-01-19 11:00","2017","01","19","11:00","","-2.8","","-4.7","","87","","","","21","","16","","19.3","","100.47","","","","-8","","NA"
"-71.39","46.79","QUEBEC INTL A","7016293","2017-01-19 12:00","2017","01","19","12:00","","-2.5","","-4.5","","86","","","","22","","21","","19.3","","100.46","","","","-9","","NA"
"-71.39","46.79","QUEBEC INTL A","7016293","2017-01-19 13:00","2017","01","19","13:00","","-2.1","","-4.0","","87","","","","21","","17","","19.3","","100.43","","","","-7","","Cloudy"
"-71.39","46.79","QUEBEC INTL A","7016293","2017-01-19 14:00","2017","01","19","14:00","","-1.5","","-3.5","","86","","","","23","","19","","19.3","","100.43","","","","-7","","NA"
"-71.39","46.79","QUEBEC INTL A","7016293","2017-01-19 15:00","2017","01","19","15:00","","-1.1","","-3.0","","87","","","","22","","16","","24.1","","100.43","","","","-6","","NA"
"-71.39","46.79","QUEBEC INTL A","7016293","2017-01-19 16:00","2017","01","19","16:00","","-1.6","","-3.2","","89","","","","25","","14","","24.1","","100.46","","","","-6","","Mostly Cloudy"
"-71.39","46.79","QUEBEC INTL A","7016293","2017-01-19 17:00","2017","01","19","17:00","","-1.5","","-2.9","","90","","","","24","","24","","24.1","","100.51","","","","-8","","NA"
"-71.39","46.79","QUEBEC INTL A","7016293","2017-01-19 18:00","2017","01","19","18:00","","-1.4","","-2.7","","91","","","","24","","19","","24.1","","100.57","","","","-7","","NA"
"-71.39","46.79","QUEBEC INTL A","7016293","2017-01-19 19:00","2017","01","19","19:00","","-0.9","","-2.0","","92","","","","25","","19","","24.1","","100.60","","","","-6","","Cloudy"
"-71.39","46.79","QUEBEC INTL A","7016293","2017-01-19 20:00","2017","01","19","20:00","","-0.9","","-1.9","","93","","","","24","","22","","24.1","","100.64","","","","-7","","NA"
"-71.39","46.79","QUEBEC INTL A","7016293","2017-01-19 21:00","2017","01","19","21:00","","-0.6","","-1.6","","93","","","","23","","22","","24.1","","100.65","","","","-6","","NA"
"-71.39","46.79","QUEBEC INTL A","7016293","2017-01-19 22:00","2017","01","19","22:00","","-0.6","","-1.7","","92","","","","24","","13","","24.1","","100.68","","","","-5","","Cloudy"
"-71.39","46.79","QUEBEC INTL A","7016293","2017-01-19 23:00","2017","01","19","23:00","","-0.7","","-1.8","","92","","","","25","","13","","24.1","","100.73","","","","-5","","NA"
"-71.39","46.79","QUEBEC INTL A","7016293","2017-01-20 00:00","2017","01","20","00:00","","-0.3","","-1.7","","90","","","","24","","15","","24.1","","100.74","","","","-5","","NA"
"-71.39","46.79","QUEBEC INTL A","7016293","2017-01-20 01:00","2017","01","20","01:00","","-0.7","","-2.0","","91","","","","24","","12","","24.1","","100.69","","","","-5","","Mostly Cloudy"
"-71.39","46.79","QUEBEC INTL A","7016293","2017-01-20 02:00","2017","01","20","02:00","","-1.2","","-2.2","","93","","","","23","","10","","24.1","","100.66","","","","-5","","NA"
"-71.39","46.79","QUEBEC INTL A","7016293","2017-01-20 03:00","2017","01","20","03:00","","-1.5","","-2.3","","94","","","","18","","6","","24.1","","100.56","","","","-4","","NA"
"-71.39","46.79","QUEBEC INTL A","7016293","2017-01-20 04:00","2017","01","20","04:00","","-1.9","","-2.6","","95","","","","28","","4","","24.1","","100.55","","","","-3","","Cloudy"
"-71.39","46.79","QUEBEC INTL A","7016293","2017-01-20 05:00","2017","01","20","05:00","","-1.6","","-2.3","","95","","","","29","","5","","24.1","","100.60","","","","-3","","NA"
"-71.39","46.79","QUEBEC INTL A","7016293","2017-01-20 06:00","2017","01","20","06:00","","-1.5","","-2.3","","94","","","","22","","4","","24.1","","100.67","","","","-3","","NA"
"-71.39","46.79","QUEBEC INTL A","7016293","2017-01-20 07:00","2017","01","20","07:00","","-1.5","","-2.3","","94","","","","22","","7","","48.3","","100.69","","","","-4","","Cloudy"
"-71.39","46.79","QUEBEC INTL A","7016293","2017-01-20 08:00","2017","01","20","08:00","","-1.4","","-2.2","","94","","","","","","0","","48.3","","100.73","","","","","","NA"
"-71.39","46.79","QUEBEC INTL A","7016293","2017-01-20 09:00","2017","01","20","09:00","","-1.2","","-2.3","","92","","","","","","0","","48.3","","100.72","","","","","","NA"
"-71.39","46.79","QUEBEC INTL A","7016293","2017-01-20 10:00","2017","01","20","10:00","","-0.5","","-1.8","","91","","","","","","0","","48.3","","100.71","","","","","","Cloudy"
"-71.39","46.79","QUEBEC INTL A","7016293","2017-01-20 11:00","2017","01","20","11:00","","0.2","","-1.7","","87","","","","11","","3","","24.1","","100.64","","","","","","Snow"
"-71.39","46.79","QUEBEC INTL A","7016293","2017-01-20 12:00","2017","01","20","12:00","","0.4","","-1.8","","85","","","","","","0","","24.1","","100.57","","","","","","NA"
"-71.39","46.79","QUEBEC INTL A","7016293","2017-01-20 13:00","2017","01","20","13:00","","0.6","","-1.8","","84","","","","","","0","","24.1","","100.52","","","","","","Cloudy"
"-71.39","46.79","QUEBEC INTL A","7016293","2017-01-20 14:00","2017","01","20","14:00","","0.7","","-2.4","","80","","","","","","0","","24.1","","100.50","","","","","","NA"
"-71.39","46.79","QUEBEC INTL A","7016293","2017-01-20 15:00","2017","01","20","15:00","","0.5","","-2.1","","83","","","","","","0","","24.1","","100.44","","","","","","NA"
"-71.39","46.79","QUEBEC INTL A","7016293","2017-01-20 16:00","2017","01","20","16:00","","0.5","","-2.4","","81","","","","","","0","","24.1","","100.40","","","","","","Cloudy"
"-71.39","46.79","QUEBEC INTL A","7016293","2017-01-20 17:00","2017","01","20","17:00","","0.5","","-2.7","","79","","","","14","","3","","24.1","","100.37","","","","","","NA"
"-71.39","46.79","QUEBEC INTL A","7016293","2017-01-20 18:00","2017","01","20","18:00","","-0.1","","-2.8","","82","","","","17","","4","","24.1","","100.38","","","","-1","","NA"
"-71.39","46.79","QUEBEC INTL A","7016293","2017-01-20 19:00","2017","01","20","19:00","","-0.4","","-2.6","","85","","","","23","","3","","24.1","","100.38","","","","-1","","Cloudy"
"-71.39","46.79","QUEBEC INTL A","7016293","2017-01-20 20:00","2017","01","20","20:00","","-0.6","","-2.5","","87","","","","16","","5","","24.1","","100.32","","","","-2","","NA"
"-71.39","46.79","QUEBEC INTL A","7016293","2017-01-20 21:00","2017","01","20","21:00","","-0.6","","-2.5","","87","","","","","","0","","24.1","","100.30","","","","","","NA"
"-71.39","46.79","QUEBEC INTL A","7016293","2017-01-20 22:00","2017","01","20","22:00","","-0.8","","-2.4","","89","","","","","","0","","24.1","","100.26","","","","","","Cloudy"
"-71.39","46.79","QUEBEC INTL A","7016293","2017-01-20 23:00","2017","01","20","23:00","","-0.8","","-2.4","","89","","","","22","","5","","24.1","","100.21","","","","-2","","NA"
"-71.39","46.79","QUEBEC INTL A","7016293","2017-01-21 00:00","2017","01","21","00:00","","-0.7","","-2.3","","89","","","","23","","8","","24.1","","100.15","","","","-4","","NA"
"-71.39","46.79","QUEBEC INTL A","7016293","2017-01-21 01:00","2017","01","21","01:00","","-0.7","","-2.4","","88","","","","27","","7","","24.1","","100.16","","","","-3","","Cloudy"
"-71.39","46.79","QUEBEC INTL A","7016293","2017-01-21 02:00","2017","01","21","02:00","","-0.5","","-2.6","","86","","","","26","","13","","24.1","","100.16","","","","-5","","NA"
"-71.39","46.79","QUEBEC INTL A","7016293","2017-01-21 03:00","2017","01","21","03:00","","-0.7","","-2.4","","88","","","","28","","7","","12.9","","100.12","","","","-3","","Freezing Drizzle"
"-71.39","46.79","QUEBEC INTL A","7016293","2017-01-21 04:00","2017","01","21","04:00","","-1.2","","-2.3","","92","","","","24","","4","","8.1","","100.08","","","","-3","","Freezing Drizzle,Fog"
"-71.39","46.79","QUEBEC INTL A","7016293","2017-01-21 05:00","2017","01","21","05:00","","-1.2","","-2.2","","93","","","","21","","4","","4.8","","100.05","","","","-3","","Freezing Drizzle,Fog"
"-71.39","46.79","QUEBEC INTL A","7016293","2017-01-21 06:00","2017","01","21","06:00","","-1.3","","-2.3","","93","","","","","","0","","9.7","","100.03","","","","","","Fog"
"-71.39","46.79","QUEBEC INTL A","7016293","2017-01-21 07:00","2017","01","21","07:00","","-1.3","","-2.1","","94","","","","20","","5","","8.1","","100.00","","","","-3","","Fog"
"-71.39","46.79","QUEBEC INTL A","7016293","2017-01-21 08:00","2017","01","21","08:00","","-1.0","","-1.8","","94","","","","21","","6","","6.4","","99.99","","","","-3","","Snow,Fog"
"-71.39","46.79","QUEBEC INTL A","7016293","2017-01-21 09:00","2017","01","21","09:00","","-0.9","","-1.9","","93","","","","24","","9","","9.7","","99.95","","","","-4","","Snow,Fog"
"-71.39","46.79","QUEBEC INTL A","7016293","2017-01-21 10:00","2017","01","21","10:00","","-0.6","","-1.6","","93","","","","23","","13","","9.7","","99.96","","","","-5","","Fog"
"-71.39","46.79","QUEBEC INTL A","7016293","2017-01-21 11:00","2017","01","21","11:00","","-0.3","","-1.6","","91","","","","23","","15","","16.1","","99.89","","","","-5","","NA"
"-71.39","46.79","QUEBEC INTL A","7016293","2017-01-21 12:00","2017","01","21","12:00","","0.2","","-1.9","","86","","","","25","","11","","16.1","","99.80","","","","","","NA"
"-71.39","46.79","QUEBEC INTL A","7016293","2017-01-21 13:00","2017","01","21","13:00","","0.3","","-2.4","","82","","","","24","","18","","32.2","","99.79","","","","","","Cloudy"
"-71.39","46.79","QUEBEC INTL A","7016293","2017-01-21 14:00","2017","01","21","14:00","","0.3","","-2.3","","83","","","","27","","8","","48.3","","99.76","","","","","","NA"
"-71.39","46.79","QUEBEC INTL A","7016293","2017-01-21 15:00","2017","01","21","15:00","","0.3","","-2.3","","83","","","","22","","13","","48.3","","99.76","","","","","","NA"
"-71.39","46.79","QUEBEC INTL A","7016293","2017-01-21 16:00","2017","01","21","16:00","","0.0","","-2.4","","84","","","","23","","11","","48.3","","99.79","","","","-4","","Cloudy"
"-71.39","46.79","QUEBEC INTL A","7016293","2017-01-21 17:00","2017","01","21","17:00","","-0.2","","-2.4","","85","","","","25","","14","","24.1","","99.85","","","","-4","","NA"
"-71.39","46.79","QUEBEC INTL A","7016293","2017-01-21 18:00","2017","01","21","18:00","","-0.2","","-2.4","","85","","","","29","","7","","24.1","","99.87","","","","-3","","NA"
"-71.39","46.79","QUEBEC INTL A","7016293","2017-01-21 19:00","2017","01","21","19:00","","-0.2","","-2.7","","83","","","","26","","9","","24.1","","99.90","","","","-3","","Cloudy"
"-71.39","46.79","QUEBEC INTL A","7016293","2017-01-21 20:00","2017","01","21","20:00","","-0.1","","-3.0","","81","","","","25","","9","","24.1","","99.97","","","","-3","","NA"
"-71.39","46.79","QUEBEC INTL A","7016293","2017-01-21 21:00","2017","01","21","21:00","","0.0","","-3.6","","77","","","","35","","7","","24.1","","99.91","","","","-2","","NA"
"-71.39","46.79","QUEBEC INTL A","7016293","2017-01-21 22:00","2017","01","21","22:00","","-0.4","","-3.3","","81","","","","36","","6","","24.1","","99.94","","","","-2","","Cloudy"
"-71.39","46.79","QUEBEC INTL A","7016293","2017-01-21 23:00","2017","01","21","23:00","","-0.4","","-2.9","","83","","","","4","","6","","24.1","","99.92","","","","-2","","NA"
"-71.39","46.79","QUEBEC INTL A","7016293","2017-01-22 00:00","2017","01","22","00:00","","-0.8","","-2.2","","90","","","","","","0","","24.1","","99.96","","","","","","NA"
"-71.39","46.79","QUEBEC INTL A","7016293","2017-01-22 01:00","2017","01","22","01:00","","-0.9","","-2.5","","89","","","","32","","5","","24.1","","99.99","","","","-3","","Cloudy"
"-71.39","46.79","QUEBEC INTL A","7016293","2017-01-22 02:00","2017","01","22","02:00","","-1.2","","-2.9","","88","","","","32","","6","","24.1","","100.03","","","","-3","","NA"
"-71.39","46.79","QUEBEC INTL A","7016293","2017-01-22 03:00","2017","01","22","03:00","","-1.2","","-2.8","","89","","","","16","","4","","24.1","","100.08","","","","-3","","NA"
"-71.39","46.79","QUEBEC INTL A","7016293","2017-01-22 04:00","2017","01","22","04:00","","-1.4","","-2.8","","90","","","","","","0","","24.1","","100.13","","","","","","Cloudy"
"-71.39","46.79","QUEBEC INTL A","7016293","2017-01-22 05:00","2017","01","22","05:00","","-1.4","","-2.7","","91","","","","","","0","","24.1","","100.13","","","","","","NA"
"-71.39","46.79","QUEBEC INTL A","7016293","2017-01-22 06:00","2017","01","22","06:00","","-1.2","","-3.4","","85","","","","5","","4","","24.1","","100.15","","","","-3","","NA"
"-71.39","46.79","QUEBEC INTL A","7016293","2017-01-22 07:00","2017","01","22","07:00","","-1.4","","-3.0","","89","","","","4","","5","","24.1","","100.24","","","","-3","","Cloudy"
"-71.39","46.79","QUEBEC INTL A","7016293","2017-01-22 08:00","2017","01","22","08:00","","-1.0","","-2.6","","89","","","","5","","9","","32.2","","100.31","","","","-4","","NA"
"-71.39","46.79","QUEBEC INTL A","7016293","2017-01-22 09:00","2017","01","22","09:00","","-0.7","","-2.6","","87","","","","8","","13","","48.3","","100.42","","","","-5","","NA"
"-71.39","46.79","QUEBEC INTL A","7016293","2017-01-22 10:00","2017","01","22","10:00","","-0.9","","-4.3","","78","","","","7","","30","","48.3","","100.50","","","","-8","","Cloudy"
"-71.39","46.79","QUEBEC INTL A","7016293","2017-01-22 11:00","2017","01","22","11:00","","-1.0","","-5.1","","74","","","","6","","26","","48.3","","100.58","","","","-7","","NA"
"-71.39","46.79","QUEBEC INTL A","7016293","2017-01-22 12:00","2017","01","22","12:00","","-2.0","","-6.4","","72","","","","7","","35","","48.3","","100.57","","","","-10","","NA"
"-71.39","46.79","QUEBEC INTL A","7016293","2017-01-22 13:00","2017","01","22","13:00","","-2.0","","-6.2","","73","","","","7","","22","","48.3","","100.63","","","","-8","","Mostly Cloudy"
"-71.39","46.79","QUEBEC INTL A","7016293","2017-01-22 14:00","2017","01","22","14:00","","-2.5","","-6.9","","72","","","","9","","22","","48.3","","100.73","","","","-9","","NA"
"-71.39","46.79","QUEBEC INTL A","7016293","2017-01-22 15:00","2017","01","22","15:00","","-2.8","","-7.4","","71","","","","9","","25","","48.3","","100.81","","","","-10","","NA"
"-71.39","46.79","QUEBEC INTL A","7016293","2017-01-22 16:00","2017","01","22","16:00","","-3.3","","-7.7","","72","","","","8","","22","","40.2","","100.88","","","","-10","","Mainly Clear"
"-71.39","46.79","QUEBEC INTL A","7016293","2017-01-22 17:00","2017","01","22","17:00","","-3.8","","-8.9","","68","","","","6","","22","","40.2","","100.91","","","","-10","","NA"
"-71.39","46.79","QUEBEC INTL A","7016293","2017-01-22 18:00","2017","01","22","18:00","","-4.0","","-8.9","","69","","","","6","","24","","24.1","","100.98","","","","-11","","NA"
"-71.39","46.79","QUEBEC INTL A","7016293","2017-01-22 19:00","2017","01","22","19:00","","-3.2","","-7.9","","70","","","","8","","21","","24.1","","101.01","","","","-9","","Cloudy"
"-71.39","46.79","QUEBEC INTL A","7016293","2017-01-22 20:00","2017","01","22","20:00","","-3.2","","-7.4","","73","","","","7","","26","","24.1","","101.05","","","","-10","","NA"
"-71.39","46.79","QUEBEC INTL A","7016293","2017-01-22 21:00","2017","01","22","21:00","","-3.2","","-7.6","","72","","","","8","","27","","24.1","","101.09","","","","-10","","NA"
"-71.39","46.79","QUEBEC INTL A","7016293","2017-01-22 22:00","2017","01","22","22:00","","-3.4","","-7.9","","71","","","","8","","26","","24.1","","101.12","","","","-10","","Cloudy"
"-71.39","46.79","QUEBEC INTL A","7016293","2017-01-22 23:00","2017","01","22","23:00","","-3.4","","-7.9","","71","","","","9","","22","","24.1","","101.15","","","","-10","","NA"
"-71.39","46.79","QUEBEC INTL A","7016293","2017-01-23 00:00","2017","01","23","00:00","","-3.4","","-8.1","","70","","","","9","","24","","24.1","","101.21","","","","-10","","NA"
"-71.39","46.79","QUEBEC INTL A","7016293","2017-01-23 01:00","2017","01","23","01:00","","-3.5","","-8.2","","70","","","","8","","18","","24.1","","101.26","","","","-9","","Cloudy"
"-71.39","46.79","QUEBEC INTL A","7016293","2017-01-23 02:00","2017","01","23","02:00","","-3.4","","-7.9","","71","","","","7","","19","","24.1","","101.30","","","","-9","","NA"
"-71.39","46.79","QUEBEC INTL A","7016293","2017-01-23 03:00","2017","01","23","03:00","","-3.5","","-7.8","","72","","","","7","","16","","24.1","","101.26","","","","-9","","NA"
"-71.39","46.79","QUEBEC INTL A","7016293","2017-01-23 04:00","2017","01","23","04:00","","-3.6","","-7.4","","75","","","","6","","20","","24.1","","101.21","","","","-10","","Cloudy"
"-71.39","46.79","QUEBEC INTL A","7016293","2017-01-23 05:00","2017","01","23","05:00","","-3.6","","-7.8","","73","","","","7","","16","","24.1","","101.23","","","","-9","","NA"
"-71.39","46.79","QUEBEC INTL A","7016293","2017-01-23 06:00","2017","01","23","06:00","","-3.5","","-8.0","","71","","","","7","","16","","24.1","","101.30","","","","-9","","NA"
"-71.39","46.79","QUEBEC INTL A","7016293","2017-01-23 07:00","2017","01","23","07:00","","-3.7","","-8.2","","71","","","","7","","20","","24.1","","101.34","","","","-10","","Mostly Cloudy"
"-71.39","46.79","QUEBEC INTL A","7016293","2017-01-23 08:00","2017","01","23","08:00","","-3.8","","-8.3","","71","","","","7","","18","","24.1","","101.35","","","","-10","","NA"
"-71.39","46.79","QUEBEC INTL A","7016293","2017-01-23 09:00","2017","01","23","09:00","","-4.0","","-8.3","","72","","","","7","","30","","24.1","","101.34","","","","-12","","NA"
"-71.39","46.79","QUEBEC INTL A","7016293","2017-01-23 10:00","2017","01","23","10:00","","-4.2","","-8.2","","74","","","","7","","30","","24.1","","101.34","","","","-12","","Mostly Cloudy"
"-71.39","46.79","QUEBEC INTL A","7016293","2017-01-23 11:00","2017","01","23","11:00","","-4.4","","-8.2","","75","","","","9","","28","","24.1","","101.42","","","","-12","","NA"
"-71.39","46.79","QUEBEC INTL A","7016293","2017-01-23 12:00","2017","01","23","12:00","","-3.9","","-7.5","","76","","","","5","","30","","24.1","","101.36","","","","-12","","NA"
"-71.39","46.79","QUEBEC INTL A","7016293","2017-01-23 13:00","2017","01","23","13:00","","-3.9","","-7.7","","75","","","","5","","31","","48.3","","101.18","","","","-12","","Mainly Clear"
"-71.39","46.79","QUEBEC INTL A","7016293","2017-01-23 14:00","2017","01","23","14:00","","-3.3","","-8.2","","69","","","","6","","21","","48.3","","101.18","","","","-10","","NA"
"-71.39","46.79","QUEBEC INTL A","7016293","2017-01-23 15:00","2017","01","23","15:00","","-3.4","","-8.5","","68","","","","7","","18","","48.3","","101.21","","","","-9","","NA"
"-71.39","46.79","QUEBEC INTL A","7016293","2017-01-23 16:00","2017","01","23","16:00","","-3.6","","-8.3","","70","","","","8","","18","","48.3","","101.21","","","","-9","","Mostly Cloudy"
"-71.39","46.79","QUEBEC INTL A","7016293","2017-01-23 17:00","2017","01","23","17:00","","-4.1","","-7.9","","75","","","","7","","16","","48.3","","101.22","","","","-10","","NA"
"-71.39","46.79","QUEBEC INTL A","7016293","2017-01-23 18:00","2017","01","23","18:00","","-4.2","","-7.3","","79","","","","7","","22","","24.1","","101.21","","","","-11","","NA"
"-71.39","46.79","QUEBEC INTL A","7016293","2017-01-23 19:00","2017","01","23","19:00","","-4.3","","-7.1","","81","","","","7","","23","","24.1","","101.15","","","","-11","","Cloudy"
"-71.39","46.79","QUEBEC INTL A","7016293","2017-01-23 20:00","2017","01","23","20:00","","-4.2","","-6.8","","82","","","","7","","26","","24.1","","101.13","","","","-11","","NA"
"-71.39","46.79","QUEBEC INTL A","7016293","2017-01-23 21:00","2017","01","23","21:00","","-4.2","","-7.7","","77","","","","6","","19","","24.1","","101.16","","","","-10","","NA"
"-71.39","46.79","QUEBEC INTL A","7016293","2017-01-23 22:00","2017","01","23","22:00","","-4.1","","-7.4","","78","","","","7","","21","","24.1","","101.14","","","","-11","","Cloudy"
"-71.39","46.79","QUEBEC INTL A","7016293","2017-01-23 23:00","2017","01","23","23:00","","-4.0","","-7.8","","75","","","","6","","22","","24.1","","101.11","","","","-11","","NA"
"-71.39","46.79","QUEBEC INTL A","7016293","2017-01-24 00:00","2017","01","24","00:00","","-4.4","","-8.7","","72","","","","5","","23","","24.1","","101.04","","","","-11","","NA"
"-71.39","46.79","QUEBEC INTL A","7016293","2017-01-24 01:00","2017","01","24","01:00","","-4.5","","-9.2","","70","","","","6","","24","","24.1","","100.96","","","","-12","","Mostly Cloudy"
"-71.39","46.79","QUEBEC INTL A","7016293","2017-01-24 02:00","2017","01","24","02:00","","-4.2","","-9.1","","69","","","","6","","28","","24.1","","100.94","","","","-12","","NA"
"-71.39","46.79","QUEBEC INTL A","7016293","2017-01-24 03:00","2017","01","24","03:00","","-4.2","","-8.5","","72","","","","6","","24","","24.1","","100.93","","","","-11","","NA"
"-71.39","46.79","QUEBEC INTL A","7016293","2017-01-24 04:00","2017","01","24","04:00","","-3.8","","-8.7","","69","","","","6","","29","","24.1","","100.84","","","","-11","","Cloudy"
"-71.39","46.79","QUEBEC INTL A","7016293","2017-01-24 05:00","2017","01","24","05:00","","-3.5","","-9.0","","66","","","","7","","32","","24.1","","100.72","","","","-11","","NA"
"-71.39","46.79","QUEBEC INTL A","7016293","2017-01-24 06:00","2017","01","24","06:00","","-3.3","","-9.6","","62","","","","7","","27","","24.1","","100.63","","","","-10","","NA"
"-71.39","46.79","QUEBEC INTL A","7016293","2017-01-24 07:00","2017","01","24","07:00","","-2.7","","-12.0","","49","","","","7","","32","","24.1","","100.57","","","","-10","","Cloudy"
"-71.39","46.79","QUEBEC INTL A","7016293","2017-01-24 08:00","2017","01","24","08:00","","-2.8","","-11.6","","51","","","","7","","35","","32.2","","100.58","","","","-11","","Blowing Snow"
"-71.39","46.79","QUEBEC INTL A","7016293","2017-01-24 09:00","2017","01","24","09:00","","-2.4","","-12.0","","48","","","","6","","36","","32.2","","100.49","","","","-10","","Blowing Snow"
"-71.39","46.79","QUEBEC INTL A","7016293","2017-01-24 10:00","2017","01","24","10:00","","-2.5","","-12.4","","47","","","","7","","34","","32.2","","100.47","","","","-10","","Blowing Snow"
"-71.39","46.79","QUEBEC INTL A","7016293","2017-01-24 11:00","2017","01","24","11:00","","-2.4","","-12.5","","46","","","","7","","39","","32.2","","100.33","","","","-11","","Blowing Snow"
"-71.39","46.79","QUEBEC INTL A","7016293","2017-01-24 12:00","2017","01","24","12:00","","-2.0","","-13.3","","42","","","","6","","35","","32.2","","100.25","","","","-10","","Blowing Snow"
"-71.39","46.79","QUEBEC INTL A","7016293","2017-01-24 13:00","2017","01","24","13:00","","-3.6","","-7.9","","72","","","","6","","44","","4.8","","100.11","","","","-13","","Snow,Ice Pellets,Blowing Snow"
"-71.39","46.79","QUEBEC INTL A","7016293","2017-01-24 14:00","2017","01","24","14:00","","-3.4","","-7.0","","76","","","","7","","36","","4.8","","99.98","","","","-12","","Snow,Ice Pellets,Blowing Snow"
"-71.39","46.79","QUEBEC INTL A","7016293","2017-01-24 15:00","2017","01","24","15:00","","-3.5","","-6.3","","81","","","","7","","41","","8.1","","99.88","","","","-12","","Freezing Rain,Ice Pellets,Blowing Snow"
"-71.39","46.79","QUEBEC INTL A","7016293","2017-01-24 16:00","2017","01","24","16:00","","-3.4","","-5.9","","83","","","","7","","43","","9.7","","99.76","","","","-12","","Freezing Rain,Ice Pellets,Blowing Snow"
"-71.39","46.79","QUEBEC INTL A","7016293","2017-01-24 17:00","2017","01","24","17:00","","-3.2","","-5.9","","82","","","","7","","40","","9.7","","99.73","","","","-12","","Freezing Drizzle,Ice Pellets,Fog"
"-71.39","46.79","QUEBEC INTL A","7016293","2017-01-24 18:00","2017","01","24","18:00","","-2.9","","-5.4","","83","","","","7","","49","","12.9","","99.66","","","","-12","","Freezing Drizzle,Ice Pellets"
"-71.39","46.79","QUEBEC INTL A","7016293","2017-01-24 19:00","2017","01","24","19:00","","-2.4","","-5.1","","82","","","","7","","39","","12.9","","99.61","","","","-11","","Freezing Drizzle,Ice Pellets"
"-71.39","46.79","QUEBEC INTL A","7016293","2017-01-24 20:00","2017","01","24","20:00","","-1.9","","-4.4","","83","","","","7","","32","","16.1","","99.52","","","","-9","","Freezing Drizzle,Ice Pellets"
"-71.39","46.79","QUEBEC INTL A","7016293","2017-01-24 21:00","2017","01","24","21:00","","-1.6","","-3.6","","86","","","","7","","26","","16.1","","99.43","","","","-8","","Ice Pellets"
"-71.39","46.79","QUEBEC INTL A","7016293","2017-01-24 22:00","2017","01","24","22:00","","-1.4","","-3.1","","88","","","","6","","34","","6.4","","99.32","","","","-9","","Ice Pellets"
"-71.39","46.79","QUEBEC INTL A","7016293","2017-01-24 23:00","2017","01","24","23:00","","-1.2","","-2.8","","89","","","","6","","26","","6.4","","99.24","","","","-8","","Ice Pellets"
"-71.39","46.79","QUEBEC INTL A","7016293","2017-01-25 00:00","2017","01","25","00:00","","-1.5","","-3.1","","89","","","","7","","23","","8.1","","99.17","","","","-8","","Ice Pellets"
"-71.39","46.79","QUEBEC INTL A","7016293","2017-01-25 01:00","2017","01","25","01:00","","-1.6","","-3.5","","87","","","","7","","31","","9.7","","99.09","","","","-9","","Ice Pellets"
"-71.39","46.79","QUEBEC INTL A","7016293","2017-01-25 02:00","2017","01","25","02:00","","-1.9","","-2.9","","93","","","","7","","25","","0.4","","99.03","","","","-8","","Heavy Snow"
"-71.39","46.79","QUEBEC INTL A","7016293","2017-01-25 03:00","2017","01","25","03:00","","-1.4","","-2.2","","94","","","","6","","22","","0.8","","98.95","","","","-7","","Moderate Snow"
"-71.39","46.79","QUEBEC INTL A","7016293","2017-01-25 04:00","2017","01","25","04:00","","-1.1","","-2.5","","90","","","","7","","18","","11.3","","98.92","","","","-6","","Snow"
"-71.39","46.79","QUEBEC INTL A","7016293","2017-01-25 05:00","2017","01","25","05:00","","-1.0","","-2.7","","88","","","","8","","25","","12.9","","98.91","","","","-7","","NA"
"-71.39","46.79","QUEBEC INTL A","7016293","2017-01-25 06:00","2017","01","25","06:00","","-1.0","","-2.6","","89","","","","7","","15","","11.3","","98.91","","","","-6","","Freezing Drizzle"
"-71.39","46.79","QUEBEC INTL A","7016293","2017-01-25 07:00","2017","01","25","07:00","","-1.0","","-2.6","","89","","","","8","","16","","19.3","","98.92","","","","-6","","Freezing Drizzle"
"-71.39","46.79","QUEBEC INTL A","7016293","2017-01-25 08:00","2017","01","25","08:00","","-1.0","","-2.4","","90","","","","8","","11","","6.4","","98.94","","","","-5","","Snow"
"-71.39","46.79","QUEBEC INTL A","7016293","2017-01-25 09:00","2017","01","25","09:00","","-0.9","","-2.2","","91","","","","7","","8","","3.2","","98.97","","","","-4","","Snow,Fog"
"-71.39","46.79","QUEBEC INTL A","7016293","2017-01-25 10:00","2017","01","25","10:00","","-1.0","","-2.0","","93","","","","10","","7","","4.8","","99.00","","","","-4","","Snow,Fog"
"-71.39","46.79","QUEBEC INTL A","7016293","2017-01-25 11:00","2017","01","25","11:00","","-0.9","","-1.8","","94","","","","21","","4","","3.2","","98.96","","","","-2","","Snow,Fog"
"-71.39","46.79","QUEBEC INTL A","7016293","2017-01-25 12:00","2017","01","25","12:00","","-0.7","","-1.4","","95","","","","","","0","","2.4","","98.91","","","","","","Snow,Fog"
"-71.39","46.79","QUEBEC INTL A","7016293","2017-01-25 13:00","2017","01","25","13:00","","-0.4","","-1.3","","94","","","","22","","5","","1.6","","98.88","","","","-2","","Snow,Fog"
"-71.39","46.79","QUEBEC INTL A","7016293","2017-01-25 14:00","2017","01","25","14:00","","-0.8","","-1.5","","95","","","","24","","10","","1.6","","98.88","","","","-4","","Snow,Fog"
"-71.39","46.79","QUEBEC INTL A","7016293","2017-01-25 15:00","2017","01","25","15:00","","-0.7","","-1.6","","94","","","","23","","10","","6.4","","98.87","","","","-4","","Fog"
"-71.39","46.79","QUEBEC INTL A","7016293","2017-01-25 16:00","2017","01","25","16:00","","-0.8","","-1.7","","94","","","","27","","7","","8.1","","98.89","","","","-3","","Snow Grains,Fog"
"-71.39","46.79","QUEBEC INTL A","7016293","2017-01-25 17:00","2017","01","25","17:00","","-1.4","","-2.1","","95","","","","23","","16","","1.6","","98.94","","","","-6","","Snow Grains,Fog"
"-71.39","46.79","QUEBEC INTL A","7016293","2017-01-25 18:00","2017","01","25","18:00","","-1.5","","-2.5","","93","","","","24","","18","","4.8","","98.98","","","","-7","","Ice Pellets"
"-71.39","46.79","QUEBEC INTL A","7016293","2017-01-25 19:00","2017","01","25","19:00","","-1.7","","-2.7","","93","","","","24","","16","","6.4","","98.97","","","","-7","","Freezing Drizzle,Snow"
"-71.39","46.79","QUEBEC INTL A","7016293","2017-01-25 20:00","2017","01","25","20:00","","-1.7","","-2.5","","94","","","","24","","16","","2.8","","98.94","","","","-7","","Snow"
"-71.39","46.79","QUEBEC INTL A","7016293","2017-01-25 21:00","2017","01","25","21:00","","-2.1","","-2.9","","94","","","","23","","17","","2.4","","98.86","","","","-7","","Snow"
"-71.39","46.79","QUEBEC INTL A","7016293","2017-01-25 22:00","2017","01","25","22:00","","-2.2","","-3.0","","94","","","","24","","19","","4.0","","98.82","","","","-8","","Snow,Fog"
"-71.39","46.79","QUEBEC INTL A","7016293","2017-01-25 23:00","2017","01","25","23:00","","-2.4","","-3.7","","91","","","","24","","27","","8.1","","98.78","","","","-9","","Snow,Fog"
"-71.39","46.79","QUEBEC INTL A","7016293","2017-01-26 00:00","2017","01","26","00:00","","-2.4","","-3.5","","92","","","","24","","20","","8.1","","98.74","","","","-8","","Fog"
"-71.39","46.79","QUEBEC INTL A","7016293","2017-01-26 01:00","2017","01","26","01:00","","-2.5","","-3.6","","92","","","","24","","10","","8.1","","98.69","","","","-6","","Fog"
"-71.39","46.79","QUEBEC INTL A","7016293","2017-01-26 02:00","2017","01","26","02:00","","-2.5","","-3.5","","93","","","","25","","11","","4.0","","98.61","","","","-7","","Snow,Fog"
"-71.39","46.79","QUEBEC INTL A","7016293","2017-01-26 03:00","2017","01","26","03:00","","-2.7","","-3.5","","94","","","","21","","8","","6.4","","98.52","","","","-6","","Snow,Fog"
"-71.39","46.79","QUEBEC INTL A","7016293","2017-01-26 04:00","2017","01","26","04:00","","-2.7","","-3.5","","94","","","","26","","7","","3.2","","98.44","","","","-6","","Snow,Fog"
"-71.39","46.79","QUEBEC INTL A","7016293","2017-01-26 05:00","2017","01","26","05:00","","-2.9","","-3.6","","95","","","","23","","7","","2.4","","98.35","","","","-6","","Snow,Fog"
"-71.39","46.79","QUEBEC INTL A","7016293","2017-01-26 06:00","2017","01","26","06:00","","-2.7","","-3.4","","95","","","","25","","5","","4.0","","98.30","","","","-5","","Snow,Fog"
"-71.39","46.79","QUEBEC INTL A","7016293","2017-01-26 07:00","2017","01","26","07:00","","-2.6","","-3.3","","95","","","","23","","6","","4.8","","98.23","","","","-5","","Snow,Fog"
"-71.39","46.79","QUEBEC INTL A","7016293","2017-01-26 08:00","2017","01","26","08:00","","-2.3","","-3.1","","94","","","","22","","7","","6.4","","98.20","","","","-5","","Snow,Fog"
"-71.39","46.79","QUEBEC INTL A","7016293","2017-01-26 09:00","2017","01","26","09:00","","-1.8","","-2.6","","94","","","","23","","10","","4.8","","98.11","","","","-5","","Fog"
"-71.39","46.79","QUEBEC INTL A","7016293","2017-01-26 10:00","2017","01","26","10:00","","-1.3","","-2.0","","95","","","","27","","8","","3.6","","98.07","","","","-4","","Fog"
"-71.39","46.79","QUEBEC INTL A","7016293","2017-01-26 11:00","2017","01","26","11:00","","-0.9","","-1.6","","95","","","","25","","12","","3.2","","97.99","","","","-5","","Snow,Fog"
"-71.39","46.79","QUEBEC INTL A","7016293","2017-01-26 12:00","2017","01","26","12:00","","-0.6","","-1.3","","95","","","","26","","15","","3.2","","97.83","","","","-5","","Ice Pellets,Fog"
"-71.39","46.79","QUEBEC INTL A","7016293","2017-01-26 13:00","2017","01","26","13:00","","0.0","","-1.0","","93","","","","24","","20","","9.7","","97.72","","","","-5","","Ice Pellets,Fog"
"-71.39","46.79","QUEBEC INTL A","7016293","2017-01-26 14:00","2017","01","26","14:00","","0.2","","-1.1","","91","","","","24","","19","","14.5","","97.67","","","","","","NA"
"-71.39","46.79","QUEBEC INTL A","7016293","2017-01-26 15:00","2017","01","26","15:00","","0.1","","-1.2","","91","","","","25","","22","","6.4","","97.67","","","","","","Snow Showers"
"-71.39","46.79","QUEBEC INTL A","7016293","2017-01-26 16:00","2017","01","26","16:00","","-0.5","","-2.3","","88","","","","26","","18","","16.1","","97.69","","","","-6","","Snow"
"-71.39","46.79","QUEBEC INTL A","7016293","2017-01-26 17:00","2017","01","26","17:00","","-1.0","","-4.9","","75","","","","29","","26","","9.7","","97.72","","","","-7","","Snow"
"-71.39","46.79","QUEBEC INTL A","7016293","2017-01-26 18:00","2017","01","26","18:00","","-2.0","","-5.0","","80","","","","26","","16","","24.1","","97.76","","","","-7","","NA"
"-71.39","46.79","QUEBEC INTL A","7016293","2017-01-26 19:00","2017","01","26","19:00","","-2.2","","-4.9","","82","","","","25","","16","","12.9","","97.73","","","","-7","","Snow"
"-71.39","46.79","QUEBEC INTL A","7016293","2017-01-26 20:00","2017","01","26","20:00","","-2.6","","-4.2","","89","","","","25","","22","","16.1","","97.71","","","","-9","","Snow"
"-71.39","46.79","QUEBEC INTL A","7016293","2017-01-26 21:00","2017","01","26","21:00","","-2.4","","-4.3","","87","","","","26","","26","","16.1","","97.70","","","","-9","","Snow"
"-71.39","46.79","QUEBEC INTL A","7016293","2017-01-26 22:00","2017","01","26","22:00","","-2.5","","-5.0","","83","","","","25","","26","","16.1","","97.71","","","","-9","","Snow"
"-71.39","46.79","QUEBEC INTL A","7016293","2017-01-26 23:00","2017","01","26","23:00","","-3.5","","-6.8","","78","","","","27","","25","","16.1","","97.76","","","","-10","","Snow"
"-71.39","46.79","QUEBEC INTL A","7016293","2017-01-27 00:00","2017","01","27","00:00","","-4.0","","-6.2","","85","","","","25","","22","","12.9","","97.78","","","","-11","","Snow"
"-71.39","46.79","QUEBEC INTL A","7016293","2017-01-27 01:00","2017","01","27","01:00","","-4.1","","-6.4","","84","","","","27","","26","","6.4","","97.79","","","","-11","","Snow"
"-71.39","46.79","QUEBEC INTL A","7016293","2017-01-27 02:00","2017","01","27","02:00","","-4.5","","-6.7","","85","","","","27","","23","","6.4","","97.86","","","","-11","","Snow"
"-71.39","46.79","QUEBEC INTL A","7016293","2017-01-27 03:00","2017","01","27","03:00","","-5.0","","-8.9","","74","","","","27","","40","","12.9","","97.93","","","","-14","","Snow"
"-71.39","46.79","QUEBEC INTL A","7016293","2017-01-27 04:00","2017","01","27","04:00","","-5.5","","-8.1","","82","","","","28","","21","","4.8","","97.97","","","","-12","","Snow"
"-71.39","46.79","QUEBEC INTL A","7016293","2017-01-27 05:00","2017","01","27","05:00","","-5.2","","-8.1","","80","","","","25","","20","","16.1","","97.95","","","","-12","","Snow"
"-71.39","46.79","QUEBEC INTL A","7016293","2017-01-27 06:00","2017","01","27","06:00","","-4.8","","-8.1","","78","","","","26","","24","","24.1","","97.96","","","","-12","","NA"
"-71.39","46.79","QUEBEC INTL A","7016293","2017-01-27 07:00","2017","01","27","07:00","","-5.0","","-7.9","","80","","","","27","","27","","6.4","","97.99","","","","-13","","Snow"
"-71.39","46.79","QUEBEC INTL A","7016293","2017-01-27 08:00","2017","01","27","08:00","","-5.0","","-8.3","","78","","","","25","","25","","16.1","","98.05","","","","-12","","Snow"
"-71.39","46.79","QUEBEC INTL A","7016293","2017-01-27 09:00","2017","01","27","09:00","","-4.9","","-8.3","","77","","","","27","","36","","16.1","","98.09","","","","-14","","Snow,Blowing Snow"
"-71.39","46.79","QUEBEC INTL A","7016293","2017-01-27 10:00","2017","01","27","10:00","","-4.7","","-9.6","","69","","","","27","","38","","24.1","","98.12","","","","-13","","Blowing Snow"
"-71.39","46.79","QUEBEC INTL A","7016293","2017-01-27 11:00","2017","01","27","11:00","","-4.3","","-9.4","","68","","","","27","","28","","16.1","","98.10","","","","-12","","Snow,Blowing Snow"
"-71.39","46.79","QUEBEC INTL A","7016293","2017-01-27 12:00","2017","01","27","12:00","","-4.2","","-9.3","","68","","","","27","","32","","16.1","","98.03","","","","-12","","Snow,Blowing Snow"
"-71.39","46.79","QUEBEC INTL A","7016293","2017-01-27 13:00","2017","01","27","13:00","","-3.9","","-8.8","","69","","","","27","","31","","16.1","","97.98","","","","-12","","Snow,Blowing Snow"
"-71.39","46.79","QUEBEC INTL A","7016293","2017-01-27 14:00","2017","01","27","14:00","","-4.1","","-9.4","","67","","","","27","","27","","16.1","","97.96","","","","-11","","Snow,Blowing Snow"
"-71.39","46.79","QUEBEC INTL A","7016293","2017-01-27 15:00","2017","01","27","15:00","","-4.2","","-9.6","","66","","","","28","","25","","32.2","","97.97","","","","-11","","Snow"
"-71.39","46.79","QUEBEC INTL A","7016293","2017-01-27 16:00","2017","01","27","16:00","","-4.3","","-10.5","","62","","","","27","","27","","32.2","","97.98","","","","-12","","Mostly Cloudy"
"-71.39","46.79","QUEBEC INTL A","7016293","2017-01-27 17:00","2017","01","27","17:00","","-4.7","","-9.7","","68","","","","28","","22","","32.2","","98.03","","","","-12","","NA"
"-71.39","46.79","QUEBEC INTL A","7016293","2017-01-27 18:00","2017","01","27","18:00","","-5.2","","-9.9","","70","","","","27","","22","","24.1","","98.03","","","","-12","","NA"
"-71.39","46.79","QUEBEC INTL A","7016293","2017-01-27 19:00","2017","01","27","19:00","","-5.3","","-10.3","","68","","","","27","","32","","16.1","","98.05","","","","-14","","Snow Showers"
"-71.39","46.79","QUEBEC INTL A","7016293","2017-01-27 20:00","2017","01","27","20:00","","-5.7","","-9.1","","77","","","","26","","26","","24.1","","98.09","","","","-13","","Snow Showers"
"-71.39","46.79","QUEBEC INTL A","7016293","2017-01-27 21:00","2017","01","27","21:00","","-5.9","","-9.5","","76","","","","26","","23","","24.1","","98.11","","","","-13","","NA"
"-71.39","46.79","QUEBEC INTL A","7016293","2017-01-27 22:00","2017","01","27","22:00","","-6.1","","-10.2","","73","","","","24","","24","","24.1","","98.09","","","","-14","","Snow Showers"
"-71.39","46.79","QUEBEC INTL A","7016293","2017-01-27 23:00","2017","01","27","23:00","","-6.3","","-10.0","","75","","","","26","","24","","24.1","","98.11","","","","-14","","Snow"
"-71.39","46.79","QUEBEC INTL A","7016293","2017-01-28 00:00","2017","01","28","00:00","","-6.4","","-9.8","","77","","","","25","","19","","24.1","","98.15","","","","-13","","Snow"
"-71.39","46.79","QUEBEC INTL A","7016293","2017-01-28 01:00","2017","01","28","01:00","","-6.3","","-9.9","","76","","","","24","","19","","24.1","","98.16","","","","-13","","Snow"
"-71.39","46.79","QUEBEC INTL A","7016293","2017-01-28 02:00","2017","01","28","02:00","","-6.5","","-10.1","","76","","","","23","","18","","24.1","","98.19","","","","-13","","Snow"
"-71.39","46.79","QUEBEC INTL A","7016293","2017-01-28 03:00","2017","01","28","03:00","","-6.7","","-10.1","","77","","","","22","","17","","24.1","","98.23","","","","-13","","Snow"
"-71.39","46.79","QUEBEC INTL A","7016293","2017-01-28 04:00","2017","01","28","04:00","","-6.7","","-9.6","","80","","","","24","","20","","12.9","","98.26","","","","-14","","Snow"
"-71.39","46.79","QUEBEC INTL A","7016293","2017-01-28 05:00","2017","01","28","05:00","","-6.3","","-9.9","","76","","","","26","","24","","24.1","","98.31","","","","-14","","NA"
"-71.39","46.79","QUEBEC INTL A","7016293","2017-01-28 06:00","2017","01","28","06:00","","-6.5","","-9.9","","77","","","","25","","21","","24.1","","98.38","","","","-14","","Snow"
"-71.39","46.79","QUEBEC INTL A","7016293","2017-01-28 07:00","2017","01","28","07:00","","-7.1","","-10.6","","76","","","","25","","22","","24.1","","98.43","","","","-15","","Mostly Cloudy"
"-71.39","46.79","QUEBEC INTL A","7016293","2017-01-28 08:00","2017","01","28","08:00","","-6.8","","-10.4","","76","","","","25","","24","","24.1","","98.49","","","","-14","","NA"
"-71.39","46.79","QUEBEC INTL A","7016293","2017-01-28 09:00","2017","01","28","09:00","","-6.1","","-10.2","","73","","","","25","","30","","24.1","","98.52","","","","-14","","NA"
"-71.39","46.79","QUEBEC INTL A","7016293","2017-01-28 10:00","2017","01","28","10:00","","-4.9","","-9.6","","70","","","","26","","30","","24.1","","98.57","","","","-13","","Mostly Cloudy"
"-71.39","46.79","QUEBEC INTL A","7016293","2017-01-28 11:00","2017","01","28","11:00","","-4.4","","-9.5","","68","","","","25","","30","","32.2","","98.59","","","","-12","","NA"
"-71.39","46.79","QUEBEC INTL A","7016293","2017-01-28 12:00","2017","01","28","12:00","","-3.9","","-9.2","","67","","","","25","","23","","32.2","","98.58","","","","-11","","NA"
"-71.39","46.79","QUEBEC INTL A","7016293","2017-01-28 13:00","2017","01","28","13:00","","-3.7","","-8.4","","70","","","","25","","25","","48.3","","98.59","","","","-11","","Cloudy"
"-71.39","46.79","QUEBEC INTL A","7016293","2017-01-28 14:00","2017","01","28","14:00","","-3.4","","-7.6","","73","","","","25","","28","","48.3","","98.62","","","","-11","","NA"
"-71.39","46.79","QUEBEC INTL A","7016293","2017-01-28 15:00","2017","01","28","15:00","","-3.1","","-7.3","","73","","","","25","","26","","48.3","","98.64","","","","-10","","NA"
"-71.39","46.79","QUEBEC INTL A","7016293","2017-01-28 16:00","2017","01","28","16:00","","-3.1","","-7.1","","74","","","","25","","18","","48.3","","98.69","","","","-9","","Mostly Cloudy"
"-71.39","46.79","QUEBEC INTL A","7016293","2017-01-28 17:00","2017","01","28","17:00","","-3.4","","-6.7","","78","","","","25","","13","","24.1","","98.72","","","","-8","","NA"
"-71.39","46.79","QUEBEC INTL A","7016293","2017-01-28 18:00","2017","01","28","18:00","","-3.4","","-6.5","","79","","","","26","","14","","24.1","","98.76","","","","-8","","NA"
"-71.39","46.79","QUEBEC INTL A","7016293","2017-01-28 19:00","2017","01","28","19:00","","-3.6","","-6.4","","81","","","","26","","12","","24.1","","98.79","","","","-8","","Cloudy"
"-71.39","46.79","QUEBEC INTL A","7016293","2017-01-28 20:00","2017","01","28","20:00","","-3.4","","-6.2","","81","","","","26","","16","","24.1","","98.78","","","","-9","","NA"
"-71.39","46.79","QUEBEC INTL A","7016293","2017-01-28 21:00","2017","01","28","21:00","","-3.5","","-6.1","","82","","","","25","","14","","24.1","","98.82","","","","-9","","NA"
"-71.39","46.79","QUEBEC INTL A","7016293","2017-01-28 22:00","2017","01","28","22:00","","-4.1","","-6.6","","83","","","","26","","13","","24.1","","98.82","","","","-9","","Cloudy"
"-71.39","46.79","QUEBEC INTL A","7016293","2017-01-28 23:00","2017","01","28","23:00","","-4.1","","-6.7","","82","","","","25","","12","","24.1","","98.85","","","","-9","","NA"
"-71.39","46.79","QUEBEC INTL A","7016293","2017-01-29 00:00","2017","01","29","00:00","","-4.7","","-7.0","","84","","","","26","","11","","24.1","","98.87","","","","-9","","NA"
"-71.39","46.79","QUEBEC INTL A","7016293","2017-01-29 01:00","2017","01","29","01:00","","-4.3","","-6.6","","84","","","","24","","10","","24.1","","98.87","","","","-8","","Cloudy"
"-71.39","46.79","QUEBEC INTL A","7016293","2017-01-29 02:00","2017","01","29","02:00","","-4.0","","-5.9","","87","","","","23","","8","","8.1","","98.86","","","","-7","","Snow"
"-71.39","46.79","QUEBEC INTL A","7016293","2017-01-29 03:00","2017","01","29","03:00","","-4.3","","-5.6","","91","","","","18","","3","","4.8","","98.85","","","","-6","","Snow"
"-71.39","46.79","QUEBEC INTL A","7016293","2017-01-29 04:00","2017","01","29","04:00","","-4.2","","-5.3","","92","","","","","","0","","12.9","","98.84","","","","","","Snow"
"-71.39","46.79","QUEBEC INTL A","7016293","2017-01-29 05:00","2017","01","29","05:00","","-4.2","","-5.2","","93","","","","","","0","","24.1","","98.85","","","","","","NA"
"-71.39","46.79","QUEBEC INTL A","7016293","2017-01-29 06:00","2017","01","29","06:00","","-4.2","","-5.2","","93","","","","","","0","","12.9","","98.85","","","","","","Snow Showers"
"-71.39","46.79","QUEBEC INTL A","7016293","2017-01-29 07:00","2017","01","29","07:00","","-4.3","","-5.3","","93","","","","1","","5","","6.4","","98.85","","","","-6","","Snow Showers"
"-71.39","46.79","QUEBEC INTL A","7016293","2017-01-29 08:00","2017","01","29","08:00","","-4.2","","-5.0","","94","","","","","","0","","9.7","","98.86","","","","","","Snow Showers"
"-71.39","46.79","QUEBEC INTL A","7016293","2017-01-29 09:00","2017","01","29","09:00","","-4.0","","-5.1","","92","","","","35","","3","","1.6","","98.89","","","","-5","","Snow Showers"
"-71.39","46.79","QUEBEC INTL A","7016293","2017-01-29 10:00","2017","01","29","10:00","","-3.3","","-4.4","","92","","","","23","","4","","1.6","","98.92","","","","-5","","Snow Showers"
"-71.39","46.79","QUEBEC INTL A","7016293","2017-01-29 11:00","2017","01","29","11:00","","-1.8","","-4.6","","81","","","","25","","13","","12.9","","98.96","","","","-6","","NA"
"-71.39","46.79","QUEBEC INTL A","7016293","2017-01-29 12:00","2017","01","29","12:00","","-1.3","","-7.1","","65","","","","30","","16","","16.1","","98.95","","","","-6","","NA"
"-71.39","46.79","QUEBEC INTL A","7016293","2017-01-29 13:00","2017","01","29","13:00","","-1.0","","-7.4","","62","","","","27","","16","","40.2","","98.96","","","","-6","","Mostly Cloudy"
"-71.39","46.79","QUEBEC INTL A","7016293","2017-01-29 14:00","2017","01","29","14:00","","-2.0","","-7.3","","67","","","","25","","22","","48.3","","99.02","","","","-8","","NA"
"-71.39","46.79","QUEBEC INTL A","7016293","2017-01-29 15:00","2017","01","29","15:00","","-3.0","","-8.1","","68","","","","25","","23","","48.3","","99.13","","","","-9","","NA"
"-71.39","46.79","QUEBEC INTL A","7016293","2017-01-29 16:00","2017","01","29","16:00","","-3.7","","-10.4","","60","","","","26","","22","","48.3","","99.21","","","","-10","","Mostly Cloudy"
"-71.39","46.79","QUEBEC INTL A","7016293","2017-01-29 17:00","2017","01","29","17:00","","-4.5","","-11.4","","59","","","","28","","17","","48.3","","99.31","","","","-10","","NA"
"-71.39","46.79","QUEBEC INTL A","7016293","2017-01-29 18:00","2017","01","29","18:00","","-5.5","","-12.3","","59","","","","29","","11","","24.1","","99.39","","","","-10","","NA"
"-71.39","46.79","QUEBEC INTL A","7016293","2017-01-29 19:00","2017","01","29","19:00","","-8.1","","-13.2","","67","","","","26","","7","","24.1","","99.45","","","","-12","","Mainly Clear"
"-71.39","46.79","QUEBEC INTL A","7016293","2017-01-29 20:00","2017","01","29","20:00","","-8.7","","-12.5","","74","","","","25","","8","","24.1","","99.48","","","","-13","","NA"
"-71.39","46.79","QUEBEC INTL A","7016293","2017-01-29 21:00","2017","01","29","21:00","","-11.3","","-14.3","","79","","","","23","","10","","24.1","","99.49","","","","-17","","NA"
"-71.39","46.79","QUEBEC INTL A","7016293","2017-01-29 22:00","2017","01","29","22:00","","-13.1","","-15.6","","82","","","","","","0","","24.1","","99.50","","","","","","Mainly Clear"
"-71.39","46.79","QUEBEC INTL A","7016293","2017-01-29 23:00","2017","01","29","23:00","","-9.8","","-13.8","","73","","","","32","","10","","24.1","","99.50","","","","-15","","NA"
"-71.39","46.79","QUEBEC INTL A","7016293","2017-01-30 00:00","2017","01","30","00:00","","-10.2","","-15.2","","67","","","","28","","6","","24.1","","99.50","","","","-14","","NA"
"-71.39","46.79","QUEBEC INTL A","7016293","2017-01-30 01:00","2017","01","30","01:00","","-10.5","","-14.1","","75","","","","1","","6","","24.1","","99.50","","","","-14","","Mainly Clear"
"-71.39","46.79","QUEBEC INTL A","7016293","2017-01-30 02:00","2017","01","30","02:00","","-10.4","","-14.4","","73","","","","33","","12","","24.1","","99.50","","","","-16","","NA"
"-71.39","46.79","QUEBEC INTL A","7016293","2017-01-30 03:00","2017","01","30","03:00","","-9.3","","-14.2","","68","","","","","","0","","24.1","","99.54","","","","","","NA"
"-71.39","46.79","QUEBEC INTL A","7016293","2017-01-30 04:00","2017","01","30","04:00","","-10.4","","-14.0","","75","","","","25","","4","","24.1","","99.56","","","","-13","","Mostly Cloudy"
"-71.39","46.79","QUEBEC INTL A","7016293","2017-01-30 05:00","2017","01","30","05:00","","-10.1","","-14.9","","68","","","","1","","5","","24.1","","99.58","","","","-13","","NA"
"-71.39","46.79","QUEBEC INTL A","7016293","2017-01-30 06:00","2017","01","30","06:00","","-11.3","","-14.6","","77","","","","","","0","","24.1","","99.59","","","","","","NA"
"-71.39","46.79","QUEBEC INTL A","7016293","2017-01-30 07:00","2017","01","30","07:00","","-11.5","","-15.3","","74","","","","26","","11","","24.1","","99.65","","","","-17","","Cloudy"
"-71.39","46.79","QUEBEC INTL A","7016293","2017-01-30 08:00","2017","01","30","08:00","","-11.9","","-14.8","","79","","","","22","","15","","24.1","","99.71","","","","-19","","Snow"
"-71.39","46.79","QUEBEC INTL A","7016293","2017-01-30 09:00","2017","01","30","09:00","","-11.1","","-14.4","","77","","","","24","","19","","9.7","","99.77","","","","-19","","Snow"
"-71.39","46.79","QUEBEC INTL A","7016293","2017-01-30 10:00","2017","01","30","10:00","","-10.7","","-13.5","","80","","","","24","","17","","6.4","","99.80","","","","-18","","Snow"
"-71.39","46.79","QUEBEC INTL A","7016293","2017-01-30 11:00","2017","01","30","11:00","","-10.5","","-14.6","","72","","","","22","","21","","32.2","","99.79","","","","-19","","NA"
"-71.39","46.79","QUEBEC INTL A","7016293","2017-01-30 12:00","2017","01","30","12:00","","-9.6","","-13.6","","73","","","","23","","24","","32.2","","99.78","","","","-18","","NA"
"-71.39","46.79","QUEBEC INTL A","7016293","2017-01-30 13:00","2017","01","30","13:00","","-8.7","","-13.8","","67","","","","23","","21","","40.2","","99.77","","","","-16","","Cloudy"
"-71.39","46.79","QUEBEC INTL A","7016293","2017-01-30 14:00","2017","01","30","14:00","","-8.5","","-13.8","","66","","","","23","","23","","48.3","","99.77","","","","-17","","NA"
"-71.39","46.79","QUEBEC INTL A","7016293","2017-01-30 15:00","2017","01","30","15:00","","-8.5","","-13.6","","67","","","","23","","29","","48.3","","99.80","","","","-17","","NA"
"-71.39","46.79","QUEBEC INTL A","7016293","2017-01-30 16:00","2017","01","30","16:00","","-9.1","","-14.0","","68","","","","24","","23","","24.1","","99.86","","","","-17","","Mostly Cloudy"
"-71.39","46.79","QUEBEC INTL A","7016293","2017-01-30 17:00","2017","01","30","17:00","","-9.8","","-14.5","","69","","","","25","","18","","24.1","","99.93","","","","-17","","NA"
"-71.39","46.79","QUEBEC INTL A","7016293","2017-01-30 18:00","2017","01","30","18:00","","-10.3","","-13.9","","75","","","","26","","16","","16.1","","99.97","","","","-17","","Snow"
"-71.39","46.79","QUEBEC INTL A","7016293","2017-01-30 19:00","2017","01","30","19:00","","-10.3","","-13.0","","81","","","","25","","17","","16.1","","100.01","","","","-18","","Snow"
"-71.39","46.79","QUEBEC INTL A","7016293","2017-01-30 20:00","2017","01","30","20:00","","-10.3","","-13.0","","81","","","","24","","16","","24.1","","100.04","","","","-17","","Snow"
"-71.39","46.79","QUEBEC INTL A","7016293","2017-01-30 21:00","2017","01","30","21:00","","-10.3","","-12.8","","82","","","","25","","14","","24.1","","100.04","","","","-17","","Snow"
"-71.39","46.79","QUEBEC INTL A","7016293","2017-01-30 22:00","2017","01","30","22:00","","-10.4","","-13.1","","81","","","","26","","13","","24.1","","100.03","","","","-17","","Cloudy"
"-71.39","46.79","QUEBEC INTL A","7016293","2017-01-30 23:00","2017","01","30","23:00","","-10.2","","-14.5","","71","","","","28","","11","","24.1","","100.08","","","","-16","","NA"
"-71.39","46.79","QUEBEC INTL A","7016293","2017-01-31 00:00","2017","01","31","00:00","","-10.2","","-15.0","","68","","","","27","","12","","24.1","","100.11","","","","-16","","NA"
"-71.39","46.79","QUEBEC INTL A","7016293","2017-01-31 01:00","2017","01","31","01:00","","-10.4","","-15.2","","68","","","","28","","14","","24.1","","100.12","","","","-17","","Cloudy"
"-71.39","46.79","QUEBEC INTL A","7016293","2017-01-31 02:00","2017","01","31","02:00","","-11.3","","-15.6","","71","","","","28","","16","","24.1","","100.18","","","","-19","","NA"
"-71.39","46.79","QUEBEC INTL A","7016293","2017-01-31 03:00","2017","01","31","03:00","","-11.9","","-16.2","","71","","","","28","","12","","24.1","","100.21","","","","-18","","NA"
"-71.39","46.79","QUEBEC INTL A","7016293","2017-01-31 04:00","2017","01","31","04:00","","-15.1","","-18.3","","77","","","","27","","12","","24.1","","100.23","","","","-22","","Mainly Clear"
"-71.39","46.79","QUEBEC INTL A","7016293","2017-01-31 05:00","2017","01","31","05:00","","-16.4","","-19.4","","78","","","","26","","11","","24.1","","100.26","","","","-23","","NA"
"-71.39","46.79","QUEBEC INTL A","7016293","2017-01-31 06:00","2017","01","31","06:00","","-15.7","","-18.9","","77","","","","24","","14","","24.1","","100.27","","","","-23","","NA"
"-71.39","46.79","QUEBEC INTL A","7016293","2017-01-31 07:00","2017","01","31","07:00","","-15.8","","-18.7","","79","","","","25","","12","","48.3","","100.29","","","","-23","","Mostly Cloudy"
"-71.39","46.79","QUEBEC INTL A","7016293","2017-01-31 08:00","2017","01","31","08:00","","-14.3","","-17.7","","76","","","","24","","13","","48.3","","100.37","","","","-21","","NA"
"-71.39","46.79","QUEBEC INTL A","7016293","2017-01-31 09:00","2017","01","31","09:00","","-13.3","","-17.2","","73","","","","25","","13","","48.3","","100.43","","","","-20","","Snow"
"-71.39","46.79","QUEBEC INTL A","7016293","2017-01-31 10:00","2017","01","31","10:00","","-12.3","","-17.1","","68","","","","27","","16","","9.7","","100.44","","","","-20","","Snow"
"-71.39","46.79","QUEBEC INTL A","7016293","2017-01-31 11:00","2017","01","31","11:00","","-12.3","","-16.5","","71","","","","27","","13","","4.8","","100.44","","","","-19","","Snow"
"-71.39","46.79","QUEBEC INTL A","7016293","2017-01-31 12:00","2017","01","31","12:00","","-12.0","","-16.8","","68","","","","27","","15","","24.1","","100.39","","","","-19","","Snow"
"-71.39","46.79","QUEBEC INTL A","7016293","2017-01-31 13:00","2017","01","31","13:00","","-11.4","","-16.7","","65","","","","26","","12","","48.3","","100.34","","","","-18","","Mostly Cloudy"
"-71.39","46.79","QUEBEC INTL A","7016293","2017-01-31 14:00","2017","01","31","14:00","","-10.9","","-16.6","","63","","","","24","","12","","48.3","","100.31","","","","-17","","NA"
"-71.39","46.79","QUEBEC INTL A","7016293","2017-01-31 15:00","2017","01","31","15:00","","-11.2","","-16.7","","64","","","","21","","10","","48.3","","100.33","","","","-17","","NA"
"-71.39","46.79","QUEBEC INTL A","7016293","2017-01-31 16:00","2017","01","31","16:00","","-11.3","","-16.7","","65","","","","26","","10","","48.3","","100.33","","","","-17","","Mainly Clear"
"-71.39","46.79","QUEBEC INTL A","7016293","2017-01-31 17:00","2017","01","31","17:00","","-12.4","","-17.3","","67","","","","27","","6","","48.3","","100.35","","","","-16","","NA"
"-71.39","46.79","QUEBEC INTL A","7016293","2017-01-31 18:00","2017","01","31","18:00","","-15.6","","-18.9","","76","","","","32","","3","","24.1","","100.37","","","","-18","","NA"
"-71.39","46.79","QUEBEC INTL A","7016293","2017-01-31 19:00","2017","01","31","19:00","","-16.3","","-19.1","","79","","","","35","","4","","24.1","","100.38","","","","-19","","Clear"
"-71.39","46.79","QUEBEC INTL A","7016293","2017-01-31 20:00","2017","01","31","20:00","","-16.7","","-19.4","","80","","","","36","","7","","24.1","","100.38","","","","-22","","NA"
"-71.39","46.79","QUEBEC INTL A","7016293","2017-01-31 21:00","2017","01","31","21:00","","-16.1","","-19.3","","77","","","","1","","7","","24.1","","100.36","","","","-21","","NA"
"-71.39","46.79","QUEBEC INTL A","7016293","2017-01-31 22:00","2017","01","31","22:00","","-16.8","","-19.8","","78","","","","6","","6","","24.1","","100.35","","","","-21","","Clear"
"-71.39","46.79","QUEBEC INTL A","7016293","2017-01-31 23:00","2017","01","31","23:00","","-17.1","","-20.2","","77","","","","2","","9","","24.1","","100.34","","","","-23","","NA"
