"Longitude (x)","Latitude (y)","Station Name","Climate ID","Date/Time (LST)","Year","Month","Day","Time (LST)","Flag","Temp (°C)","Temp Flag","Dew Point Temp (°C)","Dew Point Temp Flag","Rel Hum (%)","Rel Hum Flag","Precip. Amount (mm)","Precip. Amount Flag","Wind Dir (10s deg)","Wind Dir Flag","Wind Spd (km/h)","Wind Spd Flag","Visibility (km)","Visibility Flag","Stn Press (kPa)","Stn Press Flag","Hmdx","Hmdx Flag","Wind Chill","Wind Chill Flag","Weather"
"-71.39","46.79","QUEBEC INTL A","7016293","2025-03-01 00:00","2025","03","01","00:00","","-10.7","","-16.1","","65","","","","7","","21","","19.3","","99.67","","","","-19","","Snow"
"-71.39","46.79","QUEBEC INTL A","7016293","2025-03-01 01:00","2025","03","01","01:00","","-11.1","","-14.8","","74","","","","8","","27","","4.8","","99.54","","","","-21","","Snow"
"-71.39","46.79","QUEBEC INTL A","7016293","2025-03-01 02:00","2025","03","01","02:00","","-11.5","","-12.9","","90","","","","7","","27","","1.2","","99.41","","","","-21","","Snow,Blowing Snow"
"-71.39","46.79","QUEBEC INTL A","7016293","2025-03-01 03:00","2025","03","01","03:00","","-11.1","","-12.4","","90","","","","7","","34","","1.2","","99.24","","","","-22","","Snow,Blowing Snow"
"-71.39","46.79","QUEBEC INTL A","7016293","2025-03-01 04:00","2025","03","01","04:00","","-10.4","","-11.7","","91","","","","8","","35","","0.8","","99.14","","","","-21","","Moderate Snow,Blowing Snow"
"-71.39","46.79","QUEBEC INTL A","7016293","2025-03-01 05:00","2025","03","01","05:00","","-10.2","","-11.4","","91","","","","9","","34","","1.2","","99.04","","","","-20","","Snow,Blowing Snow"
"-71.39","46.79","QUEBEC INTL A","7016293","2025-03-01 06:00","2025","03","01","06:00","","-9.9","","-11.2","","90","","","","7","","34","","1.2","","98.92","","","","-20","","Snow,Blowing Snow"
"-71.39","46.79","QUEBEC INTL A","7016293","2025-03-01 07:00","2025","03","01","07:00","","-9.7","","-10.8","","92","","","","7","","28","","1.2","","98.87","","","","-19","","Snow,Blowing Snow"
"-71.39","46.79","QUEBEC INTL A","7016293","2025-03-01 08:00","2025","03","01","08:00","","-9.3","","-10.4","","92","","","","6","","32","","1.6","","98.81","","","","-19","","Snow,Blowing Snow"
"-71.39","46.79","QUEBEC INTL A","7016293","2025-03-01 09:00","2025","03","01","09:00","","-8.7","","-9.9","","91","","","","6","","31","","1.2","","98.73","","","","-18","","Snow,Blowing Snow"
"-71.39","46.79","QUEBEC INTL A","7016293","2025-03-01 10:00","2025","03","01","10:00","","-8.3","","-9.5","","91","","","","7","","30","","1.0","","98.66","","","","-17","","Snow,Blowing Snow"
"-71.39","46.79","QUEBEC INTL A","7016293","2025-03-01 11:00","2025","03","01","11:00","","-7.9","","-9.0","","91","","","","7","","25","","2.0","","98.67","","","","-16","","Snow,Blowing Snow"
"-71.39","46.79","QUEBEC INTL A","7016293","2025-03-01 12:00","2025","03","01","12:00","","-7.0","","-8.4","","90","","","","7","","23","","19.3","","98.57","","","","-15","","Snow,Blowing Snow"
"-71.39","46.79","QUEBEC INTL A","7016293","2025-03-01 13:00","2025","03","01","13:00","","-6.4","","-8.0","","89","","","","7","","20","","19.3","","98.57","","","","-13","","Snow Showers,Snow Pellets,Blowing Snow"
"-71.39","46.79","QUEBEC INTL A","7016293","2025-03-01 14:00","2025","03","01","14:00","","-6.0","","-7.1","","92","","","","8","","22","","1.6","","98.59","","","","-13","","Snow Showers,Snow Pellets,Blowing Snow"
"-71.39","46.79","QUEBEC INTL A","7016293","2025-03-01 15:00","2025","03","01","15:00","","-5.5","","-6.5","","93","","","","10","","11","","8.1","","98.65","","","","-10","","Snow,Snow Grains,Blowing Snow"
"-71.39","46.79","QUEBEC INTL A","7016293","2025-03-01 16:00","2025","03","01","16:00","","-5.2","","-6.2","","92","","","","7","","15","","16.1","","98.70","","","","-11","","Snow,Blowing Snow"
"-71.39","46.79","QUEBEC INTL A","7016293","2025-03-01 17:00","2025","03","01","17:00","","-5.2","","-5.8","","96","","","","9","","11","","2.0","","98.75","","","","-10","","Snow,Blowing Snow"
"-71.39","46.79","QUEBEC INTL A","7016293","2025-03-01 18:00","2025","03","01","18:00","","-5.4","","-5.7","","97","","","","7","","8","","2.0","","98.84","","","","-9","","Snow,Blowing Snow"
"-71.39","46.79","QUEBEC INTL A","7016293","2025-03-01 19:00","2025","03","01","19:00","","-6.8","","-8.3","","90","","","","24","","28","","2.0","","98.97","","","","-15","","Snow,Blowing Snow"
"-71.39","46.79","QUEBEC INTL A","7016293","2025-03-01 20:00","2025","03","01","20:00","","-8.8","","-11.2","","83","","","","24","","26","","16.1","","99.07","","","","-17","","Blowing Snow"
"-71.39","46.79","QUEBEC INTL A","7016293","2025-03-01 21:00","2025","03","01","21:00","","-10.0","","-13.1","","78","","","","24","","26","","24.1","","99.16","","","","-19","","Blowing Snow"
"-71.39","46.79","QUEBEC INTL A","7016293","2025-03-01 22:00","2025","03","01","22:00","","-10.0","","-15.0","","67","","","","28","","19","","24.1","","99.19","","","","-18","","Cloudy"
"-71.39","46.79","QUEBEC INTL A","7016293","2025-03-01 23:00","2025","03","01","23:00","","-10.5","","-15.9","","65","","","","28","","17","","24.1","","99.27","","","","-18","","Snow"
"-71.39","46.79","QUEBEC INTL A","7016293","2025-03-02 00:00","2025","03","02","00:00","","-11.4","","-15.9","","70","","","","26","","23","","24.1","","99.37","","","","-20","","Snow"
"-71.39","46.79","QUEBEC INTL A","7016293","2025-03-02 01:00","2025","03","02","01:00","","-11.4","","-16.3","","68","","","","28","","15","","24.1","","99.47","","","","-18","","Cloudy"
"-71.39","46.79","QUEBEC INTL A","7016293","2025-03-02 02:00","2025","03","02","02:00","","-12.0","","-18.2","","60","","","","30","","16","","24.1","","99.58","","","","-19","","Snow"
"-71.39","46.79","QUEBEC INTL A","7016293","2025-03-02 03:00","2025","03","02","03:00","","-13.2","","-19.1","","62","","","","29","","16","","24.1","","99.66","","","","-21","","Snow"
"-71.39","46.79","QUEBEC INTL A","7016293","2025-03-02 04:00","2025","03","02","04:00","","-14.2","","-21.0","","57","","","","29","","9","","24.1","","99.77","","","","-20","","Mostly Cloudy"
"-71.39","46.79","QUEBEC INTL A","7016293","2025-03-02 05:00","2025","03","02","05:00","","-15.5","","-21.5","","60","","","","27","","17","","24.1","","99.88","","","","-24","","NA"
"-71.39","46.79","QUEBEC INTL A","7016293","2025-03-02 06:00","2025","03","02","06:00","","-17.2","","-22.4","","65","","","","27","","20","","24.1","","99.96","","","","-27","","NA"
"-71.39","46.79","QUEBEC INTL A","7016293","2025-03-02 07:00","2025","03","02","07:00","","-18.3","","-23.0","","67","","","","26","","30","","48.3","","100.07","","","","-30","","Mostly Cloudy"
"-71.39","46.79","QUEBEC INTL A","7016293","2025-03-02 08:00","2025","03","02","08:00","","-19.1","","-23.6","","68","","","","25","","28","","48.3","","100.17","","","","-31","","NA"
"-71.39","46.79","QUEBEC INTL A","7016293","2025-03-02 09:00","2025","03","02","09:00","","-17.6","","-23.4","","61","","","","26","","33","","48.3","","100.26","","","","-30","","NA"
"-71.39","46.79","QUEBEC INTL A","7016293","2025-03-02 10:00","2025","03","02","10:00","","-16.6","","-22.9","","59","","","","24","","30","","48.3","","100.32","","","","-28","","Blowing Snow"
"-71.39","46.79","QUEBEC INTL A","7016293","2025-03-02 11:00","2025","03","02","11:00","","-16.2","","-21.8","","63","","","","25","","32","","48.3","","100.33","","","","-28","","Blowing Snow"
"-71.39","46.79","QUEBEC INTL A","7016293","2025-03-02 12:00","2025","03","02","12:00","","-15.0","","-21.4","","59","","","","24","","30","","48.3","","100.34","","","","-26","","Blowing Snow"
"-71.39","46.79","QUEBEC INTL A","7016293","2025-03-02 13:00","2025","03","02","13:00","","-14.4","","-20.5","","61","","","","25","","35","","48.3","","100.38","","","","-26","","Blowing Snow"
"-71.39","46.79","QUEBEC INTL A","7016293","2025-03-02 14:00","2025","03","02","14:00","","-13.7","","-20.3","","58","","","","27","","35","","48.3","","100.40","","","","-25","","Blowing Snow"
"-71.39","46.79","QUEBEC INTL A","7016293","2025-03-02 15:00","2025","03","02","15:00","","-13.3","","-20.7","","54","","","","27","","31","","48.3","","100.51","","","","-24","","Blowing Snow"
"-71.39","46.79","QUEBEC INTL A","7016293","2025-03-02 16:00","2025","03","02","16:00","","-13.3","","-21.0","","53","","","","27","","21","","48.3","","100.57","","","","-22","","Blowing Snow"
"-71.39","46.79","QUEBEC INTL A","7016293","2025-03-02 17:00","2025","03","02","17:00","","-14.3","","-21.1","","57","","","","27","","25","","48.3","","100.66","","","","-24","","Blowing Snow"
"-71.39","46.79","QUEBEC INTL A","7016293","2025-03-02 18:00","2025","03","02","18:00","","-14.0","","-20.1","","61","","","","27","","27","","48.3","","100.76","","","","-24","","NA"
"-71.39","46.79","QUEBEC INTL A","7016293","2025-03-02 19:00","2025","03","02","19:00","","-14.0","","-20.5","","58","","","","26","","22","","24.1","","100.83","","","","-23","","Mostly Cloudy"
"-71.39","46.79","QUEBEC INTL A","7016293","2025-03-02 20:00","2025","03","02","20:00","","-14.4","","-20.9","","59","","","","28","","16","","24.1","","100.90","","","","-22","","NA"
"-71.39","46.79","QUEBEC INTL A","7016293","2025-03-02 21:00","2025","03","02","21:00","","-15.6","","-21.3","","62","","","","25","","21","","24.1","","100.93","","","","-25","","NA"
"-71.39","46.79","QUEBEC INTL A","7016293","2025-03-02 22:00","2025","03","02","22:00","","-16.7","","-21.2","","68","","","","25","","22","","24.1","","100.98","","","","-27","","Mostly Cloudy"
"-71.39","46.79","QUEBEC INTL A","7016293","2025-03-02 23:00","2025","03","02","23:00","","-17.9","","-22.0","","71","","","","26","","20","","24.1","","101.05","","","","-28","","NA"
"-71.39","46.79","QUEBEC INTL A","7016293","2025-03-03 00:00","2025","03","03","00:00","","-19.6","","-23.0","","75","","","","26","","21","","24.1","","101.11","","","","-30","","NA"
"-71.39","46.79","QUEBEC INTL A","7016293","2025-03-03 01:00","2025","03","03","01:00","","-19.7","","-23.1","","75","","","","25","","18","","24.1","","101.19","","","","-30","","Clear"
"-71.39","46.79","QUEBEC INTL A","7016293","2025-03-03 02:00","2025","03","03","02:00","","-21.4","","-24.3","","78","","","","26","","17","","24.1","","101.22","","","","-31","","NA"
"-71.39","46.79","QUEBEC INTL A","7016293","2025-03-03 03:00","2025","03","03","03:00","","-21.0","","-24.1","","77","","","","27","","14","","24.1","","101.23","","","","-30","","NA"
"-71.39","46.79","QUEBEC INTL A","7016293","2025-03-03 04:00","2025","03","03","04:00","","-22.0","","-24.9","","78","","","","26","","9","","24.1","","101.27","","","","-29","","Clear"
"-71.39","46.79","QUEBEC INTL A","7016293","2025-03-03 05:00","2025","03","03","05:00","","-25.1","","-27.5","","81","","","","27","","3","","24.1","","101.32","","","","-28","","NA"
"-71.39","46.79","QUEBEC INTL A","7016293","2025-03-03 06:00","2025","03","03","06:00","","-24.9","","-26.9","","84","","","","","","0","","48.3","","101.35","","","","","","NA"
"-71.39","46.79","QUEBEC INTL A","7016293","2025-03-03 07:00","2025","03","03","07:00","","-25.3","","-27.7","","81","","","","33","","3","","48.3","","101.39","","","","-28","","Clear"
"-71.39","46.79","QUEBEC INTL A","7016293","2025-03-03 08:00","2025","03","03","08:00","","-20.9","","-24.0","","76","","","","","","0","","48.3","","101.45","","","","","","NA"
"-71.39","46.79","QUEBEC INTL A","7016293","2025-03-03 09:00","2025","03","03","09:00","","-17.4","","-22.4","","66","","","","23","","10","","48.3","","101.45","","","","-24","","NA"
"-71.39","46.79","QUEBEC INTL A","7016293","2025-03-03 10:00","2025","03","03","10:00","","-15.2","","-20.1","","67","","","","24","","13","","48.3","","101.44","","","","-23","","Clear"
"-71.39","46.79","QUEBEC INTL A","7016293","2025-03-03 11:00","2025","03","03","11:00","","-13.2","","-18.2","","67","","","","24","","18","","48.3","","101.42","","","","-21","","NA"
"-71.39","46.79","QUEBEC INTL A","7016293","2025-03-03 12:00","2025","03","03","12:00","","-11.8","","-17.4","","63","","","","22","","21","","48.3","","101.34","","","","-20","","NA"
"-71.39","46.79","QUEBEC INTL A","7016293","2025-03-03 13:00","2025","03","03","13:00","","-10.4","","-16.5","","61","","","","23","","26","","48.3","","101.23","","","","-19","","Clear"
"-71.39","46.79","QUEBEC INTL A","7016293","2025-03-03 14:00","2025","03","03","14:00","","-9.6","","-16.7","","57","","","","25","","23","","48.3","","101.14","","","","-18","","NA"
"-71.39","46.79","QUEBEC INTL A","7016293","2025-03-03 15:00","2025","03","03","15:00","","-9.4","","-16.2","","58","","","","23","","26","","48.3","","101.09","","","","-18","","NA"
"-71.39","46.79","QUEBEC INTL A","7016293","2025-03-03 16:00","2025","03","03","16:00","","-9.0","","-16.1","","57","","","","24","","24","","48.3","","101.07","","","","-17","","Mainly Clear"
"-71.39","46.79","QUEBEC INTL A","7016293","2025-03-03 17:00","2025","03","03","17:00","","-9.7","","-17.1","","55","","","","27","","15","","48.3","","101.12","","","","-16","","NA"
"-71.39","46.79","QUEBEC INTL A","7016293","2025-03-03 18:00","2025","03","03","18:00","","-11.1","","-16.8","","63","","","","25","","4","","24.1","","101.13","","","","-14","","NA"
"-71.39","46.79","QUEBEC INTL A","7016293","2025-03-03 19:00","2025","03","03","19:00","","-10.7","","-16.7","","62","","","","15","","3","","24.1","","101.16","","","","-13","","Cloudy"
"-71.39","46.79","QUEBEC INTL A","7016293","2025-03-03 20:00","2025","03","03","20:00","","-11.4","","-16.5","","67","","","","22","","5","","24.1","","101.12","","","","-15","","NA"
"-71.39","46.79","QUEBEC INTL A","7016293","2025-03-03 21:00","2025","03","03","21:00","","-11.4","","-16.1","","69","","","","","","0","","24.1","","101.11","","","","","","NA"
"-71.39","46.79","QUEBEC INTL A","7016293","2025-03-03 22:00","2025","03","03","22:00","","-12.0","","-15.7","","74","","","","","","0","","24.1","","101.07","","","","","","Cloudy"
"-71.39","46.79","QUEBEC INTL A","7016293","2025-03-03 23:00","2025","03","03","23:00","","-13.7","","-16.9","","77","","","","","","0","","24.1","","101.03","","","","","","NA"
"-71.39","46.79","QUEBEC INTL A","7016293","2025-03-04 00:00","2025","03","04","00:00","","-14.1","","-16.8","","80","","","","35","","4","","24.1","","101.01","","","","-17","","Snow"
"-71.39","46.79","QUEBEC INTL A","7016293","2025-03-04 01:00","2025","03","04","01:00","","-13.3","","-15.7","","82","","","","","","0","","19.3","","100.99","","","","","","Snow"
"-71.39","46.79","QUEBEC INTL A","7016293","2025-03-04 02:00","2025","03","04","02:00","","-12.0","","-14.1","","84","","","","5","","3","","12.9","","100.96","","","","-14","","Snow"
"-71.39","46.79","QUEBEC INTL A","7016293","2025-03-04 03:00","2025","03","04","03:00","","-11.1","","-13.3","","84","","","","1","","4","","24.1","","100.93","","","","-14","","Snow"
"-71.39","46.79","QUEBEC INTL A","7016293","2025-03-04 04:00","2025","03","04","04:00","","-10.8","","-13.2","","83","","","","3","","5","","24.1","","100.88","","","","-14","","Snow"
"-71.39","46.79","QUEBEC INTL A","7016293","2025-03-04 05:00","2025","03","04","05:00","","-10.6","","-12.8","","84","","","","2","","4","","19.3","","100.86","","","","-13","","Snow"
"-71.39","46.79","QUEBEC INTL A","7016293","2025-03-04 06:00","2025","03","04","06:00","","-10.4","","-12.3","","86","","","","36","","5","","12.9","","100.84","","","","-13","","Snow"
"-71.39","46.79","QUEBEC INTL A","7016293","2025-03-04 07:00","2025","03","04","07:00","","-10.2","","-11.4","","91","","","","","","0","","2.0","","100.81","","","","","","Snow"
"-71.39","46.79","QUEBEC INTL A","7016293","2025-03-04 08:00","2025","03","04","08:00","","-9.3","","-10.9","","88","","","","36","","5","","4.8","","100.81","","","","-12","","Snow"
"-71.39","46.79","QUEBEC INTL A","7016293","2025-03-04 09:00","2025","03","04","09:00","","-8.5","","-10.2","","87","","","","","","0","","8.1","","100.76","","","","","","Snow"
"-71.39","46.79","QUEBEC INTL A","7016293","2025-03-04 10:00","2025","03","04","10:00","","-6.7","","-8.8","","85","","","","","","0","","2.4","","100.69","","","","","","Snow"
"-71.39","46.79","QUEBEC INTL A","7016293","2025-03-04 11:00","2025","03","04","11:00","","-5.3","","-7.2","","87","","","","26","","7","","11.3","","100.63","","","","-9","","Snow"
"-71.39","46.79","QUEBEC INTL A","7016293","2025-03-04 12:00","2025","03","04","12:00","","-2.9","","-6.2","","78","","","","26","","5","","24.1","","100.57","","","","-5","","NA"
"-71.39","46.79","QUEBEC INTL A","7016293","2025-03-04 13:00","2025","03","04","13:00","","-1.9","","-6.0","","74","","","","26","","8","","24.1","","100.47","","","","-5","","Cloudy"
"-71.39","46.79","QUEBEC INTL A","7016293","2025-03-04 14:00","2025","03","04","14:00","","-1.2","","-5.2","","74","","","","26","","9","","24.1","","100.45","","","","-4","","NA"
"-71.39","46.79","QUEBEC INTL A","7016293","2025-03-04 15:00","2025","03","04","15:00","","-1.5","","-2.7","","91","","","","25","","17","","2.4","","100.45","","","","-7","","Snow"
"-71.39","46.79","QUEBEC INTL A","7016293","2025-03-04 16:00","2025","03","04","16:00","","-1.9","","-2.1","","98","","","","25","","13","","1.6","","100.42","","","","-6","","Snow"
"-71.39","46.79","QUEBEC INTL A","7016293","2025-03-04 17:00","2025","03","04","17:00","","-1.3","","-1.4","","99","","","","25","","12","","1.2","","100.39","","","","-5","","Snow"
"-71.39","46.79","QUEBEC INTL A","7016293","2025-03-04 18:00","2025","03","04","18:00","","-1.1","","-1.1","","100","","","","25","","9","","3.2","","100.41","","","","-4","","Snow"
"-71.39","46.79","QUEBEC INTL A","7016293","2025-03-04 19:00","2025","03","04","19:00","","-1.1","","-1.1","","100","","","","25","","9","","1.6","","100.45","","","","-4","","Snow,Fog"
"-71.39","46.79","QUEBEC INTL A","7016293","2025-03-04 20:00","2025","03","04","20:00","","-1.0","","-1.2","","99","","","","24","","7","","6.4","","100.46","","","","-4","","Snow,Fog"
"-71.39","46.79","QUEBEC INTL A","7016293","2025-03-04 21:00","2025","03","04","21:00","","-1.2","","-1.2","","100","","","","22","","7","","4.0","","100.50","","","","-4","","Snow,Fog"
"-71.39","46.79","QUEBEC INTL A","7016293","2025-03-04 22:00","2025","03","04","22:00","","-1.2","","-1.2","","100","","","","","","0","","9.7","","100.51","","","","","","Snow,Fog"
"-71.39","46.79","QUEBEC INTL A","7016293","2025-03-04 23:00","2025","03","04","23:00","","-0.8","","-0.8","","100","","","","27","","4","","9.7","","100.45","","","","-2","","Snow,Fog"
"-71.39","46.79","QUEBEC INTL A","7016293","2025-03-05 00:00","2025","03","05","00:00","","-0.9","","-1.0","","99","","","","","","0","","6.4","","100.42","","","","","","Snow,Fog"
"-71.39","46.79","QUEBEC INTL A","7016293","2025-03-05 01:00","2025","03","05","01:00","","-1.4","","-1.4","","100","","","","22","","5","","6.4","","100.40","","","","-3","","Snow,Fog"
"-71.39","46.79","QUEBEC INTL A","7016293","2025-03-05 02:00","2025","03","05","02:00","","-1.2","","-1.2","","100","","","","18","","5","","1.2","","100.39","","","","-3","","Fog"
"-71.39","46.79","QUEBEC INTL A","7016293","2025-03-05 03:00","2025","03","05","03:00","","-1.2","","-1.2","","100","","","","","","0","","0.4","","100.40","","","","","","Freezing Fog"
"-71.39","46.79","QUEBEC INTL A","7016293","2025-03-05 04:00","2025","03","05","04:00","","-1.6","","-1.6","","100","","","","5","","4","","1.2","","100.42","","","","-3","","Snow,Fog"
"-71.39","46.79","QUEBEC INTL A","7016293","2025-03-05 05:00","2025","03","05","05:00","","-1.7","","-1.7","","100","","","","5","","7","","3.2","","100.40","","","","-4","","Snow,Fog"
"-71.39","46.79","QUEBEC INTL A","7016293","2025-03-05 06:00","2025","03","05","06:00","","-1.6","","-1.6","","100","","","","7","","9","","2.4","","100.38","","","","-5","","Snow,Fog"
"-71.39","46.79","QUEBEC INTL A","7016293","2025-03-05 07:00","2025","03","05","07:00","","-1.5","","-1.5","","100","","","","6","","12","","1.2","","100.39","","","","-6","","Snow,Fog"
"-71.39","46.79","QUEBEC INTL A","7016293","2025-03-05 08:00","2025","03","05","08:00","","-1.1","","-1.1","","100","","","","6","","19","","2.0","","100.35","","","","-6","","Snow,Fog"
"-71.39","46.79","QUEBEC INTL A","7016293","2025-03-05 09:00","2025","03","05","09:00","","-0.6","","-0.7","","99","","","","7","","24","","2.0","","100.29","","","","-7","","Snow,Fog"
"-71.39","46.79","QUEBEC INTL A","7016293","2025-03-05 10:00","2025","03","05","10:00","","-0.2","","-0.2","","100","","","","7","","19","","1.6","","100.22","","","","-5","","Snow,Fog"
"-71.39","46.79","QUEBEC INTL A","7016293","2025-03-05 11:00","2025","03","05","11:00","","0.1","","0.0","","99","","","","7","","25","","1.6","","100.19","","","","","","Snow,Fog"
"-71.39","46.79","QUEBEC INTL A","7016293","2025-03-05 12:00","2025","03","05","12:00","","0.4","","0.4","","100","","","","5","","23","","3.6","","100.02","","","","","","Rain,Snow,Fog"
"-71.39","46.79","QUEBEC INTL A","7016293","2025-03-05 13:00","2025","03","05","13:00","","1.1","","0.8","","97","","","","8","","21","","8.1","","99.86","","","","","","Fog"
"-71.39","46.79","QUEBEC INTL A","7016293","2025-03-05 14:00","2025","03","05","14:00","","1.1","","0.8","","98","","","","8","","32","","8.1","","99.75","","","","","","Rain,Fog"
"-71.39","46.79","QUEBEC INTL A","7016293","2025-03-05 15:00","2025","03","05","15:00","","1.0","","0.8","","99","","","","7","","32","","9.7","","99.69","","","","","","Rain,Snow,Fog"
"-71.39","46.79","QUEBEC INTL A","7016293","2025-03-05 16:00","2025","03","05","16:00","","0.8","","0.8","","100","","","","7","","35","","8.1","","99.61","","","","","","Rain,Fog"
"-71.39","46.79","QUEBEC INTL A","7016293","2025-03-05 17:00","2025","03","05","17:00","","0.7","","0.7","","100","","","","7","","28","","8.1","","99.55","","","","","","Rain,Fog"
"-71.39","46.79","QUEBEC INTL A","7016293","2025-03-05 18:00","2025","03","05","18:00","","0.8","","0.8","","100","","","","8","","25","","8.1","","99.45","","","","","","Rain,Fog"
"-71.39","46.79","QUEBEC INTL A","7016293","2025-03-05 19:00","2025","03","05","19:00","","0.8","","0.8","","100","","","","7","","33","","4.8","","99.35","","","","","","Rain,Fog"
"-71.39","46.79","QUEBEC INTL A","7016293","2025-03-05 20:00","2025","03","05","20:00","","1.1","","1.1","","100","","","","8","","29","","8.1","","99.20","","","","","","Rain,Fog"
"-71.39","46.79","QUEBEC INTL A","7016293","2025-03-05 21:00","2025","03","05","21:00","","1.2","","1.2","","100","","","","9","","28","","8.1","","99.03","","","","","","Rain,Fog"
"-71.39","46.79","QUEBEC INTL A","7016293","2025-03-05 22:00","2025","03","05","22:00","","1.4","","1.2","","99","","","","8","","26","","12.9","","98.90","","","","","","Rain"
"-71.39","46.79","QUEBEC INTL A","7016293","2025-03-05 23:00","2025","03","05","23:00","","1.2","","1.2","","100","","","","8","","31","","16.1","","98.75","","","","","","Rain"
"-71.39","46.79","QUEBEC INTL A","7016293","2025-03-06 00:00","2025","03","06","00:00","","1.3","","1.3","","100","","","","7","","32","","12.9","","98.56","","","","","","Rain"
"-71.39","46.79","QUEBEC INTL A","7016293","2025-03-06 01:00","2025","03","06","01:00","","1.4","","1.4","","100","","","","9","","22","","9.7","","98.45","","","","","","Rain,Fog"
"-71.39","46.79","QUEBEC INTL A","7016293","2025-03-06 02:00","2025","03","06","02:00","","1.4","","1.4","","100","","","","6","","23","","9.7","","98.28","","","","","","Rain,Fog"
"-71.39","46.79","QUEBEC INTL A","7016293","2025-03-06 03:00","2025","03","06","03:00","","1.4","","1.4","","100","","","","8","","22","","3.2","","98.17","","","","","","Rain,Fog"
"-71.39","46.79","QUEBEC INTL A","7016293","2025-03-06 04:00","2025","03","06","04:00","","1.6","","1.6","","100","","","","9","","18","","4.8","","98.10","","","","","","Rain,Fog"
"-71.39","46.79","QUEBEC INTL A","7016293","2025-03-06 05:00","2025","03","06","05:00","","1.4","","1.4","","100","","","","7","","18","","2.4","","98.00","","","","","","Rain,Fog"
"-71.39","46.79","QUEBEC INTL A","7016293","2025-03-06 06:00","2025","03","06","06:00","","1.5","","1.5","","100","","","","6","","20","","2.0","","97.94","","","","","","Rain,Fog"
"-71.39","46.79","QUEBEC INTL A","7016293","2025-03-06 07:00","2025","03","06","07:00","","1.8","","1.8","","100","","","","7","","16","","2.4","","97.93","","","","","","Rain,Fog"
"-71.39","46.79","QUEBEC INTL A","7016293","2025-03-06 08:00","2025","03","06","08:00","","1.8","","1.8","","100","","","","7","","18","","1.2","","97.93","","","","","","Rain,Fog"
"-71.39","46.79","QUEBEC INTL A","7016293","2025-03-06 09:00","2025","03","06","09:00","","2.1","","2.1","","100","","","","6","","11","","1.6","","97.91","","","","","","Rain,Fog"
"-71.39","46.79","QUEBEC INTL A","7016293","2025-03-06 10:00","2025","03","06","10:00","","1.7","","1.7","","100","","","","5","","9","","1.0","","97.89","","","","","","Rain,Drizzle,Fog"
"-71.39","46.79","QUEBEC INTL A","7016293","2025-03-06 11:00","2025","03","06","11:00","","2.1","","2.1","","100","","","","5","","8","","1.2","","97.90","","","","","","Drizzle,Fog"
"-71.39","46.79","QUEBEC INTL A","7016293","2025-03-06 12:00","2025","03","06","12:00","","2.5","","2.5","","100","","","","23","","3","","1.0","","97.94","","","","","","Drizzle,Fog"
"-71.39","46.79","QUEBEC INTL A","7016293","2025-03-06 13:00","2025","03","06","13:00","","2.9","","2.9","","100","","","","23","","23","","3.2","","97.94","","","","","","Drizzle,Fog"
"-71.39","46.79","QUEBEC INTL A","7016293","2025-03-06 14:00","2025","03","06","14:00","","2.9","","2.9","","100","","","","24","","18","","8.1","","97.97","","","","","","Drizzle,Fog"
"-71.39","46.79","QUEBEC INTL A","7016293","2025-03-06 15:00","2025","03","06","15:00","","2.8","","2.5","","98","","","","23","","14","","24.1","","97.98","","","","","","NA"
"-71.39","46.79","QUEBEC INTL A","7016293","2025-03-06 16:00","2025","03","06","16:00","","2.8","","1.8","","93","","","","24","","20","","48.3","","98.01","","","","","","Cloudy"
"-71.39","46.79","QUEBEC INTL A","7016293","2025-03-06 17:00","2025","03","06","17:00","","2.9","","1.7","","92","","","","24","","16","","48.3","","98.02","","","","","","NA"
"-71.39","46.79","QUEBEC INTL A","7016293","2025-03-06 18:00","2025","03","06","18:00","","2.6","","0.1","","84","","","","24","","22","","48.3","","98.07","","","","","","NA"
"-71.39","46.79","QUEBEC INTL A","7016293","2025-03-06 19:00","2025","03","06","19:00","","2.1","","-0.4","","83","","","","24","","23","","24.1","","98.10","","","","","","Cloudy"
"-71.39","46.79","QUEBEC INTL A","7016293","2025-03-06 20:00","2025","03","06","20:00","","1.9","","-0.8","","82","","","","24","","21","","24.1","","98.10","","","","","","NA"
"-71.39","46.79","QUEBEC INTL A","7016293","2025-03-06 21:00","2025","03","06","21:00","","1.5","","-1.4","","81","","","","24","","26","","24.1","","98.10","","","","","","NA"
"-71.39","46.79","QUEBEC INTL A","7016293","2025-03-06 22:00","2025","03","06","22:00","","1.0","","-1.9","","81","","","","25","","22","","24.1","","98.08","","","","","","Snow"
"-71.39","46.79","QUEBEC INTL A","7016293","2025-03-06 23:00","2025","03","06","23:00","","0.1","","-2.9","","80","","","","24","","34","","16.1","","98.04","","","","","","Snow"
"-71.39","46.79","QUEBEC INTL A","7016293","2025-03-07 00:00","2025","03","07","00:00","","-1.3","","-2.2","","93","","","","25","","27","","3.2","","98.07","","","","-8","","Snow Showers"
"-71.39","46.79","QUEBEC INTL A","7016293","2025-03-07 01:00","2025","03","07","01:00","","-1.7","","-2.5","","95","","","","24","","21","","9.7","","98.03","","","","-8","","Snow"
"-71.39","46.79","QUEBEC INTL A","7016293","2025-03-07 02:00","2025","03","07","02:00","","-2.1","","-3.6","","89","","","","25","","26","","16.1","","97.98","","","","-9","","Snow"
"-71.39","46.79","QUEBEC INTL A","7016293","2025-03-07 03:00","2025","03","07","03:00","","-2.5","","-3.4","","93","","","","24","","22","","8.1","","97.96","","","","-9","","Snow,Blowing Snow"
"-71.39","46.79","QUEBEC INTL A","7016293","2025-03-07 04:00","2025","03","07","04:00","","-2.5","","-3.4","","94","","","","24","","33","","8.1","","97.92","","","","-10","","Snow,Blowing Snow"
"-71.39","46.79","QUEBEC INTL A","7016293","2025-03-07 05:00","2025","03","07","05:00","","-3.4","","-5.3","","87","","","","26","","33","","9.7","","97.99","","","","-11","","Snow,Blowing Snow"
"-71.39","46.79","QUEBEC INTL A","7016293","2025-03-07 06:00","2025","03","07","06:00","","-5.3","","-8.3","","79","","","","27","","33","","8.1","","98.08","","","","-14","","Snow,Blowing Snow"
"-71.39","46.79","QUEBEC INTL A","7016293","2025-03-07 07:00","2025","03","07","07:00","","-7.0","","-9.5","","82","","","","27","","35","","2.4","","98.19","","","","-16","","Snow,Blowing Snow"
"-71.39","46.79","QUEBEC INTL A","7016293","2025-03-07 08:00","2025","03","07","08:00","","-7.1","","-9.1","","86","","","","27","","33","","2.4","","98.19","","","","-16","","Snow,Blowing Snow"
"-71.39","46.79","QUEBEC INTL A","7016293","2025-03-07 09:00","2025","03","07","09:00","","-7.1","","-11.4","","71","","","","27","","35","","6.4","","98.19","","","","-16","","Snow,Blowing Snow"
"-71.39","46.79","QUEBEC INTL A","7016293","2025-03-07 10:00","2025","03","07","10:00","","-7.4","","-12.1","","69","","","","27","","32","","16.1","","98.19","","","","-16","","Blowing Snow"
"-71.39","46.79","QUEBEC INTL A","7016293","2025-03-07 11:00","2025","03","07","11:00","","-7.0","","-12.9","","63","","","","28","","26","","24.1","","98.18","","","","-15","","Snow,Blowing Snow"
"-71.39","46.79","QUEBEC INTL A","7016293","2025-03-07 12:00","2025","03","07","12:00","","-6.8","","-12.4","","65","","","","26","","46","","24.1","","98.09","","","","-17","","Blowing Snow"
"-71.39","46.79","QUEBEC INTL A","7016293","2025-03-07 13:00","2025","03","07","13:00","","-6.5","","-11.7","","67","","","","27","","44","","24.1","","98.07","","","","-16","","Blowing Snow"
"-71.39","46.79","QUEBEC INTL A","7016293","2025-03-07 14:00","2025","03","07","14:00","","-4.7","","-11.4","","60","","","","27","","34","","32.2","","98.08","","","","-13","","NA"
"-71.39","46.79","QUEBEC INTL A","7016293","2025-03-07 15:00","2025","03","07","15:00","","-4.7","","-10.0","","67","","","","29","","24","","24.1","","98.11","","","","-12","","Snow Showers"
"-71.39","46.79","QUEBEC INTL A","7016293","2025-03-07 16:00","2025","03","07","16:00","","-4.3","","-9.7","","66","","","","28","","30","","24.1","","98.12","","","","-12","","Mostly Cloudy"
"-71.39","46.79","QUEBEC INTL A","7016293","2025-03-07 17:00","2025","03","07","17:00","","-3.6","","-10.9","","57","","","","27","","41","","24.1","","98.17","","","","-12","","NA"
"-71.39","46.79","QUEBEC INTL A","7016293","2025-03-07 18:00","2025","03","07","18:00","","-3.7","","-10.8","","58","","","","27","","33","","24.1","","98.27","","","","-12","","NA"
"-71.39","46.79","QUEBEC INTL A","7016293","2025-03-07 19:00","2025","03","07","19:00","","-3.9","","-9.5","","65","","","","27","","42","","24.1","","98.28","","","","-13","","Mostly Cloudy"
"-71.39","46.79","QUEBEC INTL A","7016293","2025-03-07 20:00","2025","03","07","20:00","","-4.2","","-9.5","","67","","","","28","","25","","24.1","","98.33","","","","-11","","NA"
"-71.39","46.79","QUEBEC INTL A","7016293","2025-03-07 21:00","2025","03","07","21:00","","-4.6","","-8.1","","77","","","","28","","14","","4.8","","98.34","","","","-10","","Snow Showers"
"-71.39","46.79","QUEBEC INTL A","7016293","2025-03-07 22:00","2025","03","07","22:00","","-4.8","","-11.0","","62","","","","27","","35","","11.3","","98.30","","","","-13","","Mostly Cloudy"
"-71.39","46.79","QUEBEC INTL A","7016293","2025-03-07 23:00","2025","03","07","23:00","","-5.7","","-10.3","","70","","","","27","","20","","16.1","","98.31","","","","-12","","Snow Showers,Blowing Snow"
"-71.39","46.79","QUEBEC INTL A","7016293","2025-03-08 00:00","2025","03","08","00:00","","-6.2","","-11.7","","65","","","","27","","31","","24.1","","98.29","","","","-15","","NA"
"-71.39","46.79","QUEBEC INTL A","7016293","2025-03-08 01:00","2025","03","08","01:00","","-6.6","","-13.3","","59","","","","27","","33","","24.1","","98.26","","","","-15","","Mainly Clear"
"-71.39","46.79","QUEBEC INTL A","7016293","2025-03-08 02:00","2025","03","08","02:00","","-7.7","","-14.2","","60","","","","26","","36","","24.1","","98.23","","","","-17","","NA"
"-71.39","46.79","QUEBEC INTL A","7016293","2025-03-08 03:00","2025","03","08","03:00","","-7.5","","-13.7","","61","","","","26","","35","","24.1","","98.19","","","","-17","","NA"
"-71.39","46.79","QUEBEC INTL A","7016293","2025-03-08 04:00","2025","03","08","04:00","","-7.8","","-12.6","","68","","","","28","","23","","19.3","","98.20","","","","-16","","Snow"
"-71.39","46.79","QUEBEC INTL A","7016293","2025-03-08 05:00","2025","03","08","05:00","","-8.1","","-12.5","","71","","","","28","","18","","12.9","","98.22","","","","-15","","Snow"
"-71.39","46.79","QUEBEC INTL A","7016293","2025-03-08 06:00","2025","03","08","06:00","","-8.3","","-14.5","","61","","","","28","","21","","40.2","","98.23","","","","-16","","Snow"
"-71.39","46.79","QUEBEC INTL A","7016293","2025-03-08 07:00","2025","03","08","07:00","","-8.6","","-15.4","","58","","","","28","","22","","24.1","","98.26","","","","-16","","Snow"
"-71.39","46.79","QUEBEC INTL A","7016293","2025-03-08 08:00","2025","03","08","08:00","","-9.6","","-17.1","","55","","","","28","","28","","40.2","","98.36","","","","-19","","NA"
"-71.39","46.79","QUEBEC INTL A","7016293","2025-03-08 09:00","2025","03","08","09:00","","-10.5","","-19.3","","49","","","","29","","28","","40.2","","98.41","","","","-20","","NA"
"-71.39","46.79","QUEBEC INTL A","7016293","2025-03-08 10:00","2025","03","08","10:00","","-10.4","","-18.5","","52","","","","27","","28","","40.2","","98.42","","","","-20","","Snow"
"-71.39","46.79","QUEBEC INTL A","7016293","2025-03-08 11:00","2025","03","08","11:00","","-10.3","","-17.1","","58","","","","28","","32","","9.7","","98.44","","","","-20","","Snow"
"-71.39","46.79","QUEBEC INTL A","7016293","2025-03-08 12:00","2025","03","08","12:00","","-9.7","","-16.9","","56","","","","27","","30","","16.1","","98.46","","","","-19","","Snow"
"-71.39","46.79","QUEBEC INTL A","7016293","2025-03-08 13:00","2025","03","08","13:00","","-9.8","","-16.2","","60","","","","28","","27","","11.3","","98.48","","","","-19","","Snow"
"-71.39","46.79","QUEBEC INTL A","7016293","2025-03-08 14:00","2025","03","08","14:00","","-9.6","","-15.7","","61","","","","28","","31","","9.7","","98.53","","","","-19","","Snow Showers,Blowing Snow"
"-71.39","46.79","QUEBEC INTL A","7016293","2025-03-08 15:00","2025","03","08","15:00","","-8.6","","-16.4","","54","","","","27","","33","","32.2","","98.57","","","","-18","","Blowing Snow"
"-71.39","46.79","QUEBEC INTL A","7016293","2025-03-08 16:00","2025","03","08","16:00","","-8.1","","-14.5","","60","","","","27","","36","","24.1","","98.66","","","","-18","","Cloudy"
"-71.39","46.79","QUEBEC INTL A","7016293","2025-03-08 17:00","2025","03","08","17:00","","-7.2","","-13.0","","64","","","","27","","25","","32.2","","98.73","","","","-15","","NA"
"-71.39","46.79","QUEBEC INTL A","7016293","2025-03-08 18:00","2025","03","08","18:00","","-7.1","","-11.7","","70","","","","27","","28","","24.1","","98.79","","","","-15","","NA"
"-71.39","46.79","QUEBEC INTL A","7016293","2025-03-08 19:00","2025","03","08","19:00","","-6.8","","-12.8","","63","","","","27","","31","","24.1","","98.91","","","","-15","","Mostly Cloudy"
"-71.39","46.79","QUEBEC INTL A","7016293","2025-03-08 20:00","2025","03","08","20:00","","-6.8","","-13.1","","61","","","","27","","29","","24.1","","98.99","","","","-15","","NA"
"-71.39","46.79","QUEBEC INTL A","7016293","2025-03-08 21:00","2025","03","08","21:00","","-7.1","","-14.7","","55","","","","27","","22","","24.1","","99.05","","","","-15","","NA"
"-71.39","46.79","QUEBEC INTL A","7016293","2025-03-08 22:00","2025","03","08","22:00","","-6.9","","-15.2","","52","","","","27","","25","","24.1","","99.12","","","","-15","","Mostly Cloudy"
"-71.39","46.79","QUEBEC INTL A","7016293","2025-03-08 23:00","2025","03","08","23:00","","-7.4","","-15.1","","55","","","","27","","19","","24.1","","99.18","","","","-14","","NA"
"-71.39","46.79","QUEBEC INTL A","7016293","2025-03-09 00:00","2025","03","09","00:00","","-7.8","","-15.0","","57","","","","27","","19","","24.1","","99.25","","","","-15","","NA"
"-71.39","46.79","QUEBEC INTL A","7016293","2025-03-09 01:00","2025","03","09","01:00","","-8.1","","-15.4","","56","","","","27","","18","","24.1","","99.34","","","","-15","","Mainly Clear"
"-71.39","46.79","QUEBEC INTL A","7016293","2025-03-09 02:00","2025","03","09","02:00","","-8.6","","-16.0","","56","","","","27","","16","","24.1","","99.41","","","","-15","","NA"
"-71.39","46.79","QUEBEC INTL A","7016293","2025-03-09 03:00","2025","03","09","03:00","","-9.2","","-16.2","","57","","","","24","","17","","24.1","","99.45","","","","-16","","NA"
"-71.39","46.79","QUEBEC INTL A","7016293","2025-03-09 04:00","2025","03","09","04:00","","-10.0","","-16.4","","60","","","","24","","16","","24.1","","99.51","","","","-17","","Clear"
"-71.39","46.79","QUEBEC INTL A","7016293","2025-03-09 05:00","2025","03","09","05:00","","-10.2","","-16.5","","60","","","","24","","19","","24.1","","99.55","","","","-18","","NA"
"-71.39","46.79","QUEBEC INTL A","7016293","2025-03-09 06:00","2025","03","09","06:00","","-11.5","","-16.1","","69","","","","25","","19","","48.3","","99.61","","","","-20","","NA"
"-71.39","46.79","QUEBEC INTL A","7016293","2025-03-09 07:00","2025","03","09","07:00","","-11.1","","-15.6","","70","","","","26","","19","","48.3","","99.63","","","","-19","","Mostly Cloudy"
"-71.39","46.79","QUEBEC INTL A","7016293","2025-03-09 08:00","2025","03","09","08:00","","-9.1","","-16.1","","58","","","","27","","24","","48.3","","99.63","","","","-17","","NA"
"-71.39","46.79","QUEBEC INTL A","7016293","2025-03-09 09:00","2025","03","09","09:00","","-8.0","","-14.3","","61","","","","26","","18","","48.3","","99.63","","","","-15","","NA"
"-71.39","46.79","QUEBEC INTL A","7016293","2025-03-09 10:00","2025","03","09","10:00","","-7.2","","-12.2","","67","","","","26","","13","","24.1","","99.61","","","","-13","","Cloudy"
"-71.39","46.79","QUEBEC INTL A","7016293","2025-03-09 11:00","2025","03","09","11:00","","-6.7","","-10.5","","75","","","","24","","7","","12.9","","99.53","","","","-10","","Snow"
"-71.39","46.79","QUEBEC INTL A","7016293","2025-03-09 12:00","2025","03","09","12:00","","-6.0","","-9.7","","75","","","","20","","11","","24.1","","99.48","","","","-11","","NA"
"-71.39","46.79","QUEBEC INTL A","7016293","2025-03-09 13:00","2025","03","09","13:00","","-5.0","","-8.8","","75","","","","22","","14","","24.1","","99.43","","","","-10","","Snow"
"-71.39","46.79","QUEBEC INTL A","7016293","2025-03-09 14:00","2025","03","09","14:00","","-4.1","","-8.1","","74","","","","24","","18","","24.1","","99.43","","","","-10","","Snow"
"-71.39","46.79","QUEBEC INTL A","7016293","2025-03-09 15:00","2025","03","09","15:00","","-3.5","","-7.5","","74","","","","22","","20","","48.3","","99.45","","","","-10","","NA"
"-71.39","46.79","QUEBEC INTL A","7016293","2025-03-09 16:00","2025","03","09","16:00","","-3.2","","-6.8","","76","","","","22","","21","","48.3","","99.49","","","","-9","","Mostly Cloudy"
"-71.39","46.79","QUEBEC INTL A","7016293","2025-03-09 17:00","2025","03","09","17:00","","-3.5","","-7.3","","75","","","","23","","16","","48.3","","99.55","","","","-9","","NA"
"-71.39","46.79","QUEBEC INTL A","7016293","2025-03-09 18:00","2025","03","09","18:00","","-4.4","","-6.9","","82","","","","24","","13","","48.3","","99.61","","","","-9","","NA"
"-71.39","46.79","QUEBEC INTL A","7016293","2025-03-09 19:00","2025","03","09","19:00","","-4.6","","-5.4","","94","","","","29","","4","","24.1","","99.67","","","","-6","","Snow Showers"
"-71.39","46.79","QUEBEC INTL A","7016293","2025-03-09 20:00","2025","03","09","20:00","","-5.0","","-7.8","","81","","","","31","","6","","24.1","","99.70","","","","-8","","NA"
"-71.39","46.79","QUEBEC INTL A","7016293","2025-03-09 21:00","2025","03","09","21:00","","-6.7","","-7.9","","91","","","","26","","9","","24.1","","99.74","","","","-11","","NA"
"-71.39","46.79","QUEBEC INTL A","7016293","2025-03-09 22:00","2025","03","09","22:00","","-8.4","","-8.8","","97","","","","30","","4","","24.1","","99.71","","","","-11","","Mainly Clear"
"-71.39","46.79","QUEBEC INTL A","7016293","2025-03-09 23:00","2025","03","09","23:00","","-8.7","","-9.1","","97","","","","25","","3","","24.1","","99.72","","","","-10","","NA"
"-71.39","46.79","QUEBEC INTL A","7016293","2025-03-10 00:00","2025","03","10","00:00","","-9.3","","-9.9","","95","","","","2","","5","","24.1","","99.67","","","","-12","","NA"
"-71.39","46.79","QUEBEC INTL A","7016293","2025-03-10 01:00","2025","03","10","01:00","","-8.3","","-11.5","","78","","","","1","","9","","24.1","","99.68","","","","-13","","Mainly Clear"
"-71.39","46.79","QUEBEC INTL A","7016293","2025-03-10 02:00","2025","03","10","02:00","","-9.0","","-12.3","","77","","","","1","","7","","24.1","","99.69","","","","-13","","NA"
"-71.39","46.79","QUEBEC INTL A","7016293","2025-03-10 03:00","2025","03","10","03:00","","-12.1","","-13.8","","87","","","","7","","5","","24.1","","99.68","","","","-15","","NA"
"-71.39","46.79","QUEBEC INTL A","7016293","2025-03-10 04:00","2025","03","10","04:00","","-11.4","","-13.6","","84","","","","3","","5","","24.1","","99.72","","","","-15","","Mostly Cloudy"
"-71.39","46.79","QUEBEC INTL A","7016293","2025-03-10 05:00","2025","03","10","05:00","","-11.7","","-13.7","","85","","","","2","","4","","24.1","","99.77","","","","-14","","NA"
"-71.39","46.79","QUEBEC INTL A","7016293","2025-03-10 06:00","2025","03","10","06:00","","-10.3","","-13.4","","78","","","","35","","8","","48.3","","99.84","","","","-15","","NA"
"-71.39","46.79","QUEBEC INTL A","7016293","2025-03-10 07:00","2025","03","10","07:00","","-9.7","","-13.4","","74","","","","2","","6","","48.3","","99.89","","","","-13","","Mostly Cloudy"
"-71.39","46.79","QUEBEC INTL A","7016293","2025-03-10 08:00","2025","03","10","08:00","","-9.7","","-13.8","","72","","","","5","","9","","48.3","","99.91","","","","-15","","NA"
"-71.39","46.79","QUEBEC INTL A","7016293","2025-03-10 09:00","2025","03","10","09:00","","-7.3","","-12.3","","67","","","","9","","5","","48.3","","99.92","","","","-10","","NA"
"-71.39","46.79","QUEBEC INTL A","7016293","2025-03-10 10:00","2025","03","10","10:00","","-5.6","","-11.5","","63","","","","5","","3","","48.3","","99.96","","","","-7","","Cloudy"
"-71.39","46.79","QUEBEC INTL A","7016293","2025-03-10 11:00","2025","03","10","11:00","","-4.3","","-11.2","","59","","","","","","0","","48.3","","99.99","","","","","","NA"
"-71.39","46.79","QUEBEC INTL A","7016293","2025-03-10 12:00","2025","03","10","12:00","","-4.1","","-11.2","","58","","","","27","","12","","32.2","","100.02","","","","-9","","NA"
"-71.39","46.79","QUEBEC INTL A","7016293","2025-03-10 13:00","2025","03","10","13:00","","-3.7","","-9.6","","64","","","","25","","14","","9.7","","100.03","","","","-9","","Snow"
"-71.39","46.79","QUEBEC INTL A","7016293","2025-03-10 14:00","2025","03","10","14:00","","-3.8","","-7.5","","75","","","","22","","10","","32.2","","100.01","","","","-8","","Snow"
"-71.39","46.79","QUEBEC INTL A","7016293","2025-03-10 15:00","2025","03","10","15:00","","-3.7","","-7.8","","73","","","","23","","17","","40.2","","100.07","","","","-9","","NA"
"-71.39","46.79","QUEBEC INTL A","7016293","2025-03-10 16:00","2025","03","10","16:00","","-3.5","","-7.0","","77","","","","26","","16","","40.2","","100.13","","","","-9","","Cloudy"
"-71.39","46.79","QUEBEC INTL A","7016293","2025-03-10 17:00","2025","03","10","17:00","","-3.2","","-7.4","","73","","","","25","","7","","40.2","","100.17","","","","-6","","NA"
"-71.39","46.79","QUEBEC INTL A","7016293","2025-03-10 18:00","2025","03","10","18:00","","-4.9","","-7.5","","82","","","","24","","9","","48.3","","100.20","","","","-9","","NA"
"-71.39","46.79","QUEBEC INTL A","7016293","2025-03-10 19:00","2025","03","10","19:00","","-6.1","","-7.7","","88","","","","28","","3","","24.1","","100.28","","","","-8","","Mainly Clear"
"-71.39","46.79","QUEBEC INTL A","7016293","2025-03-10 20:00","2025","03","10","20:00","","-7.5","","-8.4","","93","","","","","","0","","24.1","","100.28","","","","","","NA"
"-71.39","46.79","QUEBEC INTL A","7016293","2025-03-10 21:00","2025","03","10","21:00","","-9.4","","-10.7","","90","","","","","","0","","24.1","","100.32","","","","","","NA"
"-71.39","46.79","QUEBEC INTL A","7016293","2025-03-10 22:00","2025","03","10","22:00","","-8.6","","-9.9","","90","","","","2","","3","","24.1","","100.27","","","","-10","","Mostly Cloudy"
"-71.39","46.79","QUEBEC INTL A","7016293","2025-03-10 23:00","2025","03","10","23:00","","-7.9","","-10.2","","83","","","","1","","5","","24.1","","100.25","","","","-11","","NA"
"-71.39","46.79","QUEBEC INTL A","7016293","2025-03-11 00:00","2025","03","11","00:00","","-7.5","","-9.7","","84","","","","3","","5","","24.1","","100.21","","","","-10","","NA"
"-71.39","46.79","QUEBEC INTL A","7016293","2025-03-11 01:00","2025","03","11","01:00","","-7.2","","-9.5","","84","","","","36","","9","","24.1","","100.15","","","","-12","","Mostly Cloudy"
"-71.39","46.79","QUEBEC INTL A","7016293","2025-03-11 02:00","2025","03","11","02:00","","-6.9","","-9.2","","84","","","","4","","12","","24.1","","99.97","","","","-12","","NA"
"-71.39","46.79","QUEBEC INTL A","7016293","2025-03-11 03:00","2025","03","11","03:00","","-7.2","","-9.0","","87","","","","4","","5","","24.1","","99.91","","","","-10","","NA"
"-71.39","46.79","QUEBEC INTL A","7016293","2025-03-11 04:00","2025","03","11","04:00","","-5.7","","-7.5","","87","","","","4","","10","","24.1","","99.87","","","","-10","","Mostly Cloudy"
"-71.39","46.79","QUEBEC INTL A","7016293","2025-03-11 05:00","2025","03","11","05:00","","-4.6","","-6.5","","86","","","","7","","20","","24.1","","99.69","","","","-11","","NA"
"-71.39","46.79","QUEBEC INTL A","7016293","2025-03-11 06:00","2025","03","11","06:00","","-4.5","","-6.5","","86","","","","6","","20","","40.2","","99.58","","","","-11","","NA"
"-71.39","46.79","QUEBEC INTL A","7016293","2025-03-11 07:00","2025","03","11","07:00","","-3.2","","-5.6","","84","","","","7","","20","","40.2","","99.51","","","","-9","","Cloudy"
"-71.39","46.79","QUEBEC INTL A","7016293","2025-03-11 08:00","2025","03","11","08:00","","-2.4","","-4.8","","84","","","","7","","17","","40.2","","99.38","","","","-8","","NA"
"-71.39","46.79","QUEBEC INTL A","7016293","2025-03-11 09:00","2025","03","11","09:00","","-0.7","","-4.7","","75","","","","6","","25","","40.2","","99.19","","","","-7","","NA"
"-71.39","46.79","QUEBEC INTL A","7016293","2025-03-11 10:00","2025","03","11","10:00","","0.3","","-3.9","","74","","","","6","","21","","40.2","","99.05","","","","","","Cloudy"
"-71.39","46.79","QUEBEC INTL A","7016293","2025-03-11 11:00","2025","03","11","11:00","","1.3","","-2.6","","75","","","","5","","14","","40.2","","98.89","","","","","","NA"
"-71.39","46.79","QUEBEC INTL A","7016293","2025-03-11 12:00","2025","03","11","12:00","","3.8","","-2.8","","62","","","","35","","9","","48.3","","98.74","","","","","","NA"
"-71.39","46.79","QUEBEC INTL A","7016293","2025-03-11 13:00","2025","03","11","13:00","","5.4","","-2.5","","57","","","","36","","7","","40.2","","98.68","","","","","","Cloudy"
"-71.39","46.79","QUEBEC INTL A","7016293","2025-03-11 14:00","2025","03","11","14:00","","5.7","","-1.1","","61","","","","15","","3","","40.2","","98.62","","","","","","Rain Showers"
"-71.39","46.79","QUEBEC INTL A","7016293","2025-03-11 15:00","2025","03","11","15:00","","3.0","","-0.7","","76","","","","24","","10","","40.2","","98.70","","","","","","NA"
"-71.39","46.79","QUEBEC INTL A","7016293","2025-03-11 16:00","2025","03","11","16:00","","3.0","","0.7","","85","","","","25","","8","","9.7","","98.81","","","","","","Rain Showers,Fog"
"-71.39","46.79","QUEBEC INTL A","7016293","2025-03-11 17:00","2025","03","11","17:00","","2.5","","1.6","","94","","","","18","","11","","16.1","","98.84","","","","","","Rain Showers"
"-71.39","46.79","QUEBEC INTL A","7016293","2025-03-11 18:00","2025","03","11","18:00","","1.9","","1.4","","97","","","","25","","6","","9.7","","98.93","","","","","","Rain Showers,Fog"
"-71.39","46.79","QUEBEC INTL A","7016293","2025-03-11 19:00","2025","03","11","19:00","","3.5","","0.4","","80","","","","30","","16","","24.1","","99.09","","","","","","Rain Showers"
"-71.39","46.79","QUEBEC INTL A","7016293","2025-03-11 20:00","2025","03","11","20:00","","1.3","","-2.9","","74","","","","27","","16","","24.1","","99.34","","","","","","NA"
"-71.39","46.79","QUEBEC INTL A","7016293","2025-03-11 21:00","2025","03","11","21:00","","-1.2","","-6.3","","68","","","","28","","15","","24.1","","99.59","","","","-6","","NA"
"-71.39","46.79","QUEBEC INTL A","7016293","2025-03-11 22:00","2025","03","11","22:00","","-3.1","","-8.5","","66","","","","29","","12","","24.1","","99.83","","","","-8","","Mainly Clear"
"-71.39","46.79","QUEBEC INTL A","7016293","2025-03-11 23:00","2025","03","11","23:00","","-4.7","","-10.5","","64","","","","31","","11","","24.1","","100.03","","","","-9","","NA"
"-71.39","46.79","QUEBEC INTL A","7016293","2025-03-12 00:00","2025","03","12","00:00","","-6.1","","-12.6","","60","","","","29","","13","","24.1","","100.23","","","","-11","","NA"
"-71.39","46.79","QUEBEC INTL A","7016293","2025-03-12 01:00","2025","03","12","01:00","","-7.4","","-13.8","","60","","","","30","","13","","24.1","","100.42","","","","-13","","Mainly Clear"
"-71.39","46.79","QUEBEC INTL A","7016293","2025-03-12 02:00","2025","03","12","02:00","","-8.8","","-15.4","","59","","","","32","","10","","24.1","","100.53","","","","-14","","NA"
"-71.39","46.79","QUEBEC INTL A","7016293","2025-03-12 03:00","2025","03","12","03:00","","-9.9","","-15.9","","62","","","","35","","7","","24.1","","100.56","","","","-14","","NA"
"-71.39","46.79","QUEBEC INTL A","7016293","2025-03-12 04:00","2025","03","12","04:00","","-10.9","","-16.9","","61","","","","27","","11","","24.1","","100.69","","","","-17","","Clear"
"-71.39","46.79","QUEBEC INTL A","7016293","2025-03-12 05:00","2025","03","12","05:00","","-12.5","","-18.8","","60","","","","32","","10","","24.1","","100.85","","","","-18","","NA"
"-71.39","46.79","QUEBEC INTL A","7016293","2025-03-12 06:00","2025","03","12","06:00","","-12.9","","-19.4","","59","","","","29","","12","","48.3","","100.99","","","","-19","","NA"
"-71.39","46.79","QUEBEC INTL A","7016293","2025-03-12 07:00","2025","03","12","07:00","","-13.0","","-19.4","","59","","","","29","","9","","48.3","","101.06","","","","-18","","Clear"
"-71.39","46.79","QUEBEC INTL A","7016293","2025-03-12 08:00","2025","03","12","08:00","","-12.2","","-20.2","","52","","","","34","","10","","48.3","","101.12","","","","-18","","NA"
"-71.39","46.79","QUEBEC INTL A","7016293","2025-03-12 09:00","2025","03","12","09:00","","-11.9","","-20.6","","49","","","","26","","5","","48.3","","101.15","","","","-15","","NA"
"-71.39","46.79","QUEBEC INTL A","7016293","2025-03-12 10:00","2025","03","12","10:00","","-10.7","","-18.9","","51","","","","22","","11","","48.3","","101.15","","","","-16","","Clear"
"-71.39","46.79","QUEBEC INTL A","7016293","2025-03-12 11:00","2025","03","12","11:00","","-9.2","","-16.6","","56","","","","20","","16","","48.3","","101.16","","","","-16","","NA"
"-71.39","46.79","QUEBEC INTL A","7016293","2025-03-12 12:00","2025","03","12","12:00","","-8.5","","-15.6","","57","","","","22","","22","","48.3","","101.11","","","","-16","","NA"
"-71.39","46.79","QUEBEC INTL A","7016293","2025-03-12 13:00","2025","03","12","13:00","","-7.9","","-15.1","","57","","","","21","","28","","48.3","","101.04","","","","-17","","Mainly Clear"
"-71.39","46.79","QUEBEC INTL A","7016293","2025-03-12 14:00","2025","03","12","14:00","","-7.4","","-14.8","","56","","","","21","","29","","48.3","","101.02","","","","-16","","NA"
"-71.39","46.79","QUEBEC INTL A","7016293","2025-03-12 15:00","2025","03","12","15:00","","-7.5","","-15.4","","53","","","","23","","28","","48.3","","101.02","","","","-16","","NA"
"-71.39","46.79","QUEBEC INTL A","7016293","2025-03-12 16:00","2025","03","12","16:00","","-7.0","","-15.5","","51","","","","24","","17","","48.3","","101.03","","","","-13","","Mostly Cloudy"
"-71.39","46.79","QUEBEC INTL A","7016293","2025-03-12 17:00","2025","03","12","17:00","","-7.0","","-15.5","","51","","","","23","","22","","48.3","","101.06","","","","-14","","NA"
"-71.39","46.79","QUEBEC INTL A","7016293","2025-03-12 18:00","2025","03","12","18:00","","-7.6","","-15.8","","52","","","","24","","18","","48.3","","101.09","","","","-14","","NA"
"-71.39","46.79","QUEBEC INTL A","7016293","2025-03-12 19:00","2025","03","12","19:00","","-8.5","","-16.7","","52","","","","25","","16","","24.1","","101.10","","","","-15","","Mainly Clear"
"-71.39","46.79","QUEBEC INTL A","7016293","2025-03-12 20:00","2025","03","12","20:00","","-9.8","","-17.1","","56","","","","26","","8","","24.1","","101.15","","","","-14","","NA"
"-71.39","46.79","QUEBEC INTL A","7016293","2025-03-12 21:00","2025","03","12","21:00","","-12.4","","-17.1","","68","","","","2","","3","","24.1","","101.17","","","","-14","","NA"
"-71.39","46.79","QUEBEC INTL A","7016293","2025-03-12 22:00","2025","03","12","22:00","","-13.8","","-17.3","","75","","","","","","0","","24.1","","101.16","","","","","","Clear"
"-71.39","46.79","QUEBEC INTL A","7016293","2025-03-12 23:00","2025","03","12","23:00","","-14.3","","-17.0","","80","","","","","","0","","24.1","","101.19","","","","","","NA"
"-71.39","46.79","QUEBEC INTL A","7016293","2025-03-13 00:00","2025","03","13","00:00","","-14.3","","-17.5","","77","","","","1","","4","","24.1","","101.22","","","","-17","","NA"
"-71.39","46.79","QUEBEC INTL A","7016293","2025-03-13 01:00","2025","03","13","01:00","","-12.7","","-17.3","","69","","","","1","","11","","24.1","","101.26","","","","-19","","Mainly Clear"
"-71.39","46.79","QUEBEC INTL A","7016293","2025-03-13 02:00","2025","03","13","02:00","","-12.3","","-17.1","","68","","","","2","","10","","24.1","","101.26","","","","-18","","NA"
"-71.39","46.79","QUEBEC INTL A","7016293","2025-03-13 03:00","2025","03","13","03:00","","-12.2","","-16.9","","68","","","","2","","7","","24.1","","101.27","","","","-17","","NA"
"-71.39","46.79","QUEBEC INTL A","7016293","2025-03-13 04:00","2025","03","13","04:00","","-11.8","","-16.3","","69","","","","2","","6","","24.1","","101.28","","","","-16","","Cloudy"
"-71.39","46.79","QUEBEC INTL A","7016293","2025-03-13 05:00","2025","03","13","05:00","","-11.0","","-15.5","","70","","","","4","","6","","24.1","","101.32","","","","-15","","NA"
"-71.39","46.79","QUEBEC INTL A","7016293","2025-03-13 06:00","2025","03","13","06:00","","-11.0","","-14.8","","74","","","","4","","6","","48.3","","101.30","","","","-15","","NA"
"-71.39","46.79","QUEBEC INTL A","7016293","2025-03-13 07:00","2025","03","13","07:00","","-10.1","","-13.6","","76","","","","4","","8","","48.3","","101.30","","","","-15","","Mostly Cloudy"
"-71.39","46.79","QUEBEC INTL A","7016293","2025-03-13 08:00","2025","03","13","08:00","","-8.1","","-12.0","","74","","","","6","","18","","48.3","","101.32","","","","-15","","NA"
"-71.39","46.79","QUEBEC INTL A","7016293","2025-03-13 09:00","2025","03","13","09:00","","-6.3","","-11.2","","68","","","","6","","19","","48.3","","101.30","","","","-13","","NA"
"-71.39","46.79","QUEBEC INTL A","7016293","2025-03-13 10:00","2025","03","13","10:00","","-4.5","","-10.2","","65","","","","6","","16","","48.3","","101.26","","","","-10","","Mainly Clear"
"-71.39","46.79","QUEBEC INTL A","7016293","2025-03-13 11:00","2025","03","13","11:00","","-3.4","","-11.0","","56","","","","7","","9","","48.3","","101.21","","","","-7","","NA"
"-71.39","46.79","QUEBEC INTL A","7016293","2025-03-13 12:00","2025","03","13","12:00","","-2.2","","-11.1","","51","","","","8","","11","","48.3","","101.11","","","","-6","","NA"
"-71.39","46.79","QUEBEC INTL A","7016293","2025-03-13 13:00","2025","03","13","13:00","","-1.0","","-9.7","","52","","","","4","","10","","48.3","","101.02","","","","-5","","Mainly Clear"
"-71.39","46.79","QUEBEC INTL A","7016293","2025-03-13 14:00","2025","03","13","14:00","","0.1","","-8.8","","51","","","","5","","10","","48.3","","100.94","","","","","","NA"
"-71.39","46.79","QUEBEC INTL A","7016293","2025-03-13 15:00","2025","03","13","15:00","","1.1","","-9.1","","47","","","","4","","8","","48.3","","100.88","","","","","","NA"
"-71.39","46.79","QUEBEC INTL A","7016293","2025-03-13 16:00","2025","03","13","16:00","","1.6","","-9.3","","44","","","","4","","7","","48.3","","100.82","","","","","","Mainly Clear"
"-71.39","46.79","QUEBEC INTL A","7016293","2025-03-13 17:00","2025","03","13","17:00","","2.5","","-10.2","","39","","","","11","","4","","48.3","","100.82","","","","","","NA"
"-71.39","46.79","QUEBEC INTL A","7016293","2025-03-13 18:00","2025","03","13","18:00","","-1.1","","-7.4","","63","","","","35","","4","","48.3","","100.83","","","","-2","","NA"
"-71.39","46.79","QUEBEC INTL A","7016293","2025-03-13 19:00","2025","03","13","19:00","","-2.1","","-7.6","","66","","","","33","","3","","24.1","","100.84","","","","-3","","Mostly Cloudy"
"-71.39","46.79","QUEBEC INTL A","7016293","2025-03-13 20:00","2025","03","13","20:00","","-2.7","","-7.0","","72","","","","34","","5","","24.1","","100.79","","","","-5","","NA"
"-71.39","46.79","QUEBEC INTL A","7016293","2025-03-13 21:00","2025","03","13","21:00","","-2.5","","-7.4","","69","","","","","","0","","24.1","","100.81","","","","","","NA"
"-71.39","46.79","QUEBEC INTL A","7016293","2025-03-13 22:00","2025","03","13","22:00","","-3.8","","-6.9","","79","","","","","","0","","24.1","","100.83","","","","","","Cloudy"
"-71.39","46.79","QUEBEC INTL A","7016293","2025-03-13 23:00","2025","03","13","23:00","","-4.0","","-7.1","","79","","","","","","0","","24.1","","100.82","","","","","","NA"
"-71.39","46.79","QUEBEC INTL A","7016293","2025-03-14 00:00","2025","03","14","00:00","","-4.1","","-7.8","","76","","","","","","0","","24.1","","100.81","","","","","","NA"
"-71.39","46.79","QUEBEC INTL A","7016293","2025-03-14 01:00","2025","03","14","01:00","","-4.6","","-7.7","","79","","","","2","","3","","24.1","","100.85","","","","-6","","Mostly Cloudy"
"-71.39","46.79","QUEBEC INTL A","7016293","2025-03-14 02:00","2025","03","14","02:00","","-4.0","","-7.8","","75","","","","23","","5","","24.1","","100.86","","","","-6","","NA"
"-71.39","46.79","QUEBEC INTL A","7016293","2025-03-14 03:00","2025","03","14","03:00","","-6.1","","-9.4","","77","","","","32","","6","","24.1","","100.84","","","","-9","","NA"
"-71.39","46.79","QUEBEC INTL A","7016293","2025-03-14 04:00","2025","03","14","04:00","","-6.0","","-8.0","","86","","","","","","0","","24.1","","100.84","","","","","","Mainly Clear"
"-71.39","46.79","QUEBEC INTL A","7016293","2025-03-14 05:00","2025","03","14","05:00","","-7.2","","-8.9","","88","","","","6","","3","","24.1","","100.89","","","","-9","","NA"
"-71.39","46.79","QUEBEC INTL A","7016293","2025-03-14 06:00","2025","03","14","06:00","","-8.8","","-10.3","","89","","","","","","0","","48.3","","100.92","","","","","","NA"
"-71.39","46.79","QUEBEC INTL A","7016293","2025-03-14 07:00","2025","03","14","07:00","","-7.2","","-9.3","","85","","","","","","0","","48.3","","100.98","","","","","","Mostly Cloudy"
"-71.39","46.79","QUEBEC INTL A","7016293","2025-03-14 08:00","2025","03","14","08:00","","-3.9","","-7.4","","77","","","","24","","12","","32.2","","101.01","","","","-9","","NA"
"-71.39","46.79","QUEBEC INTL A","7016293","2025-03-14 09:00","2025","03","14","09:00","","1.0","","-4.0","","69","","","","24","","21","","32.2","","100.99","","","","","","NA"
"-71.39","46.79","QUEBEC INTL A","7016293","2025-03-14 10:00","2025","03","14","10:00","","1.9","","-2.6","","72","","","","23","","21","","32.2","","100.97","","","","","","Mainly Clear"
"-71.39","46.79","QUEBEC INTL A","7016293","2025-03-14 11:00","2025","03","14","11:00","","3.5","","-2.9","","63","","","","25","","13","","40.2","","101.00","","","","","","NA"
"-71.39","46.79","QUEBEC INTL A","7016293","2025-03-14 12:00","2025","03","14","12:00","","4.0","","-3.2","","59","","","","25","","23","","40.2","","100.96","","","","","","NA"
"-71.39","46.79","QUEBEC INTL A","7016293","2025-03-14 13:00","2025","03","14","13:00","","5.5","","-2.9","","55","","","","25","","14","","40.2","","100.91","","","","","","Mainly Clear"
"-71.39","46.79","QUEBEC INTL A","7016293","2025-03-14 14:00","2025","03","14","14:00","","5.7","","-2.2","","57","","","","23","","12","","40.2","","100.87","","","","","","NA"
"-71.39","46.79","QUEBEC INTL A","7016293","2025-03-14 15:00","2025","03","14","15:00","","6.7","","-2.2","","53","","","","23","","10","","48.3","","100.82","","","","","","NA"
"-71.39","46.79","QUEBEC INTL A","7016293","2025-03-14 16:00","2025","03","14","16:00","","6.4","","-2.4","","53","","","","24","","10","","48.3","","100.81","","","","","","Mostly Cloudy"
"-71.39","46.79","QUEBEC INTL A","7016293","2025-03-14 17:00","2025","03","14","17:00","","5.7","","-2.6","","55","","","","25","","11","","48.3","","100.82","","","","","","NA"
"-71.39","46.79","QUEBEC INTL A","7016293","2025-03-14 18:00","2025","03","14","18:00","","3.3","","-3.0","","64","","","","5","","5","","40.2","","100.83","","","","","","NA"
"-71.39","46.79","QUEBEC INTL A","7016293","2025-03-14 19:00","2025","03","14","19:00","","2.7","","-2.7","","67","","","","3","","4","","24.1","","100.87","","","","","","Cloudy"
"-71.39","46.79","QUEBEC INTL A","7016293","2025-03-14 20:00","2025","03","14","20:00","","2.0","","-2.4","","72","","","","","","0","","24.1","","100.91","","","","","","NA"
"-71.39","46.79","QUEBEC INTL A","7016293","2025-03-14 21:00","2025","03","14","21:00","","0.8","","-3.2","","75","","","","5","","8","","24.1","","100.88","","","","","","NA"
"-71.39","46.79","QUEBEC INTL A","7016293","2025-03-14 22:00","2025","03","14","22:00","","-1.0","","-3.6","","82","","","","36","","8","","24.1","","100.85","","","","-4","","Clear"
"-71.39","46.79","QUEBEC INTL A","7016293","2025-03-14 23:00","2025","03","14","23:00","","-0.9","","-4.5","","77","","","","4","","5","","24.1","","100.81","","","","-3","","NA"
"-71.39","46.79","QUEBEC INTL A","7016293","2025-03-15 00:00","2025","03","15","00:00","","-1.2","","-3.6","","84","","","","8","","8","","24.1","","100.78","","","","-4","","NA"
"-71.39","46.79","QUEBEC INTL A","7016293","2025-03-15 01:00","2025","03","15","01:00","","-0.2","","-3.1","","81","","","","2","","8","","24.1","","100.78","","","","-3","","Mainly Clear"
"-71.39","46.79","QUEBEC INTL A","7016293","2025-03-15 02:00","2025","03","15","02:00","","-0.5","","-3.0","","84","","","","4","","10","","24.1","","100.75","","","","-4","","NA"
"-71.39","46.79","QUEBEC INTL A","7016293","2025-03-15 03:00","2025","03","15","03:00","","-1.0","","-3.8","","81","","","","5","","13","","24.1","","100.72","","","","-5","","NA"
"-71.39","46.79","QUEBEC INTL A","7016293","2025-03-15 04:00","2025","03","15","04:00","","-0.5","","-3.1","","83","","","","8","","14","","24.1","","100.73","","","","-5","","Mainly Clear"
"-71.39","46.79","QUEBEC INTL A","7016293","2025-03-15 05:00","2025","03","15","05:00","","-0.7","","-3.6","","81","","","","7","","16","","24.1","","100.74","","","","-5","","NA"
"-71.39","46.79","QUEBEC INTL A","7016293","2025-03-15 06:00","2025","03","15","06:00","","-1.3","","-4.3","","80","","","","6","","14","","48.3","","100.76","","","","-6","","NA"
"-71.39","46.79","QUEBEC INTL A","7016293","2025-03-15 07:00","2025","03","15","07:00","","-0.8","","-3.5","","82","","","","7","","23","","48.3","","100.73","","","","-7","","Mostly Cloudy"
"-71.39","46.79","QUEBEC INTL A","7016293","2025-03-15 08:00","2025","03","15","08:00","","0.3","","-2.8","","80","","","","7","","23","","48.3","","100.72","","","","","","NA"
"-71.39","46.79","QUEBEC INTL A","7016293","2025-03-15 09:00","2025","03","15","09:00","","1.0","","-2.2","","79","","","","10","","19","","48.3","","100.68","","","","","","NA"
"-71.39","46.79","QUEBEC INTL A","7016293","2025-03-15 10:00","2025","03","15","10:00","","1.8","","-2.1","","75","","","","8","","17","","48.3","","100.61","","","","","","Mostly Cloudy"
"-71.39","46.79","QUEBEC INTL A","7016293","2025-03-15 11:00","2025","03","15","11:00","","2.2","","-2.3","","72","","","","8","","19","","48.3","","100.55","","","","","","NA"
"-71.39","46.79","QUEBEC INTL A","7016293","2025-03-15 12:00","2025","03","15","12:00","","2.4","","-2.0","","73","","","","8","","19","","48.3","","100.53","","","","","","NA"
"-71.39","46.79","QUEBEC INTL A","7016293","2025-03-15 13:00","2025","03","15","13:00","","2.6","","-1.6","","73","","","","6","","22","","48.3","","100.47","","","","","","Mostly Cloudy"
"-71.39","46.79","QUEBEC INTL A","7016293","2025-03-15 14:00","2025","03","15","14:00","","2.5","","-1.4","","75","","","","6","","20","","48.3","","100.39","","","","","","NA"
"-71.39","46.79","QUEBEC INTL A","7016293","2025-03-15 15:00","2025","03","15","15:00","","2.2","","-1.3","","78","","","","8","","20","","24.1","","100.34","","","","","","NA"
"-71.39","46.79","QUEBEC INTL A","7016293","2025-03-15 16:00","2025","03","15","16:00","","1.6","","-1.7","","79","","","","8","","23","","24.1","","100.31","","","","","","Mostly Cloudy"
"-71.39","46.79","QUEBEC INTL A","7016293","2025-03-15 17:00","2025","03","15","17:00","","0.8","","-2.0","","81","","","","7","","23","","24.1","","100.28","","","","","","NA"
"-71.39","46.79","QUEBEC INTL A","7016293","2025-03-15 18:00","2025","03","15","18:00","","-0.1","","-2.1","","87","","","","7","","30","","19.3","","100.18","","","","-7","","NA"
"-71.39","46.79","QUEBEC INTL A","7016293","2025-03-15 19:00","2025","03","15","19:00","","-0.4","","-1.9","","90","","","","7","","28","","16.1","","100.21","","","","-7","","Cloudy"
"-71.39","46.79","QUEBEC INTL A","7016293","2025-03-15 20:00","2025","03","15","20:00","","-0.7","","-1.4","","95","","","","7","","15","","16.1","","100.28","","","","-5","","NA"
"-71.39","46.79","QUEBEC INTL A","7016293","2025-03-15 21:00","2025","03","15","21:00","","-0.8","","-1.5","","95","","","","6","","23","","16.1","","100.33","","","","-7","","NA"
"-71.39","46.79","QUEBEC INTL A","7016293","2025-03-15 22:00","2025","03","15","22:00","","-0.9","","-1.6","","95","","","","7","","27","","16.1","","100.34","","","","-7","","Cloudy"
"-71.39","46.79","QUEBEC INTL A","7016293","2025-03-15 23:00","2025","03","15","23:00","","-1.0","","-1.4","","97","","","","7","","21","","12.9","","100.34","","","","-7","","NA"
"-71.39","46.79","QUEBEC INTL A","7016293","2025-03-16 00:00","2025","03","16","00:00","","-1.0","","-1.4","","97","","","","6","","26","","12.9","","100.27","","","","-7","","NA"
"-71.39","46.79","QUEBEC INTL A","7016293","2025-03-16 01:00","2025","03","16","01:00","","-1.0","","-1.5","","97","","","","7","","21","","16.1","","100.29","","","","-7","","Cloudy"
"-71.39","46.79","QUEBEC INTL A","7016293","2025-03-16 02:00","2025","03","16","02:00","","-0.9","","-1.3","","97","","","","7","","19","","16.1","","100.29","","","","-6","","NA"
"-71.39","46.79","QUEBEC INTL A","7016293","2025-03-16 03:00","2025","03","16","03:00","","-0.9","","-1.3","","97","","","","6","","14","","12.9","","100.31","","","","-5","","NA"
"-71.39","46.79","QUEBEC INTL A","7016293","2025-03-16 04:00","2025","03","16","04:00","","-0.9","","-1.2","","98","","","","5","","19","","12.9","","100.30","","","","-6","","Cloudy"
"-71.39","46.79","QUEBEC INTL A","7016293","2025-03-16 05:00","2025","03","16","05:00","","-0.9","","-1.3","","98","","","","6","","15","","12.9","","100.34","","","","-6","","NA"
"-71.39","46.79","QUEBEC INTL A","7016293","2025-03-16 06:00","2025","03","16","06:00","","-1.1","","-1.3","","98","","","","5","","11","","11.3","","100.34","","","","-5","","NA"
"-71.39","46.79","QUEBEC INTL A","7016293","2025-03-16 07:00","2025","03","16","07:00","","-0.4","","-1.0","","96","","","","6","","17","","11.3","","100.31","","","","-5","","Cloudy"
"-71.39","46.79","QUEBEC INTL A","7016293","2025-03-16 08:00","2025","03","16","08:00","","-0.3","","-0.9","","96","","","","7","","18","","12.9","","100.28","","","","-5","","NA"
"-71.39","46.79","QUEBEC INTL A","7016293","2025-03-16 09:00","2025","03","16","09:00","","0.3","","-0.7","","93","","","","7","","16","","24.1","","100.22","","","","","","NA"
"-71.39","46.79","QUEBEC INTL A","7016293","2025-03-16 10:00","2025","03","16","10:00","","0.3","","-0.6","","94","","","","6","","15","","24.1","","100.17","","","","","","Cloudy"
"-71.39","46.79","QUEBEC INTL A","7016293","2025-03-16 11:00","2025","03","16","11:00","","0.8","","-0.5","","91","","","","6","","18","","24.1","","100.11","","","","","","NA"
"-71.39","46.79","QUEBEC INTL A","7016293","2025-03-16 12:00","2025","03","16","12:00","","1.1","","-0.4","","89","","","","6","","14","","24.1","","100.04","","","","","","NA"
"-71.39","46.79","QUEBEC INTL A","7016293","2025-03-16 13:00","2025","03","16","13:00","","1.7","","-0.2","","87","","","","7","","11","","24.1","","99.97","","","","","","Rain"
"-71.39","46.79","QUEBEC INTL A","7016293","2025-03-16 14:00","2025","03","16","14:00","","1.7","","-0.1","","87","","","","6","","20","","32.2","","99.79","","","","","","NA"
"-71.39","46.79","QUEBEC INTL A","7016293","2025-03-16 15:00","2025","03","16","15:00","","2.5","","-0.1","","83","","","","6","","17","","24.1","","99.83","","","","","","NA"
"-71.39","46.79","QUEBEC INTL A","7016293","2025-03-16 16:00","2025","03","16","16:00","","1.5","","-0.4","","87","","","","6","","23","","24.1","","99.82","","","","","","Rain Showers"
"-71.39","46.79","QUEBEC INTL A","7016293","2025-03-16 17:00","2025","03","16","17:00","","1.4","","-0.1","","90","","","","6","","19","","24.1","","99.72","","","","","","Rain Showers"
"-71.39","46.79","QUEBEC INTL A","7016293","2025-03-16 18:00","2025","03","16","18:00","","1.5","","0.5","","93","","","","6","","16","","16.1","","99.73","","","","","","Rain Showers"
"-71.39","46.79","QUEBEC INTL A","7016293","2025-03-16 19:00","2025","03","16","19:00","","1.4","","1.1","","98","","","","6","","16","","11.3","","99.58","","","","","","Cloudy"
"-71.39","46.79","QUEBEC INTL A","7016293","2025-03-16 20:00","2025","03","16","20:00","","1.6","","1.3","","98","","","","7","","20","","16.1","","99.58","","","","","","NA"
"-71.39","46.79","QUEBEC INTL A","7016293","2025-03-16 21:00","2025","03","16","21:00","","1.6","","1.5","","99","","","","6","","16","","16.1","","99.52","","","","","","Rain Showers"
"-71.39","46.79","QUEBEC INTL A","7016293","2025-03-16 22:00","2025","03","16","22:00","","3.3","","3.3","","100","","","","7","","3","","4.0","","99.66","","","","","","Moderate Rain Showers,Fog"
"-71.39","46.79","QUEBEC INTL A","7016293","2025-03-16 23:00","2025","03","16","23:00","","2.5","","2.5","","100","","","","","","0","","9.7","","99.73","","","","","","Fog"
"-71.39","46.79","QUEBEC INTL A","7016293","2025-03-17 00:00","2025","03","17","00:00","","1.4","","1.4","","100","","","","3","","8","","3.2","","99.63","","","","","","Rain Showers,Fog"
"-71.39","46.79","QUEBEC INTL A","7016293","2025-03-17 01:00","2025","03","17","01:00","","1.1","","1.1","","100","","","","5","","7","","6.4","","99.67","","","","","","Fog"
"-71.39","46.79","QUEBEC INTL A","7016293","2025-03-17 02:00","2025","03","17","02:00","","1.3","","1.3","","100","","","","8","","12","","9.7","","99.70","","","","","","Fog"
"-71.39","46.79","QUEBEC INTL A","7016293","2025-03-17 03:00","2025","03","17","03:00","","1.6","","1.6","","100","","","","34","","4","","9.7","","99.74","","","","","","Fog"
"-71.39","46.79","QUEBEC INTL A","7016293","2025-03-17 04:00","2025","03","17","04:00","","1.3","","1.3","","100","","","","","","0","","12.9","","99.76","","","","","","Cloudy"
"-71.39","46.79","QUEBEC INTL A","7016293","2025-03-17 05:00","2025","03","17","05:00","","1.6","","1.6","","100","","","","","","0","","12.9","","99.77","","","","","","NA"
"-71.39","46.79","QUEBEC INTL A","7016293","2025-03-17 06:00","2025","03","17","06:00","","1.9","","1.9","","100","","","","13","","5","","48.3","","99.91","","","","","","NA"
"-71.39","46.79","QUEBEC INTL A","7016293","2025-03-17 07:00","2025","03","17","07:00","","2.5","","2.5","","100","","","","22","","10","","48.3","","99.99","","","","","","Cloudy"
"-71.39","46.79","QUEBEC INTL A","7016293","2025-03-17 08:00","2025","03","17","08:00","","4.1","","4.1","","100","","","","23","","17","","48.3","","99.97","","","","","","NA"
"-71.39","46.79","QUEBEC INTL A","7016293","2025-03-17 09:00","2025","03","17","09:00","","4.5","","3.8","","95","","","","25","","17","","48.3","","100.01","","","","","","NA"
"-71.39","46.79","QUEBEC INTL A","7016293","2025-03-17 10:00","2025","03","17","10:00","","4.5","","4.1","","98","","","","24","","15","","48.3","","100.09","","","","","","Cloudy"
"-71.39","46.79","QUEBEC INTL A","7016293","2025-03-17 11:00","2025","03","17","11:00","","5.2","","1.6","","78","","","","26","","9","","48.3","","100.13","","","","","","NA"
"-71.39","46.79","QUEBEC INTL A","7016293","2025-03-17 12:00","2025","03","17","12:00","","4.1","","1.4","","83","","","","23","","13","","48.3","","100.18","","","","","","Rain Showers"
"-71.39","46.79","QUEBEC INTL A","7016293","2025-03-17 13:00","2025","03","17","13:00","","4.3","","0.3","","75","","","","24","","18","","48.3","","100.18","","","","","","Mostly Cloudy"
"-71.39","46.79","QUEBEC INTL A","7016293","2025-03-17 14:00","2025","03","17","14:00","","3.0","","-0.1","","80","","","","23","","22","","48.3","","100.27","","","","","","Rain Showers"
"-71.39","46.79","QUEBEC INTL A","7016293","2025-03-17 15:00","2025","03","17","15:00","","2.8","","-0.3","","80","","","","23","","19","","48.3","","100.31","","","","","","NA"
"-71.39","46.79","QUEBEC INTL A","7016293","2025-03-17 16:00","2025","03","17","16:00","","3.3","","-1.4","","72","","","","28","","12","","19.3","","100.38","","","","","","Cloudy"
"-71.39","46.79","QUEBEC INTL A","7016293","2025-03-17 17:00","2025","03","17","17:00","","2.8","","-2.6","","68","","","","28","","10","","48.3","","100.48","","","","","","NA"
"-71.39","46.79","QUEBEC INTL A","7016293","2025-03-17 18:00","2025","03","17","18:00","","2.1","","-4.7","","61","","","","32","","12","","48.3","","100.56","","","","","","NA"
"-71.39","46.79","QUEBEC INTL A","7016293","2025-03-17 19:00","2025","03","17","19:00","","1.1","","-5.2","","63","","","","33","","5","","24.1","","100.62","","","","","","Mostly Cloudy"
"-71.39","46.79","QUEBEC INTL A","7016293","2025-03-17 20:00","2025","03","17","20:00","","0.2","","-6.3","","62","","","","34","","12","","24.1","","100.68","","","","","","NA"
"-71.39","46.79","QUEBEC INTL A","7016293","2025-03-17 21:00","2025","03","17","21:00","","-1.0","","-6.5","","66","","","","34","","4","","24.1","","100.76","","","","-2","","NA"
"-71.39","46.79","QUEBEC INTL A","7016293","2025-03-17 22:00","2025","03","17","22:00","","-1.2","","-7.3","","63","","","","35","","8","","24.1","","100.80","","","","-4","","Mostly Cloudy"
"-71.39","46.79","QUEBEC INTL A","7016293","2025-03-17 23:00","2025","03","17","23:00","","-1.5","","-8.2","","61","","","","36","","6","","24.1","","100.86","","","","-4","","NA"
"-71.39","46.79","QUEBEC INTL A","7016293","2025-03-18 00:00","2025","03","18","00:00","","-2.1","","-8.4","","62","","","","35","","5","","24.1","","100.94","","","","-4","","NA"
"-71.39","46.79","QUEBEC INTL A","7016293","2025-03-18 01:00","2025","03","18","01:00","","-2.9","","-9.0","","63","","","","35","","5","","24.1","","101.01","","","","-5","","Mainly Clear"
"-71.39","46.79","QUEBEC INTL A","7016293","2025-03-18 02:00","2025","03","18","02:00","","-2.7","","-9.6","","59","","","","36","","5","","24.1","","101.02","","","","-5","","NA"
"-71.39","46.79","QUEBEC INTL A","7016293","2025-03-18 03:00","2025","03","18","03:00","","-3.0","","-9.9","","59","","","","35","","5","","24.1","","101.02","","","","-5","","NA"
"-71.39","46.79","QUEBEC INTL A","7016293","2025-03-18 04:00","2025","03","18","04:00","","-3.3","","-10.2","","59","","","","33","","3","","24.1","","101.12","","","","-5","","Mostly Cloudy"
"-71.39","46.79","QUEBEC INTL A","7016293","2025-03-18 05:00","2025","03","18","05:00","","-3.8","","-10.1","","62","","","","36","","5","","24.1","","101.13","","","","-6","","NA"
"-71.39","46.79","QUEBEC INTL A","7016293","2025-03-18 06:00","2025","03","18","06:00","","-5.3","","-10.6","","67","","","","31","","4","","48.3","","101.20","","","","-7","","NA"
"-71.39","46.79","QUEBEC INTL A","7016293","2025-03-18 07:00","2025","03","18","07:00","","-4.8","","-10.0","","67","","","","","","0","","40.2","","101.26","","","","","","Mainly Clear"
"-71.39","46.79","QUEBEC INTL A","7016293","2025-03-18 08:00","2025","03","18","08:00","","-2.4","","-7.3","","69","","","","7","","9","","40.2","","101.25","","","","-6","","NA"
"-71.39","46.79","QUEBEC INTL A","7016293","2025-03-18 09:00","2025","03","18","09:00","","-1.1","","-6.8","","66","","","","7","","10","","40.2","","101.24","","","","-5","","NA"
"-71.39","46.79","QUEBEC INTL A","7016293","2025-03-18 10:00","2025","03","18","10:00","","-0.1","","-7.2","","59","","","","10","","5","","40.2","","101.19","","","","-2","","Mainly Clear"
"-71.39","46.79","QUEBEC INTL A","7016293","2025-03-18 11:00","2025","03","18","11:00","","0.6","","-5.0","","66","","","","7","","12","","40.2","","101.13","","","","","","NA"
"-71.39","46.79","QUEBEC INTL A","7016293","2025-03-18 12:00","2025","03","18","12:00","","1.0","","-5.5","","62","","","","4","","14","","48.3","","101.04","","","","","","NA"
"-71.39","46.79","QUEBEC INTL A","7016293","2025-03-18 13:00","2025","03","18","13:00","","1.7","","-6.9","","53","","","","5","","4","","48.3","","101.06","","","","","","Mostly Cloudy"
"-71.39","46.79","QUEBEC INTL A","7016293","2025-03-18 14:00","2025","03","18","14:00","","2.2","","-8.4","","45","","","","5","","4","","48.3","","101.03","","","","","","NA"
"-71.39","46.79","QUEBEC INTL A","7016293","2025-03-18 15:00","2025","03","18","15:00","","2.7","","-7.6","","47","","","","6","","5","","48.3","","100.91","","","","","","NA"
"-71.39","46.79","QUEBEC INTL A","7016293","2025-03-18 16:00","2025","03","18","16:00","","1.9","","-4.6","","62","","","","6","","17","","48.3","","100.89","","","","","","Mostly Cloudy"
"-71.39","46.79","QUEBEC INTL A","7016293","2025-03-18 17:00","2025","03","18","17:00","","0.8","","-5.0","","65","","","","7","","16","","48.3","","100.90","","","","","","NA"
"-71.39","46.79","QUEBEC INTL A","7016293","2025-03-18 18:00","2025","03","18","18:00","","0.1","","-5.4","","66","","","","7","","19","","48.3","","100.92","","","","","","NA"
"-71.39","46.79","QUEBEC INTL A","7016293","2025-03-18 19:00","2025","03","18","19:00","","-0.7","","-5.6","","69","","","","7","","21","","24.1","","100.90","","","","-6","","Mostly Cloudy"
"-71.39","46.79","QUEBEC INTL A","7016293","2025-03-18 20:00","2025","03","18","20:00","","-0.9","","-5.3","","72","","","","7","","17","","24.1","","100.95","","","","-6","","NA"
"-71.39","46.79","QUEBEC INTL A","7016293","2025-03-18 21:00","2025","03","18","21:00","","-0.7","","-6.0","","67","","","","6","","15","","24.1","","101.01","","","","-5","","NA"
"-71.39","46.79","QUEBEC INTL A","7016293","2025-03-18 22:00","2025","03","18","22:00","","-1.4","","-5.9","","71","","","","7","","11","","24.1","","101.01","","","","-5","","Mainly Clear"
"-71.39","46.79","QUEBEC INTL A","7016293","2025-03-18 23:00","2025","03","18","23:00","","-1.1","","-5.0","","75","","","","6","","12","","24.1","","101.00","","","","-5","","NA"
"-71.39","46.79","QUEBEC INTL A","7016293","2025-03-19 00:00","2025","03","19","00:00","","-1.4","","-4.9","","77","","","","7","","13","","24.1","","101.02","","","","-6","","NA"
"-71.39","46.79","QUEBEC INTL A","7016293","2025-03-19 01:00","2025","03","19","01:00","","-2.0","","-4.6","","83","","","","7","","13","","24.1","","101.01","","","","-6","","Mainly Clear"
"-71.39","46.79","QUEBEC INTL A","7016293","2025-03-19 02:00","2025","03","19","02:00","","-2.1","","-4.3","","85","","","","6","","14","","24.1","","101.07","","","","-7","","NA"
"-71.39","46.79","QUEBEC INTL A","7016293","2025-03-19 03:00","2025","03","19","03:00","","-2.0","","-4.2","","85","","","","7","","14","","24.1","","101.09","","","","-7","","NA"
"-71.39","46.79","QUEBEC INTL A","7016293","2025-03-19 04:00","2025","03","19","04:00","","-2.4","","-4.1","","88","","","","6","","16","","24.1","","101.09","","","","-8","","Mainly Clear"
"-71.39","46.79","QUEBEC INTL A","7016293","2025-03-19 05:00","2025","03","19","05:00","","-1.9","","-4.0","","85","","","","7","","15","","24.1","","101.08","","","","-7","","NA"
"-71.39","46.79","QUEBEC INTL A","7016293","2025-03-19 06:00","2025","03","19","06:00","","-1.7","","-4.1","","83","","","","6","","19","","48.3","","101.16","","","","-7","","NA"
"-71.39","46.79","QUEBEC INTL A","7016293","2025-03-19 07:00","2025","03","19","07:00","","-1.1","","-3.8","","82","","","","7","","16","","48.3","","101.21","","","","-6","","Mostly Cloudy"
"-71.39","46.79","QUEBEC INTL A","7016293","2025-03-19 08:00","2025","03","19","08:00","","-0.5","","-3.4","","81","","","","7","","17","","48.3","","101.16","","","","-5","","NA"
"-71.39","46.79","QUEBEC INTL A","7016293","2025-03-19 09:00","2025","03","19","09:00","","0.7","","-4.1","","71","","","","8","","30","","48.3","","101.12","","","","","","NA"
"-71.39","46.79","QUEBEC INTL A","7016293","2025-03-19 10:00","2025","03","19","10:00","","1.6","","-5.1","","61","","","","7","","29","","48.3","","101.02","","","","","","Mostly Cloudy"
"-71.39","46.79","QUEBEC INTL A","7016293","2025-03-19 11:00","2025","03","19","11:00","","2.0","","-3.8","","65","","","","8","","30","","48.3","","100.92","","","","","","NA"
"-71.39","46.79","QUEBEC INTL A","7016293","2025-03-19 12:00","2025","03","19","12:00","","2.5","","-4.2","","61","","","","7","","33","","48.3","","100.79","","","","","","NA"
"-71.39","46.79","QUEBEC INTL A","7016293","2025-03-19 13:00","2025","03","19","13:00","","2.6","","-2.5","","69","","","","8","","27","","48.3","","100.69","","","","","","Mostly Cloudy"
"-71.39","46.79","QUEBEC INTL A","7016293","2025-03-19 14:00","2025","03","19","14:00","","2.8","","-2.1","","70","","","","8","","23","","48.3","","100.56","","","","","","NA"
"-71.39","46.79","QUEBEC INTL A","7016293","2025-03-19 15:00","2025","03","19","15:00","","2.4","","-1.8","","74","","","","8","","24","","40.2","","100.49","","","","","","NA"
"-71.39","46.79","QUEBEC INTL A","7016293","2025-03-19 16:00","2025","03","19","16:00","","2.4","","-1.7","","75","","","","7","","24","","40.2","","100.41","","","","","","Mostly Cloudy"
"-71.39","46.79","QUEBEC INTL A","7016293","2025-03-19 17:00","2025","03","19","17:00","","1.6","","-1.6","","80","","","","8","","25","","40.2","","100.37","","","","","","NA"
"-71.39","46.79","QUEBEC INTL A","7016293","2025-03-19 18:00","2025","03","19","18:00","","0.8","","-2.2","","81","","","","7","","23","","40.2","","100.31","","","","","","NA"
"-71.39","46.79","QUEBEC INTL A","7016293","2025-03-19 19:00","2025","03","19","19:00","","0.4","","-2.5","","81","","","","7","","24","","24.1","","100.29","","","","","","Mainly Clear"
"-71.39","46.79","QUEBEC INTL A","7016293","2025-03-19 20:00","2025","03","19","20:00","","0.0","","-2.0","","87","","","","8","","13","","24.1","","100.27","","","","-4","","NA"
"-71.39","46.79","QUEBEC INTL A","7016293","2025-03-19 21:00","2025","03","19","21:00","","0.0","","-1.9","","86","","","","6","","22","","24.1","","100.24","","","","-6","","NA"
"-71.39","46.79","QUEBEC INTL A","7016293","2025-03-19 22:00","2025","03","19","22:00","","-0.4","","-1.9","","89","","","","6","","18","","24.1","","100.17","","","","-5","","Mainly Clear"
"-71.39","46.79","QUEBEC INTL A","7016293","2025-03-19 23:00","2025","03","19","23:00","","-0.6","","-2.0","","91","","","","5","","21","","24.1","","100.14","","","","-6","","NA"
"-71.39","46.79","QUEBEC INTL A","7016293","2025-03-20 00:00","2025","03","20","00:00","","-0.8","","-1.7","","93","","","","4","","17","","24.1","","100.09","","","","-6","","NA"
"-71.39","46.79","QUEBEC INTL A","7016293","2025-03-20 01:00","2025","03","20","01:00","","-0.4","","-1.9","","89","","","","5","","18","","24.1","","100.04","","","","-5","","Mainly Clear"
"-71.39","46.79","QUEBEC INTL A","7016293","2025-03-20 02:00","2025","03","20","02:00","","-0.1","","-1.7","","89","","","","4","","14","","24.1","","99.98","","","","-4","","NA"
"-71.39","46.79","QUEBEC INTL A","7016293","2025-03-20 03:00","2025","03","20","03:00","","-0.9","","-1.9","","93","","","","5","","12","","24.1","","99.92","","","","-5","","NA"
"-71.39","46.79","QUEBEC INTL A","7016293","2025-03-20 04:00","2025","03","20","04:00","","-0.1","","-1.6","","89","","","","4","","12","","24.1","","99.86","","","","-4","","Mostly Cloudy"
"-71.39","46.79","QUEBEC INTL A","7016293","2025-03-20 05:00","2025","03","20","05:00","","-0.6","","-2.0","","90","","","","4","","10","","24.1","","99.83","","","","-4","","NA"
"-71.39","46.79","QUEBEC INTL A","7016293","2025-03-20 06:00","2025","03","20","06:00","","-0.6","","-2.3","","88","","","","5","","8","","48.3","","99.79","","","","-3","","NA"
"-71.39","46.79","QUEBEC INTL A","7016293","2025-03-20 07:00","2025","03","20","07:00","","0.2","","-1.9","","86","","","","4","","9","","48.3","","99.73","","","","","","Mostly Cloudy"
"-71.39","46.79","QUEBEC INTL A","7016293","2025-03-20 08:00","2025","03","20","08:00","","2.3","","-0.8","","80","","","","6","","17","","48.3","","99.64","","","","","","NA"
"-71.39","46.79","QUEBEC INTL A","7016293","2025-03-20 09:00","2025","03","20","09:00","","4.1","","-0.2","","73","","","","5","","13","","48.3","","99.56","","","","","","NA"
"-71.39","46.79","QUEBEC INTL A","7016293","2025-03-20 10:00","2025","03","20","10:00","","6.1","","0.1","","65","","","","5","","13","","48.3","","99.46","","","","","","Mainly Clear"
"-71.39","46.79","QUEBEC INTL A","7016293","2025-03-20 11:00","2025","03","20","11:00","","8.7","","0.0","","54","","","","5","","14","","48.3","","99.38","","","","","","NA"
"-71.39","46.79","QUEBEC INTL A","7016293","2025-03-20 12:00","2025","03","20","12:00","","10.2","","0.6","","51","","","","6","","11","","48.3","","99.29","","","","","","NA"
"-71.39","46.79","QUEBEC INTL A","7016293","2025-03-20 13:00","2025","03","20","13:00","","13.8","","0.0","","39","","","","27","","6","","48.3","","99.18","","","","","","Mostly Cloudy"
"-71.39","46.79","QUEBEC INTL A","7016293","2025-03-20 14:00","2025","03","20","14:00","","13.7","","1.6","","44","","","","","","0","","48.3","","99.05","","","","","","NA"
"-71.39","46.79","QUEBEC INTL A","7016293","2025-03-20 15:00","2025","03","20","15:00","","13.6","","2.0","","45","","","","27","","13","","48.3","","98.96","","","","","","NA"
"-71.39","46.79","QUEBEC INTL A","7016293","2025-03-20 16:00","2025","03","20","16:00","","13.4","","3.7","","51","","","","18","","4","","48.3","","98.90","","","","","","Mostly Cloudy"
"-71.39","46.79","QUEBEC INTL A","7016293","2025-03-20 17:00","2025","03","20","17:00","","13.7","","2.9","","48","","","","17","","5","","48.3","","98.85","","","","","","NA"
"-71.39","46.79","QUEBEC INTL A","7016293","2025-03-20 18:00","2025","03","20","18:00","","7.9","","2.1","","67","","","","5","","10","","32.2","","98.83","","","","","","NA"
"-71.39","46.79","QUEBEC INTL A","7016293","2025-03-20 19:00","2025","03","20","19:00","","11.9","","2.9","","54","","","","13","","10","","24.1","","98.85","","","","","","Mostly Cloudy"
"-71.39","46.79","QUEBEC INTL A","7016293","2025-03-20 20:00","2025","03","20","20:00","","10.9","","4.2","","63","","","","13","","7","","24.1","","98.86","","","","","","NA"
"-71.39","46.79","QUEBEC INTL A","7016293","2025-03-20 21:00","2025","03","20","21:00","","9.3","","4.9","","74","","","","10","","8","","24.1","","98.81","","","","","","NA"
"-71.39","46.79","QUEBEC INTL A","7016293","2025-03-20 22:00","2025","03","20","22:00","","6.6","","1.8","","71","","","","15","","7","","24.1","","98.83","","","","","","Mostly Cloudy"
"-71.39","46.79","QUEBEC INTL A","7016293","2025-03-20 23:00","2025","03","20","23:00","","4.6","","2.9","","88","","","","9","","3","","24.1","","98.80","","","","","","NA"
"-71.39","46.79","QUEBEC INTL A","7016293","2025-03-21 00:00","2025","03","21","00:00","","7.2","","3.0","","74","","","","25","","22","","24.1","","98.87","","","","","","Rain"
"-71.39","46.79","QUEBEC INTL A","7016293","2025-03-21 01:00","2025","03","21","01:00","","6.1","","4.0","","86","","","","25","","10","","24.1","","98.91","","","","","","Rain"
"-71.39","46.79","QUEBEC INTL A","7016293","2025-03-21 02:00","2025","03","21","02:00","","5.1","","4.4","","95","","","","25","","18","","19.3","","98.87","","","","","","Rain"
"-71.39","46.79","QUEBEC INTL A","7016293","2025-03-21 03:00","2025","03","21","03:00","","4.4","","4.4","","100","","","","25","","14","","19.3","","98.80","","","","","","Rain"
"-71.39","46.79","QUEBEC INTL A","7016293","2025-03-21 04:00","2025","03","21","04:00","","4.5","","4.5","","100","","","","24","","13","","8.1","","98.80","","","","","","Moderate Rain Showers,Fog"
"-71.39","46.79","QUEBEC INTL A","7016293","2025-03-21 05:00","2025","03","21","05:00","","4.0","","4.0","","100","","","","23","","11","","4.8","","98.75","","","","","","Rain,Fog"
"-71.39","46.79","QUEBEC INTL A","7016293","2025-03-21 06:00","2025","03","21","06:00","","3.7","","3.7","","100","","","","24","","14","","4.0","","98.76","","","","","","Rain,Fog"
"-71.39","46.79","QUEBEC INTL A","7016293","2025-03-21 07:00","2025","03","21","07:00","","3.0","","3.0","","100","","","","23","","12","","4.8","","98.85","","","","","","Rain,Fog"
"-71.39","46.79","QUEBEC INTL A","7016293","2025-03-21 08:00","2025","03","21","08:00","","2.5","","1.1","","90","","","","33","","12","","12.9","","98.94","","","","","","Rain"
"-71.39","46.79","QUEBEC INTL A","7016293","2025-03-21 09:00","2025","03","21","09:00","","2.4","","-0.1","","83","","","","31","","10","","32.2","","99.03","","","","","","NA"
"-71.39","46.79","QUEBEC INTL A","7016293","2025-03-21 10:00","2025","03","21","10:00","","3.3","","-2.0","","68","","","","31","","9","","24.1","","99.07","","","","","","Cloudy"
"-71.39","46.79","QUEBEC INTL A","7016293","2025-03-21 11:00","2025","03","21","11:00","","3.7","","-3.5","","59","","","","33","","14","","32.2","","99.06","","","","","","NA"
"-71.39","46.79","QUEBEC INTL A","7016293","2025-03-21 12:00","2025","03","21","12:00","","4.2","","-3.0","","59","","","","33","","9","","32.2","","99.07","","","","","","NA"
"-71.39","46.79","QUEBEC INTL A","7016293","2025-03-21 13:00","2025","03","21","13:00","","4.8","","-3.5","","55","","","","34","","13","","40.2","","99.06","","","","","","Mostly Cloudy"
"-71.39","46.79","QUEBEC INTL A","7016293","2025-03-21 14:00","2025","03","21","14:00","","4.2","","-3.5","","57","","","","34","","9","","40.2","","99.13","","","","","","NA"
"-71.39","46.79","QUEBEC INTL A","7016293","2025-03-21 15:00","2025","03","21","15:00","","4.3","","-4.8","","52","","","","31","","16","","48.3","","99.19","","","","","","NA"
"-71.39","46.79","QUEBEC INTL A","7016293","2025-03-21 16:00","2025","03","21","16:00","","5.0","","-6.0","","45","","","","31","","18","","48.3","","99.24","","","","","","Mainly Clear"
"-71.39","46.79","QUEBEC INTL A","7016293","2025-03-21 17:00","2025","03","21","17:00","","4.5","","-8.6","","38","","","","33","","12","","48.3","","99.33","","","","","","NA"
"-71.39","46.79","QUEBEC INTL A","7016293","2025-03-21 18:00","2025","03","21","18:00","","3.2","","-10.3","","37","","","","33","","7","","48.3","","99.41","","","","","","NA"
"-71.39","46.79","QUEBEC INTL A","7016293","2025-03-21 19:00","2025","03","21","19:00","","2.4","","-9.8","","40","","","","28","","8","","24.1","","99.46","","","","","","Clear"
"-71.39","46.79","QUEBEC INTL A","7016293","2025-03-21 20:00","2025","03","21","20:00","","-0.4","","-7.5","","59","","","","26","","15","","24.1","","99.49","","","","-5","","NA"
"-71.39","46.79","QUEBEC INTL A","7016293","2025-03-21 21:00","2025","03","21","21:00","","-0.2","","-7.7","","57","","","","27","","17","","24.1","","99.49","","","","-5","","NA"
"-71.39","46.79","QUEBEC INTL A","7016293","2025-03-21 22:00","2025","03","21","22:00","","-1.1","","-7.8","","61","","","","25","","17","","24.1","","99.49","","","","-6","","Clear"
"-71.39","46.79","QUEBEC INTL A","7016293","2025-03-21 23:00","2025","03","21","23:00","","-1.2","","-8.1","","59","","","","23","","16","","24.1","","99.51","","","","-6","","NA"
"-71.39","46.79","QUEBEC INTL A","7016293","2025-03-22 00:00","2025","03","22","00:00","","-2.0","","-7.2","","68","","","","22","","17","","24.1","","99.51","","","","-7","","NA"
"-71.39","46.79","QUEBEC INTL A","7016293","2025-03-22 01:00","2025","03","22","01:00","","-1.8","","-7.5","","65","","","","24","","10","","24.1","","99.50","","","","-5","","Clear"
"-71.39","46.79","QUEBEC INTL A","7016293","2025-03-22 02:00","2025","03","22","02:00","","-2.5","","-7.3","","70","","","","22","","12","","24.1","","99.49","","","","-7","","NA"
"-71.39","46.79","QUEBEC INTL A","7016293","2025-03-22 03:00","2025","03","22","03:00","","-2.8","","-7.3","","71","","","","23","","13","","24.1","","99.44","","","","-7","","NA"
"-71.39","46.79","QUEBEC INTL A","7016293","2025-03-22 04:00","2025","03","22","04:00","","-2.9","","-7.9","","69","","","","27","","9","","24.1","","99.41","","","","-6","","Clear"
"-71.39","46.79","QUEBEC INTL A","7016293","2025-03-22 05:00","2025","03","22","05:00","","-2.1","","-7.5","","67","","","","25","","15","","24.1","","99.37","","","","-7","","NA"
"-71.39","46.79","QUEBEC INTL A","7016293","2025-03-22 06:00","2025","03","22","06:00","","-3.3","","-6.5","","78","","","","23","","12","","48.3","","99.38","","","","-8","","NA"
"-71.39","46.79","QUEBEC INTL A","7016293","2025-03-22 07:00","2025","03","22","07:00","","-2.3","","-6.3","","74","","","","25","","10","","48.3","","99.35","","","","-6","","Mainly Clear"
"-71.39","46.79","QUEBEC INTL A","7016293","2025-03-22 08:00","2025","03","22","08:00","","-0.1","","-5.2","","68","","","","24","","10","","48.3","","99.31","","","","-3","","NA"
"-71.39","46.79","QUEBEC INTL A","7016293","2025-03-22 09:00","2025","03","22","09:00","","1.5","","-4.7","","64","","","","24","","9","","48.3","","99.27","","","","","","NA"
"-71.39","46.79","QUEBEC INTL A","7016293","2025-03-22 10:00","2025","03","22","10:00","","3.3","","-5.0","","55","","","","22","","12","","48.3","","99.19","","","","","","Mostly Cloudy"
"-71.39","46.79","QUEBEC INTL A","7016293","2025-03-22 11:00","2025","03","22","11:00","","4.3","","-5.3","","50","","","","27","","8","","48.3","","99.08","","","","","","NA"
"-71.39","46.79","QUEBEC INTL A","7016293","2025-03-22 12:00","2025","03","22","12:00","","5.7","","-5.7","","44","","","","27","","9","","48.3","","98.98","","","","","","NA"
"-71.39","46.79","QUEBEC INTL A","7016293","2025-03-22 13:00","2025","03","22","13:00","","6.8","","-3.9","","46","","","","26","","14","","48.3","","98.89","","","","","","Mostly Cloudy"
"-71.39","46.79","QUEBEC INTL A","7016293","2025-03-22 14:00","2025","03","22","14:00","","7.4","","-2.5","","49","","","","24","","17","","48.3","","98.84","","","","","","NA"
"-71.39","46.79","QUEBEC INTL A","7016293","2025-03-22 15:00","2025","03","22","15:00","","6.4","","-2.2","","54","","","","27","","7","","48.3","","98.82","","","","","","NA"
"-71.39","46.79","QUEBEC INTL A","7016293","2025-03-22 16:00","2025","03","22","16:00","","6.1","","-1.8","","57","","","","27","","12","","48.3","","98.80","","","","","","Cloudy"
"-71.39","46.79","QUEBEC INTL A","7016293","2025-03-22 17:00","2025","03","22","17:00","","5.8","","-1.4","","60","","","","24","","12","","48.3","","98.86","","","","","","NA"
"-71.39","46.79","QUEBEC INTL A","7016293","2025-03-22 18:00","2025","03","22","18:00","","4.2","","0.9","","79","","","","25","","19","","24.1","","98.93","","","","","","Rain"
"-71.39","46.79","QUEBEC INTL A","7016293","2025-03-22 19:00","2025","03","22","19:00","","2.7","","2.0","","96","","","","25","","21","","8.1","","98.95","","","","","","Rain"
"-71.39","46.79","QUEBEC INTL A","7016293","2025-03-22 20:00","2025","03","22","20:00","","1.9","","1.5","","97","","","","26","","14","","24.1","","98.99","","","","","","Rain"
"-71.39","46.79","QUEBEC INTL A","7016293","2025-03-22 21:00","2025","03","22","21:00","","-0.5","","-4.5","","74","","","","33","","12","","19.3","","99.12","","","","-4","","Snow"
"-71.39","46.79","QUEBEC INTL A","7016293","2025-03-22 22:00","2025","03","22","22:00","","-2.3","","-8.6","","62","","","","32","","18","","24.1","","99.35","","","","-8","","Cloudy"
"-71.39","46.79","QUEBEC INTL A","7016293","2025-03-22 23:00","2025","03","22","23:00","","-3.7","","-10.6","","59","","","","29","","14","","24.1","","99.55","","","","-9","","Snow"
"-71.39","46.79","QUEBEC INTL A","7016293","2025-03-23 00:00","2025","03","23","00:00","","-5.0","","-11.3","","61","","","","30","","15","","24.1","","99.76","","","","-11","","Snow"
"-71.39","46.79","QUEBEC INTL A","7016293","2025-03-23 01:00","2025","03","23","01:00","","-6.1","","-12.8","","59","","","","29","","16","","24.1","","99.93","","","","-12","","Snow"
"-71.39","46.79","QUEBEC INTL A","7016293","2025-03-23 02:00","2025","03","23","02:00","","-7.2","","-14.7","","55","","","","31","","13","","24.1","","100.04","","","","-13","","NA"
"-71.39","46.79","QUEBEC INTL A","7016293","2025-03-23 03:00","2025","03","23","03:00","","-8.4","","-15.2","","59","","","","29","","15","","24.1","","100.20","","","","-15","","NA"
"-71.39","46.79","QUEBEC INTL A","7016293","2025-03-23 04:00","2025","03","23","04:00","","-9.4","","-16.2","","58","","","","32","","8","","24.1","","100.35","","","","-14","","Mainly Clear"
"-71.39","46.79","QUEBEC INTL A","7016293","2025-03-23 05:00","2025","03","23","05:00","","-10.5","","-17.1","","59","","","","29","","16","","24.1","","100.49","","","","-18","","NA"
"-71.39","46.79","QUEBEC INTL A","7016293","2025-03-23 06:00","2025","03","23","06:00","","-11.3","","-17.8","","59","","","","29","","9","","48.3","","100.69","","","","-16","","NA"
"-71.39","46.79","QUEBEC INTL A","7016293","2025-03-23 07:00","2025","03","23","07:00","","-10.9","","-17.9","","57","","","","31","","11","","48.3","","100.82","","","","-17","","Mainly Clear"
"-71.39","46.79","QUEBEC INTL A","7016293","2025-03-23 08:00","2025","03","23","08:00","","-10.1","","-18.1","","52","","","","31","","15","","48.3","","100.89","","","","-17","","NA"
"-71.39","46.79","QUEBEC INTL A","7016293","2025-03-23 09:00","2025","03","23","09:00","","-8.4","","-16.9","","51","","","","31","","12","","48.3","","100.92","","","","-14","","NA"
"-71.39","46.79","QUEBEC INTL A","7016293","2025-03-23 10:00","2025","03","23","10:00","","-7.4","","-17.5","","45","","","","31","","16","","48.3","","100.91","","","","-14","","Clear"
"-71.39","46.79","QUEBEC INTL A","7016293","2025-03-23 11:00","2025","03","23","11:00","","-5.7","","-15.9","","45","","","","30","","13","","48.3","","100.85","","","","-11","","NA"
"-71.39","46.79","QUEBEC INTL A","7016293","2025-03-23 12:00","2025","03","23","12:00","","-4.8","","-16.0","","42","","","","29","","15","","48.3","","100.85","","","","-10","","NA"
"-71.39","46.79","QUEBEC INTL A","7016293","2025-03-23 13:00","2025","03","23","13:00","","-4.6","","-14.4","","47","","","","27","","30","","48.3","","100.84","","","","-12","","Clear"
"-71.39","46.79","QUEBEC INTL A","7016293","2025-03-23 14:00","2025","03","23","14:00","","-3.6","","-14.2","","44","","","","27","","21","","48.3","","100.88","","","","-10","","NA"
"-71.39","46.79","QUEBEC INTL A","7016293","2025-03-23 15:00","2025","03","23","15:00","","-3.6","","-14.5","","43","","","","27","","27","","48.3","","100.89","","","","-11","","NA"
"-71.39","46.79","QUEBEC INTL A","7016293","2025-03-23 16:00","2025","03","23","16:00","","-3.2","","-14.2","","43","","","","27","","22","","48.3","","100.94","","","","-10","","Clear"
"-71.39","46.79","QUEBEC INTL A","7016293","2025-03-23 17:00","2025","03","23","17:00","","-3.5","","-14.0","","44","","","","27","","22","","48.3","","101.01","","","","-10","","NA"
"-71.39","46.79","QUEBEC INTL A","7016293","2025-03-23 18:00","2025","03","23","18:00","","-4.2","","-14.5","","45","","","","28","","16","","48.3","","101.10","","","","-10","","NA"
"-71.39","46.79","QUEBEC INTL A","7016293","2025-03-23 19:00","2025","03","23","19:00","","-4.8","","-15.6","","43","","","","31","","4","","24.1","","101.16","","","","-7","","Clear"
"-71.39","46.79","QUEBEC INTL A","7016293","2025-03-23 20:00","2025","03","23","20:00","","-6.3","","-13.3","","58","","","","","","0","","24.1","","101.14","","","","","","NA"
"-71.39","46.79","QUEBEC INTL A","7016293","2025-03-23 21:00","2025","03","23","21:00","","-6.2","","-15.7","","47","","","","29","","3","","24.1","","101.07","","","","-8","","NA"
"-71.39","46.79","QUEBEC INTL A","7016293","2025-03-23 22:00","2025","03","23","22:00","","-7.4","","-14.9","","55","","","","25","","5","","24.1","","101.09","","","","-10","","Clear"
"-71.39","46.79","QUEBEC INTL A","7016293","2025-03-23 23:00","2025","03","23","23:00","","-7.3","","-15.6","","52","","","","34","","5","","24.1","","101.14","","","","-10","","NA"
"-71.39","46.79","QUEBEC INTL A","7016293","2025-03-24 00:00","2025","03","24","00:00","","-7.8","","-14.6","","58","","","","11","","4","","24.1","","101.13","","","","-10","","NA"
"-71.39","46.79","QUEBEC INTL A","7016293","2025-03-24 01:00","2025","03","24","01:00","","-10.2","","-13.8","","75","","","","","","0","","24.1","","101.10","","","","","","Clear"
"-71.39","46.79","QUEBEC INTL A","7016293","2025-03-24 02:00","2025","03","24","02:00","","-9.8","","-14.4","","69","","","","1","","9","","24.1","","101.01","","","","-15","","NA"
"-71.39","46.79","QUEBEC INTL A","7016293","2025-03-24 03:00","2025","03","24","03:00","","-10.3","","-14.8","","70","","","","1","","3","","24.1","","101.02","","","","-12","","NA"
"-71.39","46.79","QUEBEC INTL A","7016293","2025-03-24 04:00","2025","03","24","04:00","","-10.6","","-14.7","","73","","","","1","","5","","24.1","","100.98","","","","-14","","Mainly Clear"
"-71.39","46.79","QUEBEC INTL A","7016293","2025-03-24 05:00","2025","03","24","05:00","","-10.7","","-14.8","","72","","","","2","","5","","24.1","","100.99","","","","-14","","NA"
"-71.39","46.79","QUEBEC INTL A","7016293","2025-03-24 06:00","2025","03","24","06:00","","-10.9","","-14.5","","76","","","","3","","8","","48.3","","100.93","","","","-16","","NA"
"-71.39","46.79","QUEBEC INTL A","7016293","2025-03-24 07:00","2025","03","24","07:00","","-7.3","","-11.4","","72","","","","7","","18","","48.3","","100.86","","","","-14","","Mostly Cloudy"
"-71.39","46.79","QUEBEC INTL A","7016293","2025-03-24 08:00","2025","03","24","08:00","","-5.6","","-10.2","","70","","","","6","","23","","48.3","","100.75","","","","-13","","NA"
"-71.39","46.79","QUEBEC INTL A","7016293","2025-03-24 09:00","2025","03","24","09:00","","-4.6","","-10.1","","66","","","","7","","30","","48.3","","100.57","","","","-12","","NA"
"-71.39","46.79","QUEBEC INTL A","7016293","2025-03-24 10:00","2025","03","24","10:00","","-3.3","","-9.1","","64","","","","8","","26","","48.3","","100.56","","","","-10","","Cloudy"
"-71.39","46.79","QUEBEC INTL A","7016293","2025-03-24 11:00","2025","03","24","11:00","","-3.3","","-10.2","","59","","","","10","","27","","32.2","","100.50","","","","-10","","Snow"
"-71.39","46.79","QUEBEC INTL A","7016293","2025-03-24 12:00","2025","03","24","12:00","","-3.6","","-7.1","","77","","","","9","","25","","8.1","","100.46","","","","-11","","Snow"
"-71.39","46.79","QUEBEC INTL A","7016293","2025-03-24 13:00","2025","03","24","13:00","","-4.2","","-5.7","","89","","","","7","","28","","2.8","","100.34","","","","-12","","Snow,Snow Grains"
"-71.39","46.79","QUEBEC INTL A","7016293","2025-03-24 14:00","2025","03","24","14:00","","-3.5","","-5.3","","87","","","","8","","23","","3.6","","100.21","","","","-10","","Snow,Snow Grains"
"-71.39","46.79","QUEBEC INTL A","7016293","2025-03-24 15:00","2025","03","24","15:00","","-3.6","","-5.3","","88","","","","7","","22","","9.7","","100.10","","","","-10","","Freezing Drizzle,Snow,Snow Grains,Blowing Snow"
"-71.39","46.79","QUEBEC INTL A","7016293","2025-03-24 16:00","2025","03","24","16:00","","-3.5","","-5.1","","89","","","","7","","27","","6.4","","99.99","","","","-11","","Freezing Drizzle,Snow Grains"
"-71.39","46.79","QUEBEC INTL A","7016293","2025-03-24 17:00","2025","03","24","17:00","","-3.4","","-4.3","","93","","","","6","","29","","4.8","","99.98","","","","-11","","Freezing Drizzle,Ice Pellets,Fog"
"-71.39","46.79","QUEBEC INTL A","7016293","2025-03-24 18:00","2025","03","24","18:00","","-3.3","","-3.8","","96","","","","6","","23","","4.0","","99.91","","","","-10","","Snow,Snow Grains,Fog"
"-71.39","46.79","QUEBEC INTL A","7016293","2025-03-24 19:00","2025","03","24","19:00","","-3.2","","-3.9","","95","","","","7","","22","","6.4","","99.86","","","","-10","","Snow"
"-71.39","46.79","QUEBEC INTL A","7016293","2025-03-24 20:00","2025","03","24","20:00","","-3.0","","-3.5","","96","","","","7","","21","","3.2","","99.84","","","","-9","","Snow"
"-71.39","46.79","QUEBEC INTL A","7016293","2025-03-24 21:00","2025","03","24","21:00","","-3.2","","-3.4","","99","","","","6","","21","","1.6","","99.81","","","","-9","","Snow"
"-71.39","46.79","QUEBEC INTL A","7016293","2025-03-24 22:00","2025","03","24","22:00","","-3.2","","-3.4","","98","","","","6","","21","","4.8","","99.72","","","","-9","","Snow"
"-71.39","46.79","QUEBEC INTL A","7016293","2025-03-24 23:00","2025","03","24","23:00","","-2.9","","-3.4","","96","","","","6","","12","","9.7","","99.71","","","","-7","","Snow"
"-71.39","46.79","QUEBEC INTL A","7016293","2025-03-25 00:00","2025","03","25","00:00","","-2.9","","-3.0","","99","","","","6","","25","","9.7","","99.53","","","","-10","","Freezing Drizzle"
"-71.39","46.79","QUEBEC INTL A","7016293","2025-03-25 01:00","2025","03","25","01:00","","-2.8","","-3.0","","98","","","","8","","17","","2.0","","99.51","","","","-8","","Snow"
"-71.39","46.79","QUEBEC INTL A","7016293","2025-03-25 02:00","2025","03","25","02:00","","-2.8","","-2.9","","99","","","","6","","14","","1.6","","99.45","","","","-8","","Snow"
"-71.39","46.79","QUEBEC INTL A","7016293","2025-03-25 03:00","2025","03","25","03:00","","-2.7","","-2.8","","99","","","","7","","14","","4.8","","99.43","","","","-8","","Snow Grains"
"-71.39","46.79","QUEBEC INTL A","7016293","2025-03-25 04:00","2025","03","25","04:00","","-2.7","","-2.8","","100","","","","6","","10","","4.0","","99.48","","","","-7","","Snow Grains"
"-71.39","46.79","QUEBEC INTL A","7016293","2025-03-25 05:00","2025","03","25","05:00","","-2.5","","-2.6","","100","","","","9","","7","","2.4","","99.54","","","","-5","","Snow"
"-71.39","46.79","QUEBEC INTL A","7016293","2025-03-25 06:00","2025","03","25","06:00","","-2.5","","-2.5","","100","","","","9","","6","","2.8","","99.63","","","","-5","","Snow"
"-71.39","46.79","QUEBEC INTL A","7016293","2025-03-25 07:00","2025","03","25","07:00","","-2.3","","-2.3","","100","","","","5","","7","","2.0","","99.66","","","","-5","","Snow"
"-71.39","46.79","QUEBEC INTL A","7016293","2025-03-25 08:00","2025","03","25","08:00","","-1.7","","-1.9","","99","","","","8","","5","","2.4","","99.67","","","","-4","","Snow"
"-71.39","46.79","QUEBEC INTL A","7016293","2025-03-25 09:00","2025","03","25","09:00","","-1.1","","-1.5","","97","","","","","","0","","3.6","","99.70","","","","","","Snow"
"-71.39","46.79","QUEBEC INTL A","7016293","2025-03-25 10:00","2025","03","25","10:00","","-0.1","","-0.9","","94","","","","","","0","","2.8","","99.71","","","","","","Snow"
"-71.39","46.79","QUEBEC INTL A","7016293","2025-03-25 11:00","2025","03","25","11:00","","1.1","","-0.1","","92","","","","26","","11","","8.1","","99.70","","","","","","Snow"
"-71.39","46.79","QUEBEC INTL A","7016293","2025-03-25 12:00","2025","03","25","12:00","","2.3","","0.6","","88","","","","25","","17","","12.9","","99.70","","","","","","NA"
"-71.39","46.79","QUEBEC INTL A","7016293","2025-03-25 13:00","2025","03","25","13:00","","2.6","","-0.8","","78","","","","25","","28","","24.1","","99.68","","","","","","Mostly Cloudy"
"-71.39","46.79","QUEBEC INTL A","7016293","2025-03-25 14:00","2025","03","25","14:00","","4.1","","-0.9","","70","","","","24","","23","","48.3","","99.70","","","","","","NA"
"-71.39","46.79","QUEBEC INTL A","7016293","2025-03-25 15:00","2025","03","25","15:00","","4.1","","-1.9","","65","","","","25","","25","","48.3","","99.72","","","","","","NA"
"-71.39","46.79","QUEBEC INTL A","7016293","2025-03-25 16:00","2025","03","25","16:00","","3.4","","-1.7","","69","","","","25","","21","","48.3","","99.79","","","","","","Mostly Cloudy"
"-71.39","46.79","QUEBEC INTL A","7016293","2025-03-25 17:00","2025","03","25","17:00","","3.3","","-1.9","","69","","","","25","","19","","48.3","","99.86","","","","","","NA"
"-71.39","46.79","QUEBEC INTL A","7016293","2025-03-25 18:00","2025","03","25","18:00","","2.6","","-1.6","","74","","","","27","","15","","48.3","","99.96","","","","","","NA"
"-71.39","46.79","QUEBEC INTL A","7016293","2025-03-25 19:00","2025","03","25","19:00","","1.5","","-0.7","","86","","","","26","","17","","24.1","","100.07","","","","","","Mostly Cloudy"
"-71.39","46.79","QUEBEC INTL A","7016293","2025-03-25 20:00","2025","03","25","20:00","","1.5","","-0.5","","86","","","","25","","9","","24.1","","100.17","","","","","","NA"
"-71.39","46.79","QUEBEC INTL A","7016293","2025-03-25 21:00","2025","03","25","21:00","","1.6","","-0.3","","88","","","","23","","13","","24.1","","100.21","","","","","","NA"
"-71.39","46.79","QUEBEC INTL A","7016293","2025-03-25 22:00","2025","03","25","22:00","","1.1","","0.0","","92","","","","25","","10","","12.9","","100.25","","","","","","Rain Showers,Snow Showers"
"-71.39","46.79","QUEBEC INTL A","7016293","2025-03-25 23:00","2025","03","25","23:00","","0.5","","0.4","","100","","","","24","","6","","6.4","","100.26","","","","","","Snow"
"-71.39","46.79","QUEBEC INTL A","7016293","2025-03-26 00:00","2025","03","26","00:00","","0.4","","0.4","","100","","","","24","","10","","3.2","","100.28","","","","","","Snow,Fog"
"-71.39","46.79","QUEBEC INTL A","7016293","2025-03-26 01:00","2025","03","26","01:00","","0.4","","0.4","","100","","","","23","","10","","3.2","","100.31","","","","","","Snow,Fog"
"-71.39","46.79","QUEBEC INTL A","7016293","2025-03-26 02:00","2025","03","26","02:00","","0.2","","0.2","","100","","","","23","","8","","4.0","","100.29","","","","","","Snow,Fog"
"-71.39","46.79","QUEBEC INTL A","7016293","2025-03-26 03:00","2025","03","26","03:00","","0.2","","0.2","","100","","","","23","","6","","3.2","","100.27","","","","","","Snow,Fog"
"-71.39","46.79","QUEBEC INTL A","7016293","2025-03-26 04:00","2025","03","26","04:00","","0.2","","0.2","","100","","","","22","","9","","4.8","","100.30","","","","","","Snow,Fog"
"-71.39","46.79","QUEBEC INTL A","7016293","2025-03-26 05:00","2025","03","26","05:00","","0.3","","0.3","","100","","","","24","","8","","8.1","","100.32","","","","","","Snow,Fog"
"-71.39","46.79","QUEBEC INTL A","7016293","2025-03-26 06:00","2025","03","26","06:00","","0.4","","0.4","","100","","","","20","","6","","6.4","","100.38","","","","","","Fog"
"-71.39","46.79","QUEBEC INTL A","7016293","2025-03-26 07:00","2025","03","26","07:00","","0.2","","0.2","","100","","","","22","","10","","2.0","","100.42","","","","","","Snow,Fog"
"-71.39","46.79","QUEBEC INTL A","7016293","2025-03-26 08:00","2025","03","26","08:00","","0.3","","0.3","","100","","","","22","","11","","1.6","","100.44","","","","","","Snow Showers,Fog"
"-71.39","46.79","QUEBEC INTL A","7016293","2025-03-26 09:00","2025","03","26","09:00","","0.6","","0.6","","100","","","","22","","14","","2.0","","100.51","","","","","","Snow Showers,Fog"
"-71.39","46.79","QUEBEC INTL A","7016293","2025-03-26 10:00","2025","03","26","10:00","","0.8","","0.7","","99","","","","23","","15","","3.2","","100.51","","","","","","Snow,Fog"
"-71.39","46.79","QUEBEC INTL A","7016293","2025-03-26 11:00","2025","03","26","11:00","","1.4","","-0.5","","87","","","","25","","22","","24.1","","100.51","","","","","","Snow"
"-71.39","46.79","QUEBEC INTL A","7016293","2025-03-26 12:00","2025","03","26","12:00","","2.3","","-1.1","","79","","","","26","","14","","40.2","","100.51","","","","","","NA"
"-71.39","46.79","QUEBEC INTL A","7016293","2025-03-26 13:00","2025","03","26","13:00","","2.8","","-1.6","","73","","","","28","","6","","40.2","","100.50","","","","","","Snow"
"-71.39","46.79","QUEBEC INTL A","7016293","2025-03-26 14:00","2025","03","26","14:00","","3.6","","-3.3","","61","","","","25","","19","","40.2","","100.46","","","","","","NA"
"-71.39","46.79","QUEBEC INTL A","7016293","2025-03-26 15:00","2025","03","26","15:00","","3.6","","-2.5","","64","","","","25","","18","","48.3","","100.47","","","","","","NA"
"-71.39","46.79","QUEBEC INTL A","7016293","2025-03-26 16:00","2025","03","26","16:00","","4.1","","-3.6","","57","","","","26","","15","","48.3","","100.45","","","","","","Mostly Cloudy"
"-71.39","46.79","QUEBEC INTL A","7016293","2025-03-26 17:00","2025","03","26","17:00","","3.2","","-2.9","","64","","","","25","","12","","48.3","","100.49","","","","","","NA"
"-71.39","46.79","QUEBEC INTL A","7016293","2025-03-26 18:00","2025","03","26","18:00","","2.1","","-3.1","","69","","","","27","","7","","48.3","","100.53","","","","","","NA"
"-71.39","46.79","QUEBEC INTL A","7016293","2025-03-26 19:00","2025","03","26","19:00","","0.8","","-3.0","","76","","","","23","","9","","24.1","","100.57","","","","","","Mostly Cloudy"
"-71.39","46.79","QUEBEC INTL A","7016293","2025-03-26 20:00","2025","03","26","20:00","","1.1","","-3.6","","71","","","","25","","11","","24.1","","100.60","","","","","","NA"
"-71.39","46.79","QUEBEC INTL A","7016293","2025-03-26 21:00","2025","03","26","21:00","","0.4","","-3.8","","73","","","","25","","11","","24.1","","100.60","","","","","","NA"
"-71.39","46.79","QUEBEC INTL A","7016293","2025-03-26 22:00","2025","03","26","22:00","","0.0","","-4.6","","71","","","","24","","9","","24.1","","100.60","","","","-3","","Cloudy"
"-71.39","46.79","QUEBEC INTL A","7016293","2025-03-26 23:00","2025","03","26","23:00","","0.0","","-4.2","","74","","","","24","","8","","24.1","","100.61","","","","-3","","NA"
"-71.39","46.79","QUEBEC INTL A","7016293","2025-03-27 00:00","2025","03","27","00:00","","-0.6","","-3.7","","79","","","","23","","14","","24.1","","100.60","","","","-5","","NA"
"-71.39","46.79","QUEBEC INTL A","7016293","2025-03-27 01:00","2025","03","27","01:00","","-0.7","","-3.7","","80","","","","24","","16","","24.1","","100.60","","","","-5","","Cloudy"
"-71.39","46.79","QUEBEC INTL A","7016293","2025-03-27 02:00","2025","03","27","02:00","","-1.3","","-3.8","","83","","","","24","","13","","24.1","","100.59","","","","-6","","NA"
"-71.39","46.79","QUEBEC INTL A","7016293","2025-03-27 03:00","2025","03","27","03:00","","-1.7","","-3.6","","87","","","","24","","11","","24.1","","100.57","","","","-6","","NA"
"-71.39","46.79","QUEBEC INTL A","7016293","2025-03-27 04:00","2025","03","27","04:00","","-2.5","","-3.8","","91","","","","25","","7","","24.1","","100.59","","","","-5","","Mostly Cloudy"
"-71.39","46.79","QUEBEC INTL A","7016293","2025-03-27 05:00","2025","03","27","05:00","","-2.1","","-5.9","","75","","","","28","","8","","24.1","","100.62","","","","-5","","NA"
"-71.39","46.79","QUEBEC INTL A","7016293","2025-03-27 06:00","2025","03","27","06:00","","-1.2","","-7.6","","62","","","","31","","9","","48.3","","100.68","","","","-4","","NA"
"-71.39","46.79","QUEBEC INTL A","7016293","2025-03-27 07:00","2025","03","27","07:00","","-0.5","","-8.4","","55","","","","30","","5","","48.3","","100.74","","","","-2","","Mainly Clear"
"-71.39","46.79","QUEBEC INTL A","7016293","2025-03-27 08:00","2025","03","27","08:00","","0.7","","-9.5","","46","","","","31","","10","","48.3","","100.76","","","","","","NA"
"-71.39","46.79","QUEBEC INTL A","7016293","2025-03-27 09:00","2025","03","27","09:00","","1.4","","-10.3","","42","","","","26","","10","","48.3","","100.80","","","","","","NA"
"-71.39","46.79","QUEBEC INTL A","7016293","2025-03-27 10:00","2025","03","27","10:00","","2.4","","-10.7","","38","","","","29","","12","","48.3","","100.81","","","","","","Mainly Clear"
"-71.39","46.79","QUEBEC INTL A","7016293","2025-03-27 11:00","2025","03","27","11:00","","2.4","","-9.1","","43","","","","27","","22","","48.3","","100.78","","","","","","NA"
"-71.39","46.79","QUEBEC INTL A","7016293","2025-03-27 12:00","2025","03","27","12:00","","3.5","","-8.9","","40","","","","28","","14","","48.3","","100.76","","","","","","NA"
"-71.39","46.79","QUEBEC INTL A","7016293","2025-03-27 13:00","2025","03","27","13:00","","3.5","","-7.2","","46","","","","27","","23","","48.3","","100.72","","","","","","Mainly Clear"
"-71.39","46.79","QUEBEC INTL A","7016293","2025-03-27 14:00","2025","03","27","14:00","","4.3","","-7.7","","41","","","","26","","14","","48.3","","100.67","","","","","","NA"
"-71.39","46.79","QUEBEC INTL A","7016293","2025-03-27 15:00","2025","03","27","15:00","","4.4","","-6.2","","46","","","","23","","23","","48.3","","100.62","","","","","","NA"
"-71.39","46.79","QUEBEC INTL A","7016293","2025-03-27 16:00","2025","03","27","16:00","","4.2","","-7.4","","43","","","","23","","28","","48.3","","100.57","","","","","","Mainly Clear"
"-71.39","46.79","QUEBEC INTL A","7016293","2025-03-27 17:00","2025","03","27","17:00","","3.6","","-7.5","","44","","","","24","","19","","48.3","","100.59","","","","","","NA"
"-71.39","46.79","QUEBEC INTL A","7016293","2025-03-27 18:00","2025","03","27","18:00","","1.3","","-6.4","","57","","","","25","","14","","48.3","","100.58","","","","","","NA"
"-71.39","46.79","QUEBEC INTL A","7016293","2025-03-27 19:00","2025","03","27","19:00","","0.9","","-7.9","","52","","","","25","","10","","48.3","","100.57","","","","","","Mostly Cloudy"
"-71.39","46.79","QUEBEC INTL A","7016293","2025-03-27 20:00","2025","03","27","20:00","","0.3","","-7.6","","56","","","","28","","4","","24.1","","100.57","","","","","","NA"
"-71.39","46.79","QUEBEC INTL A","7016293","2025-03-27 21:00","2025","03","27","21:00","","0.7","","-6.7","","57","","","","27","","8","","24.1","","100.55","","","","","","NA"
"-71.39","46.79","QUEBEC INTL A","7016293","2025-03-27 22:00","2025","03","27","22:00","","2.7","","-4.6","","58","","","","23","","18","","24.1","","100.50","","","","","","Cloudy"
"-71.39","46.79","QUEBEC INTL A","7016293","2025-03-27 23:00","2025","03","27","23:00","","1.0","","-1.0","","86","","","","23","","23","","9.7","","100.49","","","","","","Snow Showers"
"-71.39","46.79","QUEBEC INTL A","7016293","2025-03-28 00:00","2025","03","28","00:00","","0.2","","0.0","","98","","","","21","","14","","24.1","","100.39","","","","","","Snow Showers"
"-71.39","46.79","QUEBEC INTL A","7016293","2025-03-28 01:00","2025","03","28","01:00","","0.3","","0.0","","98","","","","20","","11","","16.1","","100.30","","","","","","Snow Showers"
"-71.39","46.79","QUEBEC INTL A","7016293","2025-03-28 02:00","2025","03","28","02:00","","0.2","","0.2","","100","","","","23","","12","","6.4","","100.25","","","","","","Snow"
"-71.39","46.79","QUEBEC INTL A","7016293","2025-03-28 03:00","2025","03","28","03:00","","0.3","","0.3","","100","","","","23","","16","","16.1","","100.19","","","","","","Snow"
"-71.39","46.79","QUEBEC INTL A","7016293","2025-03-28 04:00","2025","03","28","04:00","","0.2","","0.2","","100","","","","24","","18","","4.8","","100.21","","","","","","Snow"
"-71.39","46.79","QUEBEC INTL A","7016293","2025-03-28 05:00","2025","03","28","05:00","","-1.0","","-4.3","","78","","","","27","","19","","24.1","","100.35","","","","-6","","Snow"
"-71.39","46.79","QUEBEC INTL A","7016293","2025-03-28 06:00","2025","03","28","06:00","","-4.0","","-7.3","","77","","","","26","","20","","48.3","","100.54","","","","-10","","NA"
"-71.39","46.79","QUEBEC INTL A","7016293","2025-03-28 07:00","2025","03","28","07:00","","-4.8","","-8.3","","77","","","","25","","27","","48.3","","100.74","","","","-12","","Mainly Clear"
"-71.39","46.79","QUEBEC INTL A","7016293","2025-03-28 08:00","2025","03","28","08:00","","-5.0","","-9.4","","71","","","","27","","27","","48.3","","100.85","","","","-13","","NA"
"-71.39","46.79","QUEBEC INTL A","7016293","2025-03-28 09:00","2025","03","28","09:00","","-4.7","","-10.3","","65","","","","25","","28","","48.3","","100.95","","","","-12","","NA"
"-71.39","46.79","QUEBEC INTL A","7016293","2025-03-28 10:00","2025","03","28","10:00","","-4.2","","-10.8","","60","","","","24","","25","","48.3","","101.03","","","","-11","","Mainly Clear"
"-71.39","46.79","QUEBEC INTL A","7016293","2025-03-28 11:00","2025","03","28","11:00","","-3.5","","-13.0","","48","","","","27","","30","","48.3","","101.01","","","","-11","","NA"
"-71.39","46.79","QUEBEC INTL A","7016293","2025-03-28 12:00","2025","03","28","12:00","","-2.5","","-10.9","","53","","","","24","","22","","48.3","","100.95","","","","-9","","NA"
"-71.39","46.79","QUEBEC INTL A","7016293","2025-03-28 13:00","2025","03","28","13:00","","-1.6","","-11.1","","48","","","","26","","25","","48.3","","100.94","","","","-8","","Clear"
"-71.39","46.79","QUEBEC INTL A","7016293","2025-03-28 14:00","2025","03","28","14:00","","-1.4","","-13.0","","41","","","","25","","32","","48.3","","100.97","","","","-9","","NA"
"-71.39","46.79","QUEBEC INTL A","7016293","2025-03-28 15:00","2025","03","28","15:00","","-1.2","","-14.8","","35","","","","28","","22","","48.3","","101.01","","","","-7","","NA"
"-71.39","46.79","QUEBEC INTL A","7016293","2025-03-28 16:00","2025","03","28","16:00","","-1.2","","-14.3","","37","","","","27","","29","","48.3","","101.00","","","","-8","","Mostly Cloudy"
"-71.39","46.79","QUEBEC INTL A","7016293","2025-03-28 17:00","2025","03","28","17:00","","-1.7","","-14.0","","39","","","","27","","12","","48.3","","101.03","","","","-6","","NA"
"-71.39","46.79","QUEBEC INTL A","7016293","2025-03-28 18:00","2025","03","28","18:00","","-1.8","","-14.9","","36","","","","32","","7","","48.3","","101.05","","","","-4","","NA"
"-71.39","46.79","QUEBEC INTL A","7016293","2025-03-28 19:00","2025","03","28","19:00","","-2.6","","-15.5","","37","","","","33","","7","","24.1","","101.12","","","","-5","","Mostly Cloudy"
"-71.39","46.79","QUEBEC INTL A","7016293","2025-03-28 20:00","2025","03","28","20:00","","-3.7","","-14.4","","44","","","","34","","5","","24.1","","101.17","","","","-6","","NA"
"-71.39","46.79","QUEBEC INTL A","7016293","2025-03-28 21:00","2025","03","28","21:00","","-4.2","","-14.6","","44","","","","35","","9","","24.1","","101.19","","","","-8","","NA"
"-71.39","46.79","QUEBEC INTL A","7016293","2025-03-28 22:00","2025","03","28","22:00","","-4.5","","-14.4","","46","","","","36","","9","","24.1","","101.19","","","","-8","","Mostly Cloudy"
"-71.39","46.79","QUEBEC INTL A","7016293","2025-03-28 23:00","2025","03","28","23:00","","-5.3","","-15.1","","46","","","","36","","12","","24.1","","101.13","","","","-10","","NA"
"-71.39","46.79","QUEBEC INTL A","7016293","2025-03-29 00:00","2025","03","29","00:00","","-6.3","","-14.7","","51","","","","1","","11","","24.1","","101.16","","","","-11","","NA"
"-71.39","46.79","QUEBEC INTL A","7016293","2025-03-29 01:00","2025","03","29","01:00","","-7.1","","-15.6","","51","","","","3","","12","","24.1","","101.16","","","","-12","","Mostly Cloudy"
"-71.39","46.79","QUEBEC INTL A","7016293","2025-03-29 02:00","2025","03","29","02:00","","-7.6","","-15.6","","53","","","","1","","9","","24.1","","101.15","","","","-12","","NA"
"-71.39","46.79","QUEBEC INTL A","7016293","2025-03-29 03:00","2025","03","29","03:00","","-7.9","","-15.6","","54","","","","1","","7","","24.1","","101.16","","","","-12","","NA"
"-71.39","46.79","QUEBEC INTL A","7016293","2025-03-29 04:00","2025","03","29","04:00","","-8.3","","-15.5","","56","","","","2","","8","","24.1","","101.20","","","","-12","","Mostly Cloudy"
"-71.39","46.79","QUEBEC INTL A","7016293","2025-03-29 05:00","2025","03","29","05:00","","-8.8","","-15.9","","57","","","","2","","9","","24.1","","101.23","","","","-13","","NA"
"-71.39","46.79","QUEBEC INTL A","7016293","2025-03-29 06:00","2025","03","29","06:00","","-9.0","","-16.0","","58","","","","2","","7","","48.3","","101.33","","","","-13","","NA"
"-71.39","46.79","QUEBEC INTL A","7016293","2025-03-29 07:00","2025","03","29","07:00","","-7.9","","-15.4","","55","","","","7","","22","","48.3","","101.33","","","","-16","","Mainly Clear"
"-71.39","46.79","QUEBEC INTL A","7016293","2025-03-29 08:00","2025","03","29","08:00","","-6.9","","-14.9","","53","","","","7","","27","","48.3","","101.38","","","","-15","","NA"
"-71.39","46.79","QUEBEC INTL A","7016293","2025-03-29 09:00","2025","03","29","09:00","","-5.7","","-13.9","","53","","","","7","","19","","48.3","","101.42","","","","-12","","NA"
"-71.39","46.79","QUEBEC INTL A","7016293","2025-03-29 10:00","2025","03","29","10:00","","-4.8","","-11.8","","58","","","","10","","19","","48.3","","101.41","","","","-11","","Mostly Cloudy"
"-71.39","46.79","QUEBEC INTL A","7016293","2025-03-29 11:00","2025","03","29","11:00","","-3.9","","-12.9","","50","","","","9","","13","","48.3","","101.38","","","","-9","","NA"
"-71.39","46.79","QUEBEC INTL A","7016293","2025-03-29 12:00","2025","03","29","12:00","","-3.0","","-12.7","","47","","","","11","","9","","48.3","","101.41","","","","-7","","NA"
"-71.39","46.79","QUEBEC INTL A","7016293","2025-03-29 13:00","2025","03","29","13:00","","-2.6","","-12.0","","49","","","","9","","4","","48.3","","101.37","","","","-4","","Mainly Clear"
"-71.39","46.79","QUEBEC INTL A","7016293","2025-03-29 14:00","2025","03","29","14:00","","-1.1","","-12.4","","42","","","","10","","12","","48.3","","101.39","","","","-5","","NA"
"-71.39","46.79","QUEBEC INTL A","7016293","2025-03-29 15:00","2025","03","29","15:00","","-1.1","","-13.3","","39","","","","7","","12","","48.3","","101.41","","","","-5","","NA"
"-71.39","46.79","QUEBEC INTL A","7016293","2025-03-29 16:00","2025","03","29","16:00","","-0.7","","-16.0","","31","","","","11","","12","","48.3","","101.42","","","","-5","","Mainly Clear"
"-71.39","46.79","QUEBEC INTL A","7016293","2025-03-29 17:00","2025","03","29","17:00","","-1.0","","-13.4","","39","","","","7","","14","","48.3","","101.48","","","","-5","","NA"
"-71.39","46.79","QUEBEC INTL A","7016293","2025-03-29 18:00","2025","03","29","18:00","","-2.6","","-11.5","","51","","","","5","","9","","48.3","","101.51","","","","-6","","NA"
"-71.39","46.79","QUEBEC INTL A","7016293","2025-03-29 19:00","2025","03","29","19:00","","-3.3","","-12.7","","49","","","","36","","4","","24.1","","101.56","","","","-5","","Mainly Clear"
"-71.39","46.79","QUEBEC INTL A","7016293","2025-03-29 20:00","2025","03","29","20:00","","-3.8","","-13.3","","48","","","","36","","6","","24.1","","101.61","","","","-6","","NA"
"-71.39","46.79","QUEBEC INTL A","7016293","2025-03-29 21:00","2025","03","29","21:00","","-3.4","","-14.6","","42","","","","1","","9","","24.1","","101.62","","","","-7","","NA"
"-71.39","46.79","QUEBEC INTL A","7016293","2025-03-29 22:00","2025","03","29","22:00","","-3.8","","-13.8","","46","","","","3","","8","","24.1","","101.63","","","","-7","","Mainly Clear"
"-71.39","46.79","QUEBEC INTL A","7016293","2025-03-29 23:00","2025","03","29","23:00","","-4.8","","-13.0","","53","","","","1","","7","","24.1","","101.64","","","","-8","","NA"
"-71.39","46.79","QUEBEC INTL A","7016293","2025-03-30 00:00","2025","03","30","00:00","","-5.5","","-12.8","","57","","","","2","","7","","24.1","","101.62","","","","-9","","NA"
"-71.39","46.79","QUEBEC INTL A","7016293","2025-03-30 01:00","2025","03","30","01:00","","-5.8","","-12.9","","57","","","","1","","9","","24.1","","101.61","","","","-10","","Mainly Clear"
"-71.39","46.79","QUEBEC INTL A","7016293","2025-03-30 02:00","2025","03","30","02:00","","-6.5","","-11.2","","69","","","","6","","5","","24.1","","101.64","","","","-9","","NA"
"-71.39","46.79","QUEBEC INTL A","7016293","2025-03-30 03:00","2025","03","30","03:00","","-6.0","","-12.2","","62","","","","2","","7","","22.5","","101.63","","","","-9","","NA"
"-71.39","46.79","QUEBEC INTL A","7016293","2025-03-30 04:00","2025","03","30","04:00","","-5.6","","-11.9","","62","","","","4","","10","","24.1","","101.65","","","","-10","","Mostly Cloudy"
"-71.39","46.79","QUEBEC INTL A","7016293","2025-03-30 05:00","2025","03","30","05:00","","-5.6","","-12.3","","59","","","","4","","13","","24.1","","101.61","","","","-11","","NA"
"-71.39","46.79","QUEBEC INTL A","7016293","2025-03-30 06:00","2025","03","30","06:00","","-4.5","","-11.2","","60","","","","7","","22","","48.3","","101.62","","","","-11","","NA"
"-71.39","46.79","QUEBEC INTL A","7016293","2025-03-30 07:00","2025","03","30","07:00","","-2.9","","-10.0","","58","","","","7","","23","","48.3","","101.63","","","","-9","","Mostly Cloudy"
"-71.39","46.79","QUEBEC INTL A","7016293","2025-03-30 08:00","2025","03","30","08:00","","-1.9","","-11.0","","50","","","","7","","30","","48.3","","101.62","","","","-9","","NA"
"-71.39","46.79","QUEBEC INTL A","7016293","2025-03-30 09:00","2025","03","30","09:00","","-0.8","","-9.5","","52","","","","7","","31","","48.3","","101.56","","","","-8","","NA"
"-71.39","46.79","QUEBEC INTL A","7016293","2025-03-30 10:00","2025","03","30","10:00","","-0.4","","-9.9","","49","","","","7","","25","","48.3","","101.53","","","","-6","","Cloudy"
"-71.39","46.79","QUEBEC INTL A","7016293","2025-03-30 11:00","2025","03","30","11:00","","0.3","","-10.0","","46","","","","7","","29","","48.3","","101.41","","","","","","NA"
"-71.39","46.79","QUEBEC INTL A","7016293","2025-03-30 12:00","2025","03","30","12:00","","0.4","","-9.3","","48","","","","8","","23","","48.3","","101.34","","","","","","NA"
"-71.39","46.79","QUEBEC INTL A","7016293","2025-03-30 13:00","2025","03","30","13:00","","0.2","","-9.7","","48","","","","9","","25","","48.3","","101.30","","","","","","Cloudy"
"-71.39","46.79","QUEBEC INTL A","7016293","2025-03-30 14:00","2025","03","30","14:00","","-1.8","","-3.5","","88","","","","8","","21","","1.6","","101.34","","","","-8","","Snow Showers"
"-71.39","46.79","QUEBEC INTL A","7016293","2025-03-30 15:00","2025","03","30","15:00","","-2.0","","-2.5","","97","","","","7","","22","","1.2","","101.22","","","","-8","","Snow"
"-71.39","46.79","QUEBEC INTL A","7016293","2025-03-30 16:00","2025","03","30","16:00","","-2.2","","-2.6","","97","","","","7","","26","","2.0","","101.12","","","","-9","","Snow,Ice Pellets"
"-71.39","46.79","QUEBEC INTL A","7016293","2025-03-30 17:00","2025","03","30","17:00","","-1.8","","-2.3","","97","","","","6","","29","","2.4","","101.02","","","","-9","","Ice Pellets,Fog"
"-71.39","46.79","QUEBEC INTL A","7016293","2025-03-30 18:00","2025","03","30","18:00","","-1.5","","-1.9","","97","","","","7","","33","","2.4","","100.96","","","","-9","","Freezing Rain,Ice Pellets,Fog"
"-71.39","46.79","QUEBEC INTL A","7016293","2025-03-30 19:00","2025","03","30","19:00","","-1.4","","-1.7","","98","","","","7","","30","","3.2","","100.87","","","","-8","","Freezing Rain,Ice Pellets,Fog"
"-71.39","46.79","QUEBEC INTL A","7016293","2025-03-30 20:00","2025","03","30","20:00","","-1.4","","-1.7","","98","","","","7","","30","","6.4","","100.79","","","","-8","","Freezing Rain,Fog"
"-71.39","46.79","QUEBEC INTL A","7016293","2025-03-30 21:00","2025","03","30","21:00","","-1.1","","-1.4","","98","","","","7","","32","","6.4","","100.62","","","","-8","","Freezing Rain,Fog"
"-71.39","46.79","QUEBEC INTL A","7016293","2025-03-30 22:00","2025","03","30","22:00","","-0.9","","-1.1","","99","","","","7","","33","","8.1","","100.55","","","","-8","","Freezing Rain,Fog"
"-71.39","46.79","QUEBEC INTL A","7016293","2025-03-30 23:00","2025","03","30","23:00","","-0.9","","-1.1","","98","","","","7","","30","","8.1","","100.45","","","","-8","","Freezing Rain,Fog"
"-71.39","46.79","QUEBEC INTL A","7016293","2025-03-31 00:00","2025","03","31","00:00","","-0.8","","-1.0","","99","","","","6","","30","","9.7","","100.36","","","","-8","","Freezing Rain,Fog"
"-71.39","46.79","QUEBEC INTL A","7016293","2025-03-31 01:00","2025","03","31","01:00","","-0.9","","-1.0","","99","","","","7","","31","","72.4","","100.24","","","","-8","","Freezing Rain,Fog"
"-71.39","46.79","QUEBEC INTL A","7016293","2025-03-31 02:00","2025","03","31","02:00","","-0.8","","-0.9","","99","","","","7","","27","","6.4","","100.10","","","","-7","","Freezing Drizzle,Fog"
"-71.39","46.79","QUEBEC INTL A","7016293","2025-03-31 03:00","2025","03","31","03:00","","-0.7","","-0.8","","99","","","","7","","34","","6.4","","99.93","","","","-8","","Freezing Drizzle,Fog"
"-71.39","46.79","QUEBEC INTL A","7016293","2025-03-31 04:00","2025","03","31","04:00","","-0.6","","-0.7","","99","","","","7","","28","","8.1","","99.82","","","","-7","","Freezing Drizzle,Fog"
"-71.39","46.79","QUEBEC INTL A","7016293","2025-03-31 05:00","2025","03","31","05:00","","-0.5","","-0.5","","100","","","","7","","31","","6.4","","99.70","","","","-7","","Freezing Drizzle,Fog"
"-71.39","46.79","QUEBEC INTL A","7016293","2025-03-31 06:00","2025","03","31","06:00","","-0.4","","-0.4","","100","","","","8","","31","","6.4","","99.58","","","","-7","","Freezing Drizzle,Fog"
"-71.39","46.79","QUEBEC INTL A","7016293","2025-03-31 07:00","2025","03","31","07:00","","-0.1","","-0.1","","100","","","","7","","31","","3.6","","99.43","","","","-7","","Freezing Rain,Fog"
"-71.39","46.79","QUEBEC INTL A","7016293","2025-03-31 08:00","2025","03","31","08:00","","0.2","","0.2","","100","","","","7","","26","","8.1","","99.29","","","","","","Rain,Fog"
"-71.39","46.79","QUEBEC INTL A","7016293","2025-03-31 09:00","2025","03","31","09:00","","0.5","","0.5","","100","","","","6","","23","","4.8","","99.19","","","","","","Moderate Rain,Fog"
"-71.39","46.79","QUEBEC INTL A","7016293","2025-03-31 10:00","2025","03","31","10:00","","0.8","","0.8","","100","","","","6","","15","","2.4","","99.14","","","","","","Rain,Fog"
"-71.39","46.79","QUEBEC INTL A","7016293","2025-03-31 11:00","2025","03","31","11:00","","1.0","","1.0","","100","","","","7","","13","","4.0","","99.08","","","","","","Moderate Rain,Fog"
"-71.39","46.79","QUEBEC INTL A","7016293","2025-03-31 12:00","2025","03","31","12:00","","1.1","","1.1","","100","","","","9","","14","","11.3","","99.01","","","","","","Rain"
"-71.39","46.79","QUEBEC INTL A","7016293","2025-03-31 13:00","2025","03","31","13:00","","0.8","","0.8","","100","","","","6","","14","","1.6","","98.95","","","","","","Drizzle,Fog"
"-71.39","46.79","QUEBEC INTL A","7016293","2025-03-31 14:00","2025","03","31","14:00","","1.0","","1.0","","100","","","","8","","14","","2.0","","98.89","","","","","","Drizzle,Fog"
"-71.39","46.79","QUEBEC INTL A","7016293","2025-03-31 15:00","2025","03","31","15:00","","0.7","","0.7","","100","","","","5","","10","","1.6","","98.85","","","","","","Drizzle,Fog"
"-71.39","46.79","QUEBEC INTL A","7016293","2025-03-31 16:00","2025","03","31","16:00","","1.0","","1.0","","100","","","","34","","4","","1.6","","98.87","","","","","","Rain,Fog"
"-71.39","46.79","QUEBEC INTL A","7016293","2025-03-31 17:00","2025","03","31","17:00","","0.9","","0.9","","100","","","","","","0","","4.8","","98.84","","","","","","Drizzle,Fog"
"-71.39","46.79","QUEBEC INTL A","7016293","2025-03-31 18:00","2025","03","31","18:00","","1.0","","1.0","","100","","","","18","","4","","1.0","","98.86","","","","","","Fog"
"-71.39","46.79","QUEBEC INTL A","7016293","2025-03-31 19:00","2025","03","31","19:00","","1.0","","1.0","","100","","","","25","","4","","4.8","","98.88","","","","","","Drizzle,Fog"
"-71.39","46.79","QUEBEC INTL A","7016293","2025-03-31 20:00","2025","03","31","20:00","","3.8","","3.8","","100","","","","24","","21","","4.0","","98.94","","","","","","Rain Showers,Fog"
"-71.39","46.79","QUEBEC INTL A","7016293","2025-03-31 21:00","2025","03","31","21:00","","3.4","","3.4","","100","","","","24","","20","","9.7","","99.02","","","","","","Drizzle,Fog"
"-71.39","46.79","QUEBEC INTL A","7016293","2025-03-31 22:00","2025","03","31","22:00","","3.1","","3.1","","100","","","","24","","21","","16.1","","99.04","","","","","","Cloudy"
"-71.39","46.79","QUEBEC INTL A","7016293","2025-03-31 23:00","2025","03","31","23:00","","2.8","","1.7","","92","","","","26","","30","","24.1","","99.15","","","","","","NA"
