"Longitude (x)","Latitude (y)","Station Name","Climate ID","Date/Time (LST)","Year","Month","Day","Time (LST)","Flag","Temp (°C)","Temp Flag","Dew Point Temp (°C)","Dew Point Temp Flag","Rel Hum (%)","Rel Hum Flag","Precip. Amount (mm)","Precip. Amount Flag","Wind Dir (10s deg)","Wind Dir Flag","Wind Spd (km/h)","Wind Spd Flag","Visibility (km)","Visibility Flag","Stn Press (kPa)","Stn Press Flag","Hmdx","Hmdx Flag","Wind Chill","Wind Chill Flag","Weather"
"-71.39","46.79","QUEBEC INTL A","7016293","2020-02-01 00:00","2020","02","01","00:00","","-10.6","","-12.8","","84","","","","33","","4","","24.1","","101.21","","","","-13","","NA"
"-71.39","46.79","QUEBEC INTL A","7016293","2020-02-01 01:00","2020","02","01","01:00","","-9.8","","-12.2","","82","","","","31","","3","","24.1","","101.13","","","","-12","","Cloudy"
"-71.39","46.79","QUEBEC INTL A","7016293","2020-02-01 02:00","2020","02","01","02:00","","-8.7","","-10.8","","85","","","","","","0","","4.8","","101.04","","","","","","Snow"
"-71.39","46.79","QUEBEC INTL A","7016293","2020-02-01 03:00","2020","02","01","03:00","","-9.1","","-10.7","","88","","","","","","0","","4.8","","100.95","","","","","","Snow"
"-71.39","46.79","QUEBEC INTL A","7016293","2020-02-01 04:00","2020","02","01","04:00","","-8.6","","-9.9","","91","","","","21","","5","","4.8","","100.95","","","","-11","","Snow"
"-71.39","46.79","QUEBEC INTL A","7016293","2020-02-01 05:00","2020","02","01","05:00","","-8.4","","-9.8","","90","","","","","","0","","4.8","","100.89","","","","","","Snow"
"-71.39","46.79","QUEBEC INTL A","7016293","2020-02-01 06:00","2020","02","01","06:00","","-8.5","","-9.7","","91","","","","","","0","","8.1","","100.87","","","","","","Snow"
"-71.39","46.79","QUEBEC INTL A","7016293","2020-02-01 07:00","2020","02","01","07:00","","-8.6","","-9.9","","90","","","","31","","3","","6.4","","100.84","","","","-10","","Snow"
"-71.39","46.79","QUEBEC INTL A","7016293","2020-02-01 08:00","2020","02","01","08:00","","-7.5","","-8.9","","90","","","","33","","5","","9.7","","100.79","","","","-10","","Snow"
"-71.39","46.79","QUEBEC INTL A","7016293","2020-02-01 09:00","2020","02","01","09:00","","-6.8","","-8.9","","85","","","","","","0","","9.7","","100.71","","","","","","Snow"
"-71.39","46.79","QUEBEC INTL A","7016293","2020-02-01 10:00","2020","02","01","10:00","","-6.0","","-8.1","","85","","","","28","","4","","8.1","","100.72","","","","-8","","Snow,Fog"
"-71.39","46.79","QUEBEC INTL A","7016293","2020-02-01 11:00","2020","02","01","11:00","","-5.4","","-7.2","","88","","","","22","","12","","4.8","","100.67","","","","-10","","Snow,Fog"
"-71.39","46.79","QUEBEC INTL A","7016293","2020-02-01 12:00","2020","02","01","12:00","","-4.7","","-6.8","","85","","","","22","","13","","8.1","","100.53","","","","-10","","Snow,Fog"
"-71.39","46.79","QUEBEC INTL A","7016293","2020-02-01 13:00","2020","02","01","13:00","","-4.4","","-6.8","","84","","","","22","","10","","9.7","","100.43","","","","-9","","Snow,Fog"
"-71.39","46.79","QUEBEC INTL A","7016293","2020-02-01 14:00","2020","02","01","14:00","","-4.5","","-7.7","","78","","","","21","","14","","11.3","","100.29","","","","-10","","NA"
"-71.39","46.79","QUEBEC INTL A","7016293","2020-02-01 15:00","2020","02","01","15:00","","-4.9","","-7.6","","81","","","","23","","14","","11.3","","100.26","","","","-10","","NA"
"-71.39","46.79","QUEBEC INTL A","7016293","2020-02-01 16:00","2020","02","01","16:00","","-5.3","","-8.0","","82","","","","26","","7","","11.3","","100.22","","","","-9","","Mostly Cloudy"
"-71.39","46.79","QUEBEC INTL A","7016293","2020-02-01 17:00","2020","02","01","17:00","","-7.4","","-9.1","","88","","","","","","0","","16.1","","100.16","","","","","","NA"
"-71.39","46.79","QUEBEC INTL A","7016293","2020-02-01 18:00","2020","02","01","18:00","","-7.6","","-8.5","","93","","","","","","0","","11.3","","100.09","","","","","","NA"
"-71.39","46.79","QUEBEC INTL A","7016293","2020-02-01 19:00","2020","02","01","19:00","","-7.6","","-8.9","","91","","","","","","0","","11.3","","100.07","","","","","","Mostly Cloudy"
"-71.39","46.79","QUEBEC INTL A","7016293","2020-02-01 20:00","2020","02","01","20:00","","-7.0","","-8.4","","90","","","","","","0","","11.3","","100.02","","","","","","NA"
"-71.39","46.79","QUEBEC INTL A","7016293","2020-02-01 21:00","2020","02","01","21:00","","-7.4","","-8.7","","91","","","","","","0","","11.3","","99.93","","","","","","NA"
"-71.39","46.79","QUEBEC INTL A","7016293","2020-02-01 22:00","2020","02","01","22:00","","-8.2","","-9.4","","91","","","","","","0","","12.9","","99.89","","","","","","Mostly Cloudy"
"-71.39","46.79","QUEBEC INTL A","7016293","2020-02-01 23:00","2020","02","01","23:00","","-8.0","","-9.0","","92","","","","","","0","","12.9","","99.82","","","","","","NA"
"-71.39","46.79","QUEBEC INTL A","7016293","2020-02-02 00:00","2020","02","02","00:00","","-8.0","","-9.0","","92","","","","30","","4","","12.9","","99.71","","","","-10","","NA"
"-71.39","46.79","QUEBEC INTL A","7016293","2020-02-02 01:00","2020","02","02","01:00","","-7.7","","-8.7","","93","","","","6","","3","","12.9","","99.60","","","","-9","","Cloudy"
"-71.39","46.79","QUEBEC INTL A","7016293","2020-02-02 02:00","2020","02","02","02:00","","-7.3","","-8.6","","91","","","","11","","7","","12.9","","99.52","","","","-11","","Snow"
"-71.39","46.79","QUEBEC INTL A","7016293","2020-02-02 03:00","2020","02","02","03:00","","-7.6","","-8.8","","91","","","","19","","5","","16.1","","99.44","","","","-10","","Snow"
"-71.39","46.79","QUEBEC INTL A","7016293","2020-02-02 04:00","2020","02","02","04:00","","-8.3","","-9.5","","91","","","","","","0","","16.1","","99.40","","","","","","Snow"
"-71.39","46.79","QUEBEC INTL A","7016293","2020-02-02 05:00","2020","02","02","05:00","","-8.9","","-10.0","","92","","","","5","","4","","16.1","","99.35","","","","-11","","Snow"
"-71.39","46.79","QUEBEC INTL A","7016293","2020-02-02 06:00","2020","02","02","06:00","","-8.3","","-9.4","","92","","","","10","","5","","24.1","","99.34","","","","-11","","NA"
"-71.39","46.79","QUEBEC INTL A","7016293","2020-02-02 07:00","2020","02","02","07:00","","-9.0","","-10.2","","92","","","","28","","5","","19.3","","99.32","","","","-12","","Mostly Cloudy"
"-71.39","46.79","QUEBEC INTL A","7016293","2020-02-02 08:00","2020","02","02","08:00","","-7.9","","-9.0","","92","","","","26","","5","","19.3","","99.33","","","","-11","","Snow"
"-71.39","46.79","QUEBEC INTL A","7016293","2020-02-02 09:00","2020","02","02","09:00","","-7.1","","-8.6","","90","","","","24","","10","","8.1","","99.26","","","","-12","","Snow"
"-71.39","46.79","QUEBEC INTL A","7016293","2020-02-02 10:00","2020","02","02","10:00","","-6.1","","-8.2","","85","","","","","","0","","19.3","","99.21","","","","","","Snow"
"-71.39","46.79","QUEBEC INTL A","7016293","2020-02-02 11:00","2020","02","02","11:00","","-4.8","","-7.6","","80","","","","","","0","","24.1","","99.11","","","","","","NA"
"-71.39","46.79","QUEBEC INTL A","7016293","2020-02-02 12:00","2020","02","02","12:00","","-3.9","","-6.8","","80","","","","22","","10","","24.1","","99.02","","","","-8","","NA"
"-71.39","46.79","QUEBEC INTL A","7016293","2020-02-02 13:00","2020","02","02","13:00","","-3.5","","-6.3","","81","","","","22","","13","","24.1","","98.93","","","","-8","","Cloudy"
"-71.39","46.79","QUEBEC INTL A","7016293","2020-02-02 14:00","2020","02","02","14:00","","-3.8","","-6.3","","83","","","","22","","19","","16.1","","98.90","","","","-10","","Snow"
"-71.39","46.79","QUEBEC INTL A","7016293","2020-02-02 15:00","2020","02","02","15:00","","-3.5","","-6.3","","81","","","","22","","15","","11.3","","98.86","","","","-9","","Snow,Haze"
"-71.39","46.79","QUEBEC INTL A","7016293","2020-02-02 16:00","2020","02","02","16:00","","-4.1","","-6.6","","83","","","","22","","15","","19.3","","98.85","","","","-9","","Mostly Cloudy"
"-71.39","46.79","QUEBEC INTL A","7016293","2020-02-02 17:00","2020","02","02","17:00","","-5.1","","-7.0","","86","","","","23","","12","","14.5","","98.85","","","","-10","","Haze"
"-71.39","46.79","QUEBEC INTL A","7016293","2020-02-02 18:00","2020","02","02","18:00","","-6.9","","-8.5","","89","","","","25","","12","","19.3","","98.89","","","","-12","","NA"
"-71.39","46.79","QUEBEC INTL A","7016293","2020-02-02 19:00","2020","02","02","19:00","","-7.3","","-8.4","","93","","","","28","","5","","16.1","","98.93","","","","-10","","Mainly Clear"
"-71.39","46.79","QUEBEC INTL A","7016293","2020-02-02 20:00","2020","02","02","20:00","","-7.5","","-8.3","","93","","","","22","","8","","11.3","","98.96","","","","-12","","NA"
"-71.39","46.79","QUEBEC INTL A","7016293","2020-02-02 21:00","2020","02","02","21:00","","-7.3","","-8.4","","92","","","","23","","5","","11.3","","98.96","","","","-10","","Snow"
"-71.39","46.79","QUEBEC INTL A","7016293","2020-02-02 22:00","2020","02","02","22:00","","-6.5","","-8.1","","89","","","","23","","7","","11.3","","98.95","","","","-10","","Snow"
"-71.39","46.79","QUEBEC INTL A","7016293","2020-02-02 23:00","2020","02","02","23:00","","-6.4","","-7.6","","91","","","","23","","10","","4.8","","98.95","","","","-11","","Snow,Fog"
"-71.39","46.79","QUEBEC INTL A","7016293","2020-02-03 00:00","2020","02","03","00:00","","-6.5","","-7.6","","92","","","","22","","5","","4.8","","98.94","","","","-9","","Snow,Fog"
"-71.39","46.79","QUEBEC INTL A","7016293","2020-02-03 01:00","2020","02","03","01:00","","-5.5","","-6.6","","92","","","","23","","11","","3.2","","98.96","","","","-10","","Snow,Fog"
"-71.39","46.79","QUEBEC INTL A","7016293","2020-02-03 02:00","2020","02","03","02:00","","-5.6","","-6.5","","93","","","","22","","10","","3.2","","99.00","","","","-10","","Snow,Fog"
"-71.39","46.79","QUEBEC INTL A","7016293","2020-02-03 03:00","2020","02","03","03:00","","-5.7","","-6.8","","92","","","","22","","16","","4.0","","99.04","","","","-12","","Snow,Fog"
"-71.39","46.79","QUEBEC INTL A","7016293","2020-02-03 04:00","2020","02","03","04:00","","-6.2","","-7.3","","92","","","","25","","22","","4.0","","99.09","","","","-13","","Snow,Fog"
"-71.39","46.79","QUEBEC INTL A","7016293","2020-02-03 05:00","2020","02","03","05:00","","-5.9","","-7.2","","91","","","","24","","16","","4.8","","99.15","","","","-12","","Snow,Fog"
"-71.39","46.79","QUEBEC INTL A","7016293","2020-02-03 06:00","2020","02","03","06:00","","-6.0","","-7.2","","92","","","","24","","21","","3.2","","99.21","","","","-13","","Snow,Fog"
"-71.39","46.79","QUEBEC INTL A","7016293","2020-02-03 07:00","2020","02","03","07:00","","-6.2","","-7.0","","94","","","","25","","17","","3.2","","99.28","","","","-12","","Snow,Fog"
"-71.39","46.79","QUEBEC INTL A","7016293","2020-02-03 08:00","2020","02","03","08:00","","-5.9","","-6.7","","94","","","","25","","18","","2.0","","99.36","","","","-12","","Snow,Fog"
"-71.39","46.79","QUEBEC INTL A","7016293","2020-02-03 09:00","2020","02","03","09:00","","-5.1","","-5.9","","94","","","","23","","10","","2.0","","99.36","","","","-9","","Snow,Fog"
"-71.39","46.79","QUEBEC INTL A","7016293","2020-02-03 10:00","2020","02","03","10:00","","-4.1","","-5.5","","90","","","","25","","10","","3.2","","99.38","","","","-8","","Snow,Fog"
"-71.39","46.79","QUEBEC INTL A","7016293","2020-02-03 11:00","2020","02","03","11:00","","-3.3","","-5.1","","87","","","","25","","15","","4.8","","99.37","","","","-8","","Snow,Fog"
"-71.39","46.79","QUEBEC INTL A","7016293","2020-02-03 12:00","2020","02","03","12:00","","-2.4","","-4.1","","88","","","","25","","16","","3.2","","99.31","","","","-8","","Snow,Fog"
"-71.39","46.79","QUEBEC INTL A","7016293","2020-02-03 13:00","2020","02","03","13:00","","-2.2","","-3.1","","94","","","","25","","14","","0.6","","99.28","","","","-7","","Moderate Snow"
"-71.39","46.79","QUEBEC INTL A","7016293","2020-02-03 14:00","2020","02","03","14:00","","-1.0","","-2.0","","93","","","","24","","18","","1.6","","99.26","","","","-6","","Snow"
"-71.39","46.79","QUEBEC INTL A","7016293","2020-02-03 15:00","2020","02","03","15:00","","-0.7","","-2.1","","90","","","","25","","27","","2.0","","99.32","","","","-7","","Snow"
"-71.39","46.79","QUEBEC INTL A","7016293","2020-02-03 16:00","2020","02","03","16:00","","-0.4","","-1.8","","90","","","","26","","22","","4.0","","99.43","","","","-6","","Snow"
"-71.39","46.79","QUEBEC INTL A","7016293","2020-02-03 17:00","2020","02","03","17:00","","-0.3","","-1.8","","90","","","","26","","21","","4.0","","99.54","","","","-6","","Snow"
"-71.39","46.79","QUEBEC INTL A","7016293","2020-02-03 18:00","2020","02","03","18:00","","-0.4","","-1.9","","89","","","","26","","18","","12.9","","99.66","","","","-5","","NA"
"-71.39","46.79","QUEBEC INTL A","7016293","2020-02-03 19:00","2020","02","03","19:00","","-1.0","","-2.9","","87","","","","24","","12","","19.3","","99.80","","","","-5","","Mostly Cloudy"
"-71.39","46.79","QUEBEC INTL A","7016293","2020-02-03 20:00","2020","02","03","20:00","","-4.0","","-5.8","","87","","","","26","","14","","24.1","","99.92","","","","-9","","NA"
"-71.39","46.79","QUEBEC INTL A","7016293","2020-02-03 21:00","2020","02","03","21:00","","-3.6","","-5.8","","85","","","","27","","13","","24.1","","99.99","","","","-8","","NA"
"-71.39","46.79","QUEBEC INTL A","7016293","2020-02-03 22:00","2020","02","03","22:00","","-4.4","","-7.0","","82","","","","25","","14","","24.1","","100.03","","","","-10","","Mainly Clear"
"-71.39","46.79","QUEBEC INTL A","7016293","2020-02-03 23:00","2020","02","03","23:00","","-3.3","","-5.8","","83","","","","24","","17","","24.1","","100.11","","","","-9","","NA"
"-71.39","46.79","QUEBEC INTL A","7016293","2020-02-04 00:00","2020","02","04","00:00","","-4.1","","-6.4","","84","","","","24","","17","","24.1","","100.10","","","","-10","","NA"
"-71.39","46.79","QUEBEC INTL A","7016293","2020-02-04 01:00","2020","02","04","01:00","","-4.9","","-6.7","","87","","","","24","","21","","24.1","","100.07","","","","-12","","Mainly Clear"
"-71.39","46.79","QUEBEC INTL A","7016293","2020-02-04 02:00","2020","02","04","02:00","","-5.4","","-6.8","","90","","","","25","","19","","24.1","","100.14","","","","-12","","NA"
"-71.39","46.79","QUEBEC INTL A","7016293","2020-02-04 03:00","2020","02","04","03:00","","-5.7","","-7.7","","86","","","","25","","18","","24.1","","100.15","","","","-12","","NA"
"-71.39","46.79","QUEBEC INTL A","7016293","2020-02-04 04:00","2020","02","04","04:00","","-5.5","","-7.5","","86","","","","25","","17","","24.1","","100.18","","","","-12","","Mostly Cloudy"
"-71.39","46.79","QUEBEC INTL A","7016293","2020-02-04 05:00","2020","02","04","05:00","","-5.6","","-7.6","","86","","","","13","","5","","24.1","","100.18","","","","-8","","NA"
"-71.39","46.79","QUEBEC INTL A","7016293","2020-02-04 06:00","2020","02","04","06:00","","-6.1","","-7.3","","91","","","","","","0","","24.1","","100.16","","","","","","NA"
"-71.39","46.79","QUEBEC INTL A","7016293","2020-02-04 07:00","2020","02","04","07:00","","-7.1","","-8.3","","91","","","","","","0","","24.1","","100.15","","","","","","Mostly Cloudy"
"-71.39","46.79","QUEBEC INTL A","7016293","2020-02-04 08:00","2020","02","04","08:00","","-6.5","","-8.0","","89","","","","","","0","","40.2","","100.18","","","","","","NA"
"-71.39","46.79","QUEBEC INTL A","7016293","2020-02-04 09:00","2020","02","04","09:00","","-5.6","","-7.4","","87","","","","6","","4","","40.2","","100.16","","","","-7","","NA"
"-71.39","46.79","QUEBEC INTL A","7016293","2020-02-04 10:00","2020","02","04","10:00","","-4.5","","-6.6","","85","","","","7","","4","","40.2","","100.16","","","","-6","","Cloudy"
"-71.39","46.79","QUEBEC INTL A","7016293","2020-02-04 11:00","2020","02","04","11:00","","-3.6","","-6.1","","83","","","","","","0","","40.2","","100.13","","","","","","NA"
"-71.39","46.79","QUEBEC INTL A","7016293","2020-02-04 12:00","2020","02","04","12:00","","-2.9","","-6.0","","79","","","","","","0","","40.2","","99.99","","","","","","NA"
"-71.39","46.79","QUEBEC INTL A","7016293","2020-02-04 13:00","2020","02","04","13:00","","-2.1","","-5.8","","76","","","","","","0","","24.1","","99.87","","","","","","Cloudy"
"-71.39","46.79","QUEBEC INTL A","7016293","2020-02-04 14:00","2020","02","04","14:00","","-1.9","","-5.9","","74","","","","","","0","","40.2","","99.78","","","","","","NA"
"-71.39","46.79","QUEBEC INTL A","7016293","2020-02-04 15:00","2020","02","04","15:00","","-2.2","","-5.0","","81","","","","23","","6","","48.3","","99.78","","","","-5","","NA"
"-71.39","46.79","QUEBEC INTL A","7016293","2020-02-04 16:00","2020","02","04","16:00","","-2.0","","-4.9","","81","","","","","","0","","48.3","","99.75","","","","","","Mostly Cloudy"
"-71.39","46.79","QUEBEC INTL A","7016293","2020-02-04 17:00","2020","02","04","17:00","","-2.4","","-4.9","","83","","","","23","","9","","48.3","","99.79","","","","-6","","NA"
"-71.39","46.79","QUEBEC INTL A","7016293","2020-02-04 18:00","2020","02","04","18:00","","-2.6","","-4.7","","86","","","","22","","17","","24.1","","99.76","","","","-8","","NA"
"-71.39","46.79","QUEBEC INTL A","7016293","2020-02-04 19:00","2020","02","04","19:00","","-3.1","","-5.4","","84","","","","24","","13","","24.1","","99.80","","","","-8","","Mostly Cloudy"
"-71.39","46.79","QUEBEC INTL A","7016293","2020-02-04 20:00","2020","02","04","20:00","","-3.9","","-6.0","","85","","","","25","","14","","24.1","","99.84","","","","-9","","NA"
"-71.39","46.79","QUEBEC INTL A","7016293","2020-02-04 21:00","2020","02","04","21:00","","-2.2","","-6.9","","71","","","","31","","7","","24.1","","99.85","","","","-5","","NA"
"-71.39","46.79","QUEBEC INTL A","7016293","2020-02-04 22:00","2020","02","04","22:00","","-2.8","","-11.4","","52","","","","33","","10","","24.1","","99.88","","","","-7","","Cloudy"
"-71.39","46.79","QUEBEC INTL A","7016293","2020-02-04 23:00","2020","02","04","23:00","","-3.6","","-12.3","","51","","","","25","","7","","24.1","","100.00","","","","-7","","NA"
"-71.39","46.79","QUEBEC INTL A","7016293","2020-02-05 00:00","2020","02","05","00:00","","-4.1","","-12.3","","53","","","","29","","8","","24.1","","100.05","","","","-8","","NA"
"-71.39","46.79","QUEBEC INTL A","7016293","2020-02-05 01:00","2020","02","05","01:00","","-5.4","","-14.2","","51","","","","29","","10","","24.1","","100.14","","","","-10","","Mostly Cloudy"
"-71.39","46.79","QUEBEC INTL A","7016293","2020-02-05 02:00","2020","02","05","02:00","","-7.0","","-16.1","","49","","","","29","","8","","24.1","","100.27","","","","-11","","NA"
"-71.39","46.79","QUEBEC INTL A","7016293","2020-02-05 03:00","2020","02","05","03:00","","-9.2","","-17.4","","52","","","","27","","6","","24.1","","100.32","","","","-13","","NA"
"-71.39","46.79","QUEBEC INTL A","7016293","2020-02-05 04:00","2020","02","05","04:00","","-11.7","","-18.1","","60","","","","25","","10","","24.1","","100.44","","","","-17","","Clear"
"-71.39","46.79","QUEBEC INTL A","7016293","2020-02-05 05:00","2020","02","05","05:00","","-14.4","","-18.1","","74","","","","27","","9","","24.1","","100.47","","","","-20","","NA"
"-71.39","46.79","QUEBEC INTL A","7016293","2020-02-05 06:00","2020","02","05","06:00","","-13.0","","-17.1","","72","","","","27","","9","","24.1","","100.54","","","","-18","","NA"
"-71.39","46.79","QUEBEC INTL A","7016293","2020-02-05 07:00","2020","02","05","07:00","","-10.4","","-16.4","","61","","","","29","","14","","48.3","","100.64","","","","-17","","Mainly Clear"
"-71.39","46.79","QUEBEC INTL A","7016293","2020-02-05 08:00","2020","02","05","08:00","","-11.8","","-17.2","","65","","","","25","","21","","48.3","","100.78","","","","-20","","NA"
"-71.39","46.79","QUEBEC INTL A","7016293","2020-02-05 09:00","2020","02","05","09:00","","-11.0","","-18.0","","57","","","","27","","23","","48.3","","100.86","","","","-20","","NA"
"-71.39","46.79","QUEBEC INTL A","7016293","2020-02-05 10:00","2020","02","05","10:00","","-10.8","","-18.5","","54","","","","28","","10","","48.3","","100.97","","","","-16","","Mainly Clear"
"-71.39","46.79","QUEBEC INTL A","7016293","2020-02-05 11:00","2020","02","05","11:00","","-10.6","","-18.7","","52","","","","27","","18","","48.3","","101.03","","","","-18","","NA"
"-71.39","46.79","QUEBEC INTL A","7016293","2020-02-05 12:00","2020","02","05","12:00","","-10.3","","-18.7","","51","","","","27","","22","","48.3","","101.04","","","","-19","","NA"
"-71.39","46.79","QUEBEC INTL A","7016293","2020-02-05 13:00","2020","02","05","13:00","","-10.0","","-18.5","","50","","","","27","","17","","48.3","","101.02","","","","-17","","Mainly Clear"
"-71.39","46.79","QUEBEC INTL A","7016293","2020-02-05 14:00","2020","02","05","14:00","","-10.3","","-18.2","","53","","","","24","","20","","48.3","","100.99","","","","-18","","NA"
"-71.39","46.79","QUEBEC INTL A","7016293","2020-02-05 15:00","2020","02","05","15:00","","-10.3","","-18.0","","54","","","","24","","19","","48.3","","101.06","","","","-18","","NA"
"-71.39","46.79","QUEBEC INTL A","7016293","2020-02-05 16:00","2020","02","05","16:00","","-10.3","","-18.6","","51","","","","24","","22","","48.3","","101.15","","","","-19","","Mainly Clear"
"-71.39","46.79","QUEBEC INTL A","7016293","2020-02-05 17:00","2020","02","05","17:00","","-11.7","","-19.2","","54","","","","24","","12","","48.3","","101.13","","","","-18","","NA"
"-71.39","46.79","QUEBEC INTL A","7016293","2020-02-05 18:00","2020","02","05","18:00","","-13.4","","-19.3","","61","","","","25","","6","","24.1","","101.08","","","","-17","","NA"
"-71.39","46.79","QUEBEC INTL A","7016293","2020-02-05 19:00","2020","02","05","19:00","","-14.0","","-19.2","","65","","","","25","","7","","24.1","","101.07","","","","-19","","Mainly Clear"
"-71.39","46.79","QUEBEC INTL A","7016293","2020-02-05 20:00","2020","02","05","20:00","","-16.2","","-20.4","","70","","","","26","","5","","24.1","","101.05","","","","-20","","NA"
"-71.39","46.79","QUEBEC INTL A","7016293","2020-02-05 21:00","2020","02","05","21:00","","-18.4","","-21.5","","77","","","","30","","4","","24.1","","101.04","","","","-22","","NA"
"-71.39","46.79","QUEBEC INTL A","7016293","2020-02-05 22:00","2020","02","05","22:00","","-19.2","","-21.9","","80","","","","6","","4","","24.1","","101.02","","","","-23","","Mostly Cloudy"
"-71.39","46.79","QUEBEC INTL A","7016293","2020-02-05 23:00","2020","02","05","23:00","","-16.2","","-19.9","","73","","","","8","","7","","24.1","","100.98","","","","-21","","NA"
"-71.39","46.79","QUEBEC INTL A","7016293","2020-02-06 00:00","2020","02","06","00:00","","-16.3","","-19.4","","77","","","","36","","8","","24.1","","100.88","","","","-22","","NA"
"-71.39","46.79","QUEBEC INTL A","7016293","2020-02-06 01:00","2020","02","06","01:00","","-15.2","","-19.4","","71","","","","1","","5","","24.1","","100.84","","","","-19","","Cloudy"
"-71.39","46.79","QUEBEC INTL A","7016293","2020-02-06 02:00","2020","02","06","02:00","","-14.5","","-19.3","","67","","","","1","","7","","24.1","","100.77","","","","-19","","NA"
"-71.39","46.79","QUEBEC INTL A","7016293","2020-02-06 03:00","2020","02","06","03:00","","-14.8","","-18.6","","73","","","","","","0","","24.1","","100.70","","","","","","NA"
"-71.39","46.79","QUEBEC INTL A","7016293","2020-02-06 04:00","2020","02","06","04:00","","-14.4","","-18.3","","73","","","","3","","4","","24.1","","100.59","","","","-17","","Cloudy"
"-71.39","46.79","QUEBEC INTL A","7016293","2020-02-06 05:00","2020","02","06","05:00","","-13.6","","-17.5","","72","","","","1","","6","","24.1","","100.60","","","","-18","","NA"
"-71.39","46.79","QUEBEC INTL A","7016293","2020-02-06 06:00","2020","02","06","06:00","","-13.0","","-17.3","","70","","","","9","","5","","24.1","","100.60","","","","-16","","NA"
"-71.39","46.79","QUEBEC INTL A","7016293","2020-02-06 07:00","2020","02","06","07:00","","-13.0","","-17.1","","72","","","","5","","4","","24.1","","100.50","","","","-16","","Cloudy"
"-71.39","46.79","QUEBEC INTL A","7016293","2020-02-06 08:00","2020","02","06","08:00","","-12.5","","-16.9","","70","","","","7","","6","","24.1","","100.44","","","","-16","","NA"
"-71.39","46.79","QUEBEC INTL A","7016293","2020-02-06 09:00","2020","02","06","09:00","","-12.0","","-16.3","","71","","","","8","","6","","12.9","","100.35","","","","-16","","Snow"
"-71.39","46.79","QUEBEC INTL A","7016293","2020-02-06 10:00","2020","02","06","10:00","","-11.4","","-13.8","","82","","","","","","0","","0.8","","100.46","","","","","","Moderate Snow"
"-71.39","46.79","QUEBEC INTL A","7016293","2020-02-06 11:00","2020","02","06","11:00","","-10.7","","-12.6","","86","","","","3","","4","","0.8","","100.27","","","","-13","","Moderate Snow"
"-71.39","46.79","QUEBEC INTL A","7016293","2020-02-06 12:00","2020","02","06","12:00","","-9.6","","-11.7","","85","","","","4","","10","","2.4","","100.09","","","","-15","","Snow"
"-71.39","46.79","QUEBEC INTL A","7016293","2020-02-06 13:00","2020","02","06","13:00","","-9.1","","-11.2","","85","","","","11","","9","","1.6","","99.99","","","","-14","","Snow"
"-71.39","46.79","QUEBEC INTL A","7016293","2020-02-06 14:00","2020","02","06","14:00","","-8.8","","-10.6","","87","","","","4","","7","","1.6","","99.95","","","","-13","","Snow"
"-71.39","46.79","QUEBEC INTL A","7016293","2020-02-06 15:00","2020","02","06","15:00","","-8.2","","-9.7","","89","","","","5","","9","","2.0","","99.89","","","","-13","","Snow"
"-71.39","46.79","QUEBEC INTL A","7016293","2020-02-06 16:00","2020","02","06","16:00","","-7.8","","-9.4","","88","","","","3","","9","","1.6","","99.84","","","","-12","","Snow"
"-71.39","46.79","QUEBEC INTL A","7016293","2020-02-06 17:00","2020","02","06","17:00","","-7.7","","-9.3","","88","","","","5","","10","","12.9","","99.78","","","","-13","","Snow"
"-71.39","46.79","QUEBEC INTL A","7016293","2020-02-06 18:00","2020","02","06","18:00","","-7.3","","-8.8","","90","","","","6","","9","","14.5","","99.70","","","","-12","","Snow"
"-71.39","46.79","QUEBEC INTL A","7016293","2020-02-06 19:00","2020","02","06","19:00","","-6.4","","-7.9","","89","","","","6","","13","","12.9","","99.68","","","","-12","","Snow"
"-71.39","46.79","QUEBEC INTL A","7016293","2020-02-06 20:00","2020","02","06","20:00","","-5.8","","-7.1","","90","","","","5","","21","","2.0","","99.63","","","","-13","","Snow"
"-71.39","46.79","QUEBEC INTL A","7016293","2020-02-06 21:00","2020","02","06","21:00","","-5.6","","-6.8","","92","","","","6","","22","","2.0","","99.51","","","","-13","","Snow,Snow Pellets"
"-71.39","46.79","QUEBEC INTL A","7016293","2020-02-06 22:00","2020","02","06","22:00","","-5.3","","-6.8","","89","","","","7","","29","","4.8","","99.42","","","","-13","","Snow,Snow Pellets"
"-71.39","46.79","QUEBEC INTL A","7016293","2020-02-06 23:00","2020","02","06","23:00","","-5.2","","-6.5","","91","","","","7","","25","","1.6","","99.46","","","","-13","","Snow,Blowing Snow"
"-71.39","46.79","QUEBEC INTL A","7016293","2020-02-07 00:00","2020","02","07","00:00","","-5.2","","-6.6","","90","","","","6","","31","","2.0","","99.35","","","","-13","","Snow,Blowing Snow"
"-71.39","46.79","QUEBEC INTL A","7016293","2020-02-07 01:00","2020","02","07","01:00","","-5.5","","-6.8","","90","","","","7","","44","","0.8","","99.19","","","","-15","","Snow,Blowing Snow"
"-71.39","46.79","QUEBEC INTL A","7016293","2020-02-07 02:00","2020","02","07","02:00","","-5.8","","-7.2","","90","","","","7","","45","","1.6","","99.10","","","","-16","","Snow,Blowing Snow"
"-71.39","46.79","QUEBEC INTL A","7016293","2020-02-07 03:00","2020","02","07","03:00","","-6.0","","-7.2","","91","","","","6","","31","","1.0","","99.17","","","","-14","","Snow,Blowing Snow"
"-71.39","46.79","QUEBEC INTL A","7016293","2020-02-07 04:00","2020","02","07","04:00","","-6.1","","-7.7","","89","","","","6","","39","","1.2","","99.09","","","","-15","","Snow,Blowing Snow"
"-71.39","46.79","QUEBEC INTL A","7016293","2020-02-07 05:00","2020","02","07","05:00","","-6.4","","-7.9","","89","","","","6","","42","","1.2","","98.98","","","","-16","","Snow,Blowing Snow"
"-71.39","46.79","QUEBEC INTL A","7016293","2020-02-07 06:00","2020","02","07","06:00","","-6.2","","-7.8","","88","","","","7","","42","","1.6","","98.88","","","","-16","","Snow,Blowing Snow"
"-71.39","46.79","QUEBEC INTL A","7016293","2020-02-07 07:00","2020","02","07","07:00","","-6.3","","-8.1","","88","","","","6","","40","","1.2","","98.88","","","","-16","","Snow,Blowing Snow"
"-71.39","46.79","QUEBEC INTL A","7016293","2020-02-07 08:00","2020","02","07","08:00","","-6.5","","-8.3","","87","","","","6","","44","","1.6","","98.80","","","","-16","","Snow,Blowing Snow"
"-71.39","46.79","QUEBEC INTL A","7016293","2020-02-07 09:00","2020","02","07","09:00","","-6.7","","-8.6","","86","","","","6","","45","","1.2","","98.71","","","","-17","","Snow,Blowing Snow"
"-71.39","46.79","QUEBEC INTL A","7016293","2020-02-07 10:00","2020","02","07","10:00","","-6.8","","-8.6","","87","","","","7","","39","","1.2","","98.58","","","","-16","","Snow,Blowing Snow"
"-71.39","46.79","QUEBEC INTL A","7016293","2020-02-07 11:00","2020","02","07","11:00","","-6.6","","-8.4","","87","","","","7","","47","","1.2","","98.39","","","","-17","","Snow,Blowing Snow"
"-71.39","46.79","QUEBEC INTL A","7016293","2020-02-07 12:00","2020","02","07","12:00","","-7.1","","-8.7","","89","","","","7","","50","","0.4","","98.20","","","","-18","","Moderate Snow,Blowing Snow"
"-71.39","46.79","QUEBEC INTL A","7016293","2020-02-07 13:00","2020","02","07","13:00","","-7.4","","-8.9","","89","","","","7","","51","","0.4","","97.94","","","","-18","","Moderate Snow,Blowing Snow"
"-71.39","46.79","QUEBEC INTL A","7016293","2020-02-07 14:00","2020","02","07","14:00","","-7.6","","-9.3","","87","","","","6","","48","","0.8","","97.82","","","","-18","","Moderate Snow,Blowing Snow"
"-71.39","46.79","QUEBEC INTL A","7016293","2020-02-07 15:00","2020","02","07","15:00","","-7.5","","-9.1","","88","","","","5","","44","","0.8","","97.76","","","","-18","","Moderate Snow,Blowing Snow"
"-71.39","46.79","QUEBEC INTL A","7016293","2020-02-07 16:00","2020","02","07","16:00","","-7.5","","-9.1","","89","","","","5","","31","","1.0","","97.77","","","","-16","","Snow,Blowing Snow"
"-71.39","46.79","QUEBEC INTL A","7016293","2020-02-07 17:00","2020","02","07","17:00","","-7.6","","-9.2","","89","","","","2","","14","","1.6","","97.79","","","","-14","","Snow,Blowing Snow"
"-71.39","46.79","QUEBEC INTL A","7016293","2020-02-07 18:00","2020","02","07","18:00","","-8.2","","-9.6","","90","","","","1","","8","","1.6","","97.92","","","","-12","","Snow"
"-71.39","46.79","QUEBEC INTL A","7016293","2020-02-07 19:00","2020","02","07","19:00","","-8.2","","-9.6","","90","","","","36","","4","","1.6","","98.03","","","","-10","","Snow"
"-71.39","46.79","QUEBEC INTL A","7016293","2020-02-07 20:00","2020","02","07","20:00","","-8.8","","-10.9","","85","","","","33","","8","","2.4","","98.19","","","","-13","","Snow"
"-71.39","46.79","QUEBEC INTL A","7016293","2020-02-07 21:00","2020","02","07","21:00","","-9.1","","-11.9","","80","","","","33","","10","","4.0","","98.40","","","","-14","","Snow"
"-71.39","46.79","QUEBEC INTL A","7016293","2020-02-07 22:00","2020","02","07","22:00","","-9.5","","-12.6","","78","","","","35","","9","","4.8","","98.60","","","","-14","","Snow"
"-71.39","46.79","QUEBEC INTL A","7016293","2020-02-07 23:00","2020","02","07","23:00","","-10.4","","-13.8","","76","","","","31","","11","","8.1","","98.76","","","","-16","","Snow"
"-71.39","46.79","QUEBEC INTL A","7016293","2020-02-08 00:00","2020","02","08","00:00","","-11.3","","-15.8","","70","","","","31","","10","","6.4","","98.96","","","","-17","","Snow"
"-71.39","46.79","QUEBEC INTL A","7016293","2020-02-08 01:00","2020","02","08","01:00","","-11.7","","-17.3","","63","","","","28","","12","","9.7","","99.12","","","","-18","","Snow"
"-71.39","46.79","QUEBEC INTL A","7016293","2020-02-08 02:00","2020","02","08","02:00","","-12.5","","-18.5","","62","","","","27","","18","","19.3","","99.30","","","","-21","","NA"
"-71.39","46.79","QUEBEC INTL A","7016293","2020-02-08 03:00","2020","02","08","03:00","","-14.3","","-18.7","","69","","","","27","","18","","19.3","","99.43","","","","-23","","NA"
"-71.39","46.79","QUEBEC INTL A","7016293","2020-02-08 04:00","2020","02","08","04:00","","-15.4","","-19.6","","71","","","","24","","19","","24.1","","99.58","","","","-24","","Mostly Cloudy"
"-71.39","46.79","QUEBEC INTL A","7016293","2020-02-08 05:00","2020","02","08","05:00","","-16.0","","-19.8","","73","","","","25","","23","","24.1","","99.77","","","","-26","","NA"
"-71.39","46.79","QUEBEC INTL A","7016293","2020-02-08 06:00","2020","02","08","06:00","","-16.2","","-20.2","","72","","","","25","","24","","24.1","","99.94","","","","-27","","NA"
"-71.39","46.79","QUEBEC INTL A","7016293","2020-02-08 07:00","2020","02","08","07:00","","-17.7","","-21.9","","70","","","","25","","20","","40.2","","100.09","","","","-28","","Mostly Cloudy"
"-71.39","46.79","QUEBEC INTL A","7016293","2020-02-08 08:00","2020","02","08","08:00","","-18.2","","-22.6","","69","","","","25","","24","","48.3","","100.24","","","","-29","","NA"
"-71.39","46.79","QUEBEC INTL A","7016293","2020-02-08 09:00","2020","02","08","09:00","","-18.2","","-22.9","","67","","","","26","","31","","48.3","","100.39","","","","-30","","NA"
"-71.39","46.79","QUEBEC INTL A","7016293","2020-02-08 10:00","2020","02","08","10:00","","-17.6","","-23.1","","63","","","","27","","31","","48.3","","100.51","","","","-30","","Mostly Cloudy"
"-71.39","46.79","QUEBEC INTL A","7016293","2020-02-08 11:00","2020","02","08","11:00","","-16.8","","-22.7","","61","","","","25","","30","","48.3","","100.60","","","","-28","","NA"
"-71.39","46.79","QUEBEC INTL A","7016293","2020-02-08 12:00","2020","02","08","12:00","","-16.2","","-22.2","","60","","","","25","","23","","48.3","","100.68","","","","-26","","NA"
"-71.39","46.79","QUEBEC INTL A","7016293","2020-02-08 13:00","2020","02","08","13:00","","-15.7","","-22.0","","59","","","","25","","30","","48.3","","100.74","","","","-27","","Mainly Clear"
"-71.39","46.79","QUEBEC INTL A","7016293","2020-02-08 14:00","2020","02","08","14:00","","-15.1","","-21.6","","58","","","","25","","25","","48.3","","100.85","","","","-25","","NA"
"-71.39","46.79","QUEBEC INTL A","7016293","2020-02-08 15:00","2020","02","08","15:00","","-14.7","","-21.6","","56","","","","25","","25","","48.3","","100.98","","","","-25","","NA"
"-71.39","46.79","QUEBEC INTL A","7016293","2020-02-08 16:00","2020","02","08","16:00","","-14.9","","-21.5","","58","","","","25","","25","","48.3","","101.14","","","","-25","","Clear"
"-71.39","46.79","QUEBEC INTL A","7016293","2020-02-08 17:00","2020","02","08","17:00","","-15.3","","-21.5","","60","","","","26","","25","","48.3","","101.31","","","","-26","","NA"
"-71.39","46.79","QUEBEC INTL A","7016293","2020-02-08 18:00","2020","02","08","18:00","","-16.9","","-22.2","","64","","","","27","","9","","24.1","","101.45","","","","-23","","NA"
"-71.39","46.79","QUEBEC INTL A","7016293","2020-02-08 19:00","2020","02","08","19:00","","-16.7","","-22.0","","64","","","","23","","12","","24.1","","101.57","","","","-24","","Clear"
"-71.39","46.79","QUEBEC INTL A","7016293","2020-02-08 20:00","2020","02","08","20:00","","-16.6","","-22.1","","63","","","","21","","10","","24.1","","101.71","","","","-23","","NA"
"-71.39","46.79","QUEBEC INTL A","7016293","2020-02-08 21:00","2020","02","08","21:00","","-17.9","","-22.2","","70","","","","23","","16","","24.1","","101.79","","","","-27","","NA"
"-71.39","46.79","QUEBEC INTL A","7016293","2020-02-08 22:00","2020","02","08","22:00","","-18.0","","-22.3","","69","","","","23","","16","","24.1","","101.86","","","","-27","","Clear"
"-71.39","46.79","QUEBEC INTL A","7016293","2020-02-08 23:00","2020","02","08","23:00","","-19.4","","-22.8","","75","","","","25","","17","","24.1","","101.93","","","","-29","","NA"
"-71.39","46.79","QUEBEC INTL A","7016293","2020-02-09 00:00","2020","02","09","00:00","","-19.7","","-22.0","","82","","","","25","","20","","24.1","","102.00","","","","-30","","NA"
"-71.39","46.79","QUEBEC INTL A","7016293","2020-02-09 01:00","2020","02","09","01:00","","-19.4","","-22.6","","76","","","","25","","20","","24.1","","102.09","","","","-30","","Clear"
"-71.39","46.79","QUEBEC INTL A","7016293","2020-02-09 02:00","2020","02","09","02:00","","-19.9","","-21.6","","86","","","","25","","22","","4.8","","102.16","","","","-31","","Fog"
"-71.39","46.79","QUEBEC INTL A","7016293","2020-02-09 03:00","2020","02","09","03:00","","-20.1","","-22.1","","84","","","","25","","20","","6.4","","102.17","","","","-31","","Fog"
"-71.39","46.79","QUEBEC INTL A","7016293","2020-02-09 04:00","2020","02","09","04:00","","-20.8","","-23.0","","83","","","","24","","21","","9.7","","102.23","","","","-32","","Fog"
"-71.39","46.79","QUEBEC INTL A","7016293","2020-02-09 05:00","2020","02","09","05:00","","-21.4","","-23.7","","82","","","","25","","22","","11.3","","102.34","","","","-33","","NA"
"-71.39","46.79","QUEBEC INTL A","7016293","2020-02-09 06:00","2020","02","09","06:00","","-22.4","","-24.9","","80","","","","29","","7","","24.1","","102.40","","","","-28","","NA"
"-71.39","46.79","QUEBEC INTL A","7016293","2020-02-09 07:00","2020","02","09","07:00","","-23.9","","-26.6","","79","","","","30","","8","","24.1","","102.50","","","","-31","","Mainly Clear"
"-71.39","46.79","QUEBEC INTL A","7016293","2020-02-09 08:00","2020","02","09","08:00","","-24.3","","-26.9","","79","","","","","","0","","48.3","","102.55","","","","","","NA"
"-71.39","46.79","QUEBEC INTL A","7016293","2020-02-09 09:00","2020","02","09","09:00","","-21.5","","-24.0","","80","","","","26","","9","","32.2","","102.57","","","","-29","","NA"
"-71.39","46.79","QUEBEC INTL A","7016293","2020-02-09 10:00","2020","02","09","10:00","","-18.9","","-21.3","","82","","","","23","","9","","48.3","","102.58","","","","-25","","Clear"
"-71.39","46.79","QUEBEC INTL A","7016293","2020-02-09 11:00","2020","02","09","11:00","","-17.2","","-19.5","","82","","","","22","","7","","32.2","","102.56","","","","-22","","NA"
"-71.39","46.79","QUEBEC INTL A","7016293","2020-02-09 12:00","2020","02","09","12:00","","-15.5","","-18.1","","80","","","","21","","14","","48.3","","102.47","","","","-23","","NA"
"-71.39","46.79","QUEBEC INTL A","7016293","2020-02-09 13:00","2020","02","09","13:00","","-13.6","","-19.9","","59","","","","23","","11","","48.3","","102.40","","","","-20","","Mainly Clear"
"-71.39","46.79","QUEBEC INTL A","7016293","2020-02-09 14:00","2020","02","09","14:00","","-12.9","","-20.2","","55","","","","25","","13","","48.3","","102.35","","","","-20","","NA"
"-71.39","46.79","QUEBEC INTL A","7016293","2020-02-09 15:00","2020","02","09","15:00","","-12.8","","-19.9","","56","","","","26","","9","","48.3","","102.28","","","","-18","","NA"
"-71.39","46.79","QUEBEC INTL A","7016293","2020-02-09 16:00","2020","02","09","16:00","","-13.0","","-19.8","","57","","","","23","","10","","48.3","","102.21","","","","-19","","Mainly Clear"
"-71.39","46.79","QUEBEC INTL A","7016293","2020-02-09 17:00","2020","02","09","17:00","","-16.7","","-22.4","","61","","","","31","","4","","48.3","","102.23","","","","-20","","NA"
"-71.39","46.79","QUEBEC INTL A","7016293","2020-02-09 18:00","2020","02","09","18:00","","-18.7","","-22.1","","75","","","","36","","4","","24.1","","102.18","","","","-22","","NA"
"-71.39","46.79","QUEBEC INTL A","7016293","2020-02-09 19:00","2020","02","09","19:00","","-15.1","","-19.8","","68","","","","6","","3","","24.1","","102.18","","","","-17","","Mostly Cloudy"
"-71.39","46.79","QUEBEC INTL A","7016293","2020-02-09 20:00","2020","02","09","20:00","","-14.8","","-19.1","","70","","","","36","","7","","24.1","","102.10","","","","-20","","NA"
"-71.39","46.79","QUEBEC INTL A","7016293","2020-02-09 21:00","2020","02","09","21:00","","-13.2","","-18.6","","64","","","","1","","8","","24.1","","101.98","","","","-18","","NA"
"-71.39","46.79","QUEBEC INTL A","7016293","2020-02-09 22:00","2020","02","09","22:00","","-13.3","","-18.5","","65","","","","","","0","","24.1","","101.86","","","","","","Mostly Cloudy"
"-71.39","46.79","QUEBEC INTL A","7016293","2020-02-09 23:00","2020","02","09","23:00","","-13.0","","-17.6","","69","","","","3","","7","","24.1","","101.72","","","","-18","","NA"
"-71.39","46.79","QUEBEC INTL A","7016293","2020-02-10 00:00","2020","02","10","00:00","","-12.5","","-17.2","","68","","","","1","","5","","24.1","","101.65","","","","-16","","NA"
"-71.39","46.79","QUEBEC INTL A","7016293","2020-02-10 01:00","2020","02","10","01:00","","-11.8","","-16.1","","71","","","","2","","7","","9.7","","101.52","","","","-16","","Snow"
"-71.39","46.79","QUEBEC INTL A","7016293","2020-02-10 02:00","2020","02","10","02:00","","-11.4","","-13.3","","86","","","","4","","4","","2.0","","101.45","","","","-14","","Snow"
"-71.39","46.79","QUEBEC INTL A","7016293","2020-02-10 03:00","2020","02","10","03:00","","-10.8","","-12.5","","88","","","","3","","3","","4.0","","101.31","","","","-13","","Snow"
"-71.39","46.79","QUEBEC INTL A","7016293","2020-02-10 04:00","2020","02","10","04:00","","-10.1","","-11.7","","88","","","","1","","4","","3.6","","101.17","","","","-12","","Snow"
"-71.39","46.79","QUEBEC INTL A","7016293","2020-02-10 05:00","2020","02","10","05:00","","-9.4","","-10.9","","89","","","","2","","7","","4.0","","101.04","","","","-13","","Snow"
"-71.39","46.79","QUEBEC INTL A","7016293","2020-02-10 06:00","2020","02","10","06:00","","-9.2","","-10.5","","90","","","","3","","7","","2.4","","100.91","","","","-13","","Snow"
"-71.39","46.79","QUEBEC INTL A","7016293","2020-02-10 07:00","2020","02","10","07:00","","-9.0","","-10.3","","90","","","","5","","9","","2.4","","100.83","","","","-14","","Snow"
"-71.39","46.79","QUEBEC INTL A","7016293","2020-02-10 08:00","2020","02","10","08:00","","-8.0","","-9.3","","90","","","","4","","8","","1.2","","100.77","","","","-12","","Snow"
"-71.39","46.79","QUEBEC INTL A","7016293","2020-02-10 09:00","2020","02","10","09:00","","-6.8","","-8.2","","90","","","","4","","10","","2.0","","100.70","","","","-11","","Snow"
"-71.39","46.79","QUEBEC INTL A","7016293","2020-02-10 10:00","2020","02","10","10:00","","-6.0","","-7.4","","90","","","","5","","8","","2.0","","100.67","","","","-10","","Snow"
"-71.39","46.79","QUEBEC INTL A","7016293","2020-02-10 11:00","2020","02","10","11:00","","-4.8","","-6.4","","89","","","","5","","8","","2.4","","100.60","","","","-8","","Snow"
"-71.39","46.79","QUEBEC INTL A","7016293","2020-02-10 12:00","2020","02","10","12:00","","-3.8","","-5.5","","88","","","","6","","9","","3.2","","100.53","","","","-8","","Snow"
"-71.39","46.79","QUEBEC INTL A","7016293","2020-02-10 13:00","2020","02","10","13:00","","-3.4","","-5.0","","89","","","","13","","4","","4.8","","100.47","","","","-5","","Snow"
"-71.39","46.79","QUEBEC INTL A","7016293","2020-02-10 14:00","2020","02","10","14:00","","-3.0","","-4.6","","89","","","","17","","3","","4.8","","100.49","","","","-4","","Snow"
"-71.39","46.79","QUEBEC INTL A","7016293","2020-02-10 15:00","2020","02","10","15:00","","-2.9","","-4.7","","87","","","","25","","5","","9.7","","100.52","","","","-5","","Snow"
"-71.39","46.79","QUEBEC INTL A","7016293","2020-02-10 16:00","2020","02","10","16:00","","-4.7","","-5.8","","92","","","","22","","9","","16.1","","100.58","","","","-9","","Mainly Clear"
"-71.39","46.79","QUEBEC INTL A","7016293","2020-02-10 17:00","2020","02","10","17:00","","-3.9","","-5.0","","92","","","","23","","16","","16.1","","100.66","","","","-9","","NA"
"-71.39","46.79","QUEBEC INTL A","7016293","2020-02-10 18:00","2020","02","10","18:00","","-3.6","","-4.6","","93","","","","24","","18","","16.1","","100.78","","","","-9","","NA"
"-71.39","46.79","QUEBEC INTL A","7016293","2020-02-10 19:00","2020","02","10","19:00","","-3.8","","-4.6","","94","","","","23","","17","","12.9","","100.86","","","","-10","","Mostly Cloudy"
"-71.39","46.79","QUEBEC INTL A","7016293","2020-02-10 20:00","2020","02","10","20:00","","-3.9","","-5.5","","89","","","","23","","13","","19.3","","100.91","","","","-9","","NA"
"-71.39","46.79","QUEBEC INTL A","7016293","2020-02-10 21:00","2020","02","10","21:00","","-4.0","","-5.7","","88","","","","24","","17","","24.1","","100.99","","","","-10","","NA"
"-71.39","46.79","QUEBEC INTL A","7016293","2020-02-10 22:00","2020","02","10","22:00","","-5.2","","-6.0","","94","","","","24","","16","","6.4","","101.02","","","","-11","","Fog"
"-71.39","46.79","QUEBEC INTL A","7016293","2020-02-10 23:00","2020","02","10","23:00","","-5.8","","-6.5","","95","","","","25","","14","","9.7","","101.00","","","","-11","","Fog"
"-71.39","46.79","QUEBEC INTL A","7016293","2020-02-11 00:00","2020","02","11","00:00","","-5.2","","-6.1","","93","","","","25","","12","","6.4","","101.03","","","","-10","","Fog"
"-71.39","46.79","QUEBEC INTL A","7016293","2020-02-11 01:00","2020","02","11","01:00","","-4.7","","-5.6","","93","","","","26","","13","","4.8","","101.06","","","","-10","","Fog"
"-71.39","46.79","QUEBEC INTL A","7016293","2020-02-11 02:00","2020","02","11","02:00","","-4.2","","-5.2","","93","","","","24","","13","","4.8","","101.04","","","","-9","","Fog"
"-71.39","46.79","QUEBEC INTL A","7016293","2020-02-11 03:00","2020","02","11","03:00","","-4.5","","-5.4","","93","","","","26","","11","","4.0","","101.03","","","","-9","","Fog"
"-71.39","46.79","QUEBEC INTL A","7016293","2020-02-11 04:00","2020","02","11","04:00","","-4.6","","-5.7","","93","","","","24","","8","","3.6","","100.99","","","","-8","","Fog"
"-71.39","46.79","QUEBEC INTL A","7016293","2020-02-11 05:00","2020","02","11","05:00","","-4.7","","-5.5","","94","","","","","","0","","3.6","","100.96","","","","","","Fog"
"-71.39","46.79","QUEBEC INTL A","7016293","2020-02-11 06:00","2020","02","11","06:00","","-4.6","","-5.5","","94","","","","35","","5","","3.6","","100.91","","","","-7","","Fog"
"-71.39","46.79","QUEBEC INTL A","7016293","2020-02-11 07:00","2020","02","11","07:00","","-4.1","","-5.2","","93","","","","2","","5","","2.0","","100.84","","","","-6","","Fog"
"-71.39","46.79","QUEBEC INTL A","7016293","2020-02-11 08:00","2020","02","11","08:00","","-4.2","","-5.1","","93","","","","","","0","","2.4","","100.78","","","","","","Fog"
"-71.39","46.79","QUEBEC INTL A","7016293","2020-02-11 09:00","2020","02","11","09:00","","-3.6","","-4.7","","93","","","","","","0","","2.4","","100.71","","","","","","Fog"
"-71.39","46.79","QUEBEC INTL A","7016293","2020-02-11 10:00","2020","02","11","10:00","","-3.5","","-4.6","","92","","","","","","0","","2.0","","100.63","","","","","","Fog"
"-71.39","46.79","QUEBEC INTL A","7016293","2020-02-11 11:00","2020","02","11","11:00","","-3.0","","-4.3","","91","","","","23","","4","","2.0","","100.57","","","","-5","","Fog"
"-71.39","46.79","QUEBEC INTL A","7016293","2020-02-11 12:00","2020","02","11","12:00","","-2.6","","-4.2","","89","","","","32","","4","","2.4","","100.43","","","","-4","","Fog"
"-71.39","46.79","QUEBEC INTL A","7016293","2020-02-11 13:00","2020","02","11","13:00","","-2.9","","-4.3","","90","","","","10","","3","","4.0","","100.25","","","","-4","","Fog"
"-71.39","46.79","QUEBEC INTL A","7016293","2020-02-11 14:00","2020","02","11","14:00","","-2.6","","-4.2","","89","","","","","","0","","3.6","","100.17","","","","","","Snow,Fog"
"-71.39","46.79","QUEBEC INTL A","7016293","2020-02-11 15:00","2020","02","11","15:00","","-2.4","","-3.7","","91","","","","","","0","","3.2","","100.12","","","","","","Snow,Fog"
"-71.39","46.79","QUEBEC INTL A","7016293","2020-02-11 16:00","2020","02","11","16:00","","-2.2","","-3.8","","89","","","","18","","5","","4.0","","100.06","","","","-4","","Snow,Fog"
"-71.39","46.79","QUEBEC INTL A","7016293","2020-02-11 17:00","2020","02","11","17:00","","-2.8","","-4.0","","91","","","","","","0","","4.0","","99.96","","","","","","Snow,Fog"
"-71.39","46.79","QUEBEC INTL A","7016293","2020-02-11 18:00","2020","02","11","18:00","","-2.9","","-3.9","","93","","","","","","0","","4.8","","99.94","","","","","","Snow,Fog"
"-71.39","46.79","QUEBEC INTL A","7016293","2020-02-11 19:00","2020","02","11","19:00","","-2.9","","-4.0","","93","","","","27","","3","","4.8","","99.90","","","","-4","","Snow,Fog"
"-71.39","46.79","QUEBEC INTL A","7016293","2020-02-11 20:00","2020","02","11","20:00","","-3.1","","-3.9","","94","","","","25","","3","","6.4","","99.81","","","","-4","","Snow,Fog"
"-71.39","46.79","QUEBEC INTL A","7016293","2020-02-11 21:00","2020","02","11","21:00","","-2.8","","-3.7","","93","","","","25","","10","","6.4","","99.79","","","","-7","","Fog"
"-71.39","46.79","QUEBEC INTL A","7016293","2020-02-11 22:00","2020","02","11","22:00","","-2.6","","-3.6","","93","","","","25","","23","","4.8","","99.81","","","","-9","","Snow,Fog"
"-71.39","46.79","QUEBEC INTL A","7016293","2020-02-11 23:00","2020","02","11","23:00","","-2.9","","-4.2","","91","","","","25","","22","","6.4","","99.77","","","","-9","","Snow,Fog"
"-71.39","46.79","QUEBEC INTL A","7016293","2020-02-12 00:00","2020","02","12","00:00","","-3.1","","-4.2","","92","","","","25","","20","","4.8","","99.78","","","","-9","","Snow,Fog"
"-71.39","46.79","QUEBEC INTL A","7016293","2020-02-12 01:00","2020","02","12","01:00","","-3.4","","-4.5","","92","","","","24","","16","","3.2","","99.81","","","","-9","","Snow"
"-71.39","46.79","QUEBEC INTL A","7016293","2020-02-12 02:00","2020","02","12","02:00","","-3.6","","-4.7","","92","","","","24","","19","","4.8","","99.84","","","","-10","","Snow,Fog"
"-71.39","46.79","QUEBEC INTL A","7016293","2020-02-12 03:00","2020","02","12","03:00","","-3.8","","-5.2","","90","","","","24","","21","","6.4","","99.84","","","","-10","","Snow,Fog"
"-71.39","46.79","QUEBEC INTL A","7016293","2020-02-12 04:00","2020","02","12","04:00","","-4.8","","-6.3","","89","","","","24","","17","","9.7","","99.92","","","","-11","","Fog"
"-71.39","46.79","QUEBEC INTL A","7016293","2020-02-12 05:00","2020","02","12","05:00","","-5.5","","-6.8","","90","","","","23","","18","","9.7","","100.07","","","","-12","","Fog"
"-71.39","46.79","QUEBEC INTL A","7016293","2020-02-12 06:00","2020","02","12","06:00","","-6.1","","-7.2","","92","","","","24","","16","","9.7","","100.20","","","","-12","","Fog"
"-71.39","46.79","QUEBEC INTL A","7016293","2020-02-12 07:00","2020","02","12","07:00","","-6.4","","-7.3","","93","","","","23","","19","","9.7","","100.31","","","","-13","","Fog"
"-71.39","46.79","QUEBEC INTL A","7016293","2020-02-12 08:00","2020","02","12","08:00","","-5.8","","-7.2","","90","","","","25","","16","","9.7","","100.52","","","","-12","","Snow,Fog"
"-71.39","46.79","QUEBEC INTL A","7016293","2020-02-12 09:00","2020","02","12","09:00","","-4.7","","-6.8","","85","","","","24","","18","","16.1","","100.52","","","","-11","","NA"
"-71.39","46.79","QUEBEC INTL A","7016293","2020-02-12 10:00","2020","02","12","10:00","","-3.5","","-6.2","","82","","","","23","","16","","32.2","","100.63","","","","-9","","Mainly Clear"
"-71.39","46.79","QUEBEC INTL A","7016293","2020-02-12 11:00","2020","02","12","11:00","","-1.9","","-6.1","","73","","","","24","","18","","40.2","","100.59","","","","-7","","NA"
"-71.39","46.79","QUEBEC INTL A","7016293","2020-02-12 12:00","2020","02","12","12:00","","-1.7","","-6.4","","71","","","","25","","26","","40.2","","100.53","","","","-8","","NA"
"-71.39","46.79","QUEBEC INTL A","7016293","2020-02-12 13:00","2020","02","12","13:00","","-1.1","","-6.6","","66","","","","23","","28","","40.2","","100.50","","","","-8","","Mostly Cloudy"
"-71.39","46.79","QUEBEC INTL A","7016293","2020-02-12 14:00","2020","02","12","14:00","","-0.8","","-7.0","","63","","","","24","","20","","32.2","","100.46","","","","-6","","NA"
"-71.39","46.79","QUEBEC INTL A","7016293","2020-02-12 15:00","2020","02","12","15:00","","-0.7","","-6.6","","64","","","","23","","22","","48.3","","100.42","","","","-6","","NA"
"-71.39","46.79","QUEBEC INTL A","7016293","2020-02-12 16:00","2020","02","12","16:00","","-0.8","","-6.8","","63","","","","23","","18","","48.3","","100.43","","","","-6","","Mostly Cloudy"
"-71.39","46.79","QUEBEC INTL A","7016293","2020-02-12 17:00","2020","02","12","17:00","","-1.2","","-7.2","","64","","","","23","","28","","48.3","","100.41","","","","-8","","NA"
"-71.39","46.79","QUEBEC INTL A","7016293","2020-02-12 18:00","2020","02","12","18:00","","-1.2","","-7.2","","64","","","","23","","28","","24.1","","100.49","","","","-8","","NA"
"-71.39","46.79","QUEBEC INTL A","7016293","2020-02-12 19:00","2020","02","12","19:00","","-1.4","","-7.0","","66","","","","23","","22","","24.1","","100.43","","","","-7","","Mostly Cloudy"
"-71.39","46.79","QUEBEC INTL A","7016293","2020-02-12 20:00","2020","02","12","20:00","","-1.7","","-7.3","","66","","","","24","","15","","24.1","","100.36","","","","-7","","NA"
"-71.39","46.79","QUEBEC INTL A","7016293","2020-02-12 21:00","2020","02","12","21:00","","-4.2","","-8.1","","75","","","","23","","11","","24.1","","100.26","","","","-9","","NA"
"-71.39","46.79","QUEBEC INTL A","7016293","2020-02-12 22:00","2020","02","12","22:00","","-2.7","","-7.3","","71","","","","24","","14","","24.1","","100.17","","","","-8","","Mostly Cloudy"
"-71.39","46.79","QUEBEC INTL A","7016293","2020-02-12 23:00","2020","02","12","23:00","","-2.6","","-6.7","","74","","","","24","","16","","22.5","","100.06","","","","-8","","NA"
"-71.39","46.79","QUEBEC INTL A","7016293","2020-02-13 00:00","2020","02","13","00:00","","-2.7","","-6.6","","75","","","","23","","15","","24.1","","99.98","","","","-8","","NA"
"-71.39","46.79","QUEBEC INTL A","7016293","2020-02-13 01:00","2020","02","13","01:00","","-2.8","","-6.8","","74","","","","24","","17","","19.3","","99.96","","","","-8","","Cloudy"
"-71.39","46.79","QUEBEC INTL A","7016293","2020-02-13 02:00","2020","02","13","02:00","","-2.7","","-6.7","","74","","","","23","","17","","24.1","","99.91","","","","-8","","NA"
"-71.39","46.79","QUEBEC INTL A","7016293","2020-02-13 03:00","2020","02","13","03:00","","-2.8","","-6.5","","76","","","","24","","13","","24.1","","99.84","","","","-7","","NA"
"-71.39","46.79","QUEBEC INTL A","7016293","2020-02-13 04:00","2020","02","13","04:00","","-3.1","","-6.3","","79","","","","25","","14","","16.1","","99.78","","","","-8","","Cloudy"
"-71.39","46.79","QUEBEC INTL A","7016293","2020-02-13 05:00","2020","02","13","05:00","","-3.1","","-6.3","","79","","","","25","","13","","14.5","","99.62","","","","-8","","Snow"
"-71.39","46.79","QUEBEC INTL A","7016293","2020-02-13 06:00","2020","02","13","06:00","","-3.7","","-5.2","","89","","","","25","","16","","4.8","","99.67","","","","-9","","Snow"
"-71.39","46.79","QUEBEC INTL A","7016293","2020-02-13 07:00","2020","02","13","07:00","","-3.5","","-4.5","","92","","","","25","","13","","2.0","","99.65","","","","-8","","Snow"
"-71.39","46.79","QUEBEC INTL A","7016293","2020-02-13 08:00","2020","02","13","08:00","","-3.4","","-4.4","","93","","","","23","","13","","2.4","","99.58","","","","-8","","Snow"
"-71.39","46.79","QUEBEC INTL A","7016293","2020-02-13 09:00","2020","02","13","09:00","","-3.1","","-4.1","","93","","","","24","","10","","2.4","","99.59","","","","-7","","Snow"
"-71.39","46.79","QUEBEC INTL A","7016293","2020-02-13 10:00","2020","02","13","10:00","","-2.5","","-4.2","","88","","","","25","","13","","2.4","","99.57","","","","-7","","Snow"
"-71.39","46.79","QUEBEC INTL A","7016293","2020-02-13 11:00","2020","02","13","11:00","","-3.7","","-6.5","","81","","","","2","","12","","1.6","","99.59","","","","-8","","Snow"
"-71.39","46.79","QUEBEC INTL A","7016293","2020-02-13 12:00","2020","02","13","12:00","","-6.8","","-8.8","","86","","","","7","","25","","1.2","","99.67","","","","-15","","Snow"
"-71.39","46.79","QUEBEC INTL A","7016293","2020-02-13 13:00","2020","02","13","13:00","","-7.5","","-10.0","","83","","","","7","","26","","1.6","","99.63","","","","-16","","Snow,Blowing Snow"
"-71.39","46.79","QUEBEC INTL A","7016293","2020-02-13 14:00","2020","02","13","14:00","","-8.6","","-11.2","","82","","","","7","","30","","2.4","","99.64","","","","-18","","Snow,Blowing Snow"
"-71.39","46.79","QUEBEC INTL A","7016293","2020-02-13 15:00","2020","02","13","15:00","","-9.3","","-12.1","","80","","","","7","","31","","4.0","","99.64","","","","-19","","Snow,Blowing Snow"
"-71.39","46.79","QUEBEC INTL A","7016293","2020-02-13 16:00","2020","02","13","16:00","","-9.9","","-12.7","","80","","","","8","","26","","3.2","","99.71","","","","-19","","Snow,Blowing Snow"
"-71.39","46.79","QUEBEC INTL A","7016293","2020-02-13 17:00","2020","02","13","17:00","","-10.6","","-12.7","","84","","","","8","","23","","2.0","","99.79","","","","-19","","Snow,Blowing Snow"
"-71.39","46.79","QUEBEC INTL A","7016293","2020-02-13 18:00","2020","02","13","18:00","","-10.9","","-13.0","","84","","","","7","","17","","2.8","","99.90","","","","-18","","Snow,Blowing Snow"
"-71.39","46.79","QUEBEC INTL A","7016293","2020-02-13 19:00","2020","02","13","19:00","","-11.7","","-14.6","","79","","","","6","","22","","8.1","","100.00","","","","-20","","Snow,Blowing Snow"
"-71.39","46.79","QUEBEC INTL A","7016293","2020-02-13 20:00","2020","02","13","20:00","","-12.0","","-15.3","","77","","","","5","","18","","4.8","","100.12","","","","-20","","Snow"
"-71.39","46.79","QUEBEC INTL A","7016293","2020-02-13 21:00","2020","02","13","21:00","","-13.4","","-17.4","","72","","","","1","","8","","9.7","","100.23","","","","-18","","Snow"
"-71.39","46.79","QUEBEC INTL A","7016293","2020-02-13 22:00","2020","02","13","22:00","","-14.7","","-20.3","","63","","","","34","","7","","24.1","","100.31","","","","-19","","Mostly Cloudy"
"-71.39","46.79","QUEBEC INTL A","7016293","2020-02-13 23:00","2020","02","13","23:00","","-16.2","","-22.4","","60","","","","35","","8","","24.1","","100.42","","","","-22","","NA"
"-71.39","46.79","QUEBEC INTL A","7016293","2020-02-14 00:00","2020","02","14","00:00","","-18.4","","-24.4","","60","","","","34","","9","","24.1","","100.53","","","","-25","","NA"
"-71.39","46.79","QUEBEC INTL A","7016293","2020-02-14 01:00","2020","02","14","01:00","","-20.1","","-26.0","","60","","","","34","","11","","24.1","","100.58","","","","-28","","Clear"
"-71.39","46.79","QUEBEC INTL A","7016293","2020-02-14 02:00","2020","02","14","02:00","","-20.7","","-26.9","","58","","","","35","","11","","24.1","","100.69","","","","-28","","NA"
"-71.39","46.79","QUEBEC INTL A","7016293","2020-02-14 03:00","2020","02","14","03:00","","-21.4","","-27.7","","58","","","","34","","12","","24.1","","100.80","","","","-30","","NA"
"-71.39","46.79","QUEBEC INTL A","7016293","2020-02-14 04:00","2020","02","14","04:00","","-21.9","","-28.4","","56","","","","33","","15","","24.1","","100.96","","","","-31","","Clear"
"-71.39","46.79","QUEBEC INTL A","7016293","2020-02-14 05:00","2020","02","14","05:00","","-23.0","","-29.0","","58","","","","31","","14","","24.1","","101.14","","","","-32","","NA"
"-71.39","46.79","QUEBEC INTL A","7016293","2020-02-14 06:00","2020","02","14","06:00","","-24.8","","-30.5","","60","","","","27","","9","","24.1","","101.30","","","","-32","","NA"
"-71.39","46.79","QUEBEC INTL A","7016293","2020-02-14 07:00","2020","02","14","07:00","","-26.2","","-30.7","","67","","","","25","","18","","48.3","","101.43","","","","-38","","Clear"
"-71.39","46.79","QUEBEC INTL A","7016293","2020-02-14 08:00","2020","02","14","08:00","","-25.4","","-30.5","","63","","","","25","","21","","48.3","","101.61","","","","-38","","NA"
"-71.39","46.79","QUEBEC INTL A","7016293","2020-02-14 09:00","2020","02","14","09:00","","-23.3","","-29.7","","57","","","","24","","17","","48.3","","101.71","","","","-34","","NA"
"-71.39","46.79","QUEBEC INTL A","7016293","2020-02-14 10:00","2020","02","14","10:00","","-21.9","","-28.9","","54","","","","24","","23","","48.3","","101.79","","","","-34","","Clear"
"-71.39","46.79","QUEBEC INTL A","7016293","2020-02-14 11:00","2020","02","14","11:00","","-20.6","","-27.2","","56","","","","22","","27","","48.3","","101.86","","","","-33","","NA"
"-71.39","46.79","QUEBEC INTL A","7016293","2020-02-14 12:00","2020","02","14","12:00","","-18.8","","-25.9","","55","","","","22","","27","","48.3","","101.87","","","","-30","","NA"
"-71.39","46.79","QUEBEC INTL A","7016293","2020-02-14 13:00","2020","02","14","13:00","","-18.0","","-25.0","","55","","","","22","","31","","48.3","","101.89","","","","-30","","Clear"
"-71.39","46.79","QUEBEC INTL A","7016293","2020-02-14 14:00","2020","02","14","14:00","","-16.8","","-24.9","","50","","","","24","","21","","48.3","","101.95","","","","-27","","NA"
"-71.39","46.79","QUEBEC INTL A","7016293","2020-02-14 15:00","2020","02","14","15:00","","-16.9","","-25.2","","49","","","","24","","24","","48.3","","102.03","","","","-27","","NA"
"-71.39","46.79","QUEBEC INTL A","7016293","2020-02-14 16:00","2020","02","14","16:00","","-17.1","","-25.4","","49","","","","23","","23","","48.3","","102.09","","","","-27","","Clear"
"-71.39","46.79","QUEBEC INTL A","7016293","2020-02-14 17:00","2020","02","14","17:00","","-18.5","","-26.0","","53","","","","25","","21","","48.3","","102.19","","","","-29","","Blowing Snow"
"-71.39","46.79","QUEBEC INTL A","7016293","2020-02-14 18:00","2020","02","14","18:00","","-19.8","","-25.4","","62","","","","25","","26","","24.1","","102.28","","","","-32","","NA"
"-71.39","46.79","QUEBEC INTL A","7016293","2020-02-14 19:00","2020","02","14","19:00","","-21.1","","-26.1","","64","","","","24","","13","","24.1","","102.42","","","","-30","","Clear"
"-71.39","46.79","QUEBEC INTL A","7016293","2020-02-14 20:00","2020","02","14","20:00","","-21.6","","-26.1","","68","","","","23","","16","","24.1","","102.46","","","","-31","","NA"
"-71.39","46.79","QUEBEC INTL A","7016293","2020-02-14 21:00","2020","02","14","21:00","","-23.6","","-28.1","","67","","","","26","","15","","24.1","","102.50","","","","-34","","NA"
"-71.39","46.79","QUEBEC INTL A","7016293","2020-02-14 22:00","2020","02","14","22:00","","-23.2","","-27.6","","68","","","","24","","12","","24.1","","102.53","","","","-32","","Clear"
"-71.39","46.79","QUEBEC INTL A","7016293","2020-02-14 23:00","2020","02","14","23:00","","-24.7","","-28.6","","70","","","","22","","10","","24.1","","102.53","","","","-33","","NA"
"-71.39","46.79","QUEBEC INTL A","7016293","2020-02-15 00:00","2020","02","15","00:00","","-23.4","","-26.8","","74","","","","24","","9","","24.1","","102.53","","","","-31","","NA"
"-71.39","46.79","QUEBEC INTL A","7016293","2020-02-15 01:00","2020","02","15","01:00","","-27.7","","-30.7","","76","","","","29","","6","","24.1","","102.52","","","","-34","","Clear"
"-71.39","46.79","QUEBEC INTL A","7016293","2020-02-15 02:00","2020","02","15","02:00","","-26.1","","-28.6","","80","","","","26","","12","","24.1","","102.57","","","","-35","","NA"
"-71.39","46.79","QUEBEC INTL A","7016293","2020-02-15 03:00","2020","02","15","03:00","","-25.8","","-28.4","","79","","","","26","","12","","24.1","","102.53","","","","-35","","NA"
"-71.39","46.79","QUEBEC INTL A","7016293","2020-02-15 04:00","2020","02","15","04:00","","-27.2","","-30.0","","78","","","","32","","4","","24.1","","102.50","","","","-31","","Clear"
"-71.39","46.79","QUEBEC INTL A","7016293","2020-02-15 05:00","2020","02","15","05:00","","-26.2","","-28.7","","80","","","","25","","8","","16.1","","102.51","","","","-34","","Snow"
"-71.39","46.79","QUEBEC INTL A","7016293","2020-02-15 06:00","2020","02","15","06:00","","-25.8","","-28.7","","77","","","","33","","4","","16.1","","102.53","","","","-30","","Snow"
"-71.39","46.79","QUEBEC INTL A","7016293","2020-02-15 07:00","2020","02","15","07:00","","-24.6","","-27.4","","77","","","","6","","4","","4.8","","102.47","","","","-29","","Snow,Fog"
"-71.39","46.79","QUEBEC INTL A","7016293","2020-02-15 08:00","2020","02","15","08:00","","-22.9","","-26.0","","77","","","","2","","5","","6.4","","102.48","","","","-28","","Snow,Fog"
"-71.39","46.79","QUEBEC INTL A","7016293","2020-02-15 09:00","2020","02","15","09:00","","-21.3","","-24.4","","77","","","","","","0","","4.0","","102.41","","","","","","Snow,Fog"
"-71.39","46.79","QUEBEC INTL A","7016293","2020-02-15 10:00","2020","02","15","10:00","","-19.2","","-23.3","","71","","","","26","","4","","16.1","","102.30","","","","-23","","Mostly Cloudy"
"-71.39","46.79","QUEBEC INTL A","7016293","2020-02-15 11:00","2020","02","15","11:00","","-17.2","","-21.4","","71","","","","24","","10","","4.0","","102.21","","","","-24","","Snow,Fog"
"-71.39","46.79","QUEBEC INTL A","7016293","2020-02-15 12:00","2020","02","15","12:00","","-15.5","","-20.2","","68","","","","25","","7","","24.1","","102.07","","","","-20","","NA"
"-71.39","46.79","QUEBEC INTL A","7016293","2020-02-15 13:00","2020","02","15","13:00","","-13.4","","-19.0","","64","","","","24","","7","","40.2","","101.89","","","","-18","","Mostly Cloudy"
"-71.39","46.79","QUEBEC INTL A","7016293","2020-02-15 14:00","2020","02","15","14:00","","-12.2","","-17.4","","66","","","","25","","10","","40.2","","101.76","","","","-18","","NA"
"-71.39","46.79","QUEBEC INTL A","7016293","2020-02-15 15:00","2020","02","15","15:00","","-11.0","","-15.9","","67","","","","24","","8","","40.2","","101.70","","","","-16","","NA"
"-71.39","46.79","QUEBEC INTL A","7016293","2020-02-15 16:00","2020","02","15","16:00","","-10.8","","-16.0","","66","","","","","","0","","48.3","","101.56","","","","","","Mostly Cloudy"
"-71.39","46.79","QUEBEC INTL A","7016293","2020-02-15 17:00","2020","02","15","17:00","","-11.3","","-16.1","","68","","","","11","","6","","48.3","","101.40","","","","-15","","NA"
"-71.39","46.79","QUEBEC INTL A","7016293","2020-02-15 18:00","2020","02","15","18:00","","-14.9","","-17.5","","81","","","","","","0","","24.1","","101.32","","","","","","NA"
"-71.39","46.79","QUEBEC INTL A","7016293","2020-02-15 19:00","2020","02","15","19:00","","-15.7","","-18.5","","79","","","","2","","3","","24.1","","101.24","","","","-18","","Mostly Cloudy"
"-71.39","46.79","QUEBEC INTL A","7016293","2020-02-15 20:00","2020","02","15","20:00","","-16.7","","-19.1","","82","","","","","","0","","24.1","","101.08","","","","","","NA"
"-71.39","46.79","QUEBEC INTL A","7016293","2020-02-15 21:00","2020","02","15","21:00","","-16.6","","-18.4","","86","","","","","","0","","24.1","","101.00","","","","","","NA"
"-71.39","46.79","QUEBEC INTL A","7016293","2020-02-15 22:00","2020","02","15","22:00","","-15.8","","-17.9","","84","","","","","","0","","24.1","","100.90","","","","","","Cloudy"
"-71.39","46.79","QUEBEC INTL A","7016293","2020-02-15 23:00","2020","02","15","23:00","","-14.6","","-16.9","","83","","","","9","","4","","24.1","","100.78","","","","-17","","NA"
"-71.39","46.79","QUEBEC INTL A","7016293","2020-02-16 00:00","2020","02","16","00:00","","-12.6","","-15.6","","78","","","","35","","4","","24.1","","100.68","","","","-15","","NA"
"-71.39","46.79","QUEBEC INTL A","7016293","2020-02-16 01:00","2020","02","16","01:00","","-11.7","","-15.4","","74","","","","36","","8","","12.9","","100.61","","","","-16","","Snow"
"-71.39","46.79","QUEBEC INTL A","7016293","2020-02-16 02:00","2020","02","16","02:00","","-11.3","","-13.4","","85","","","","6","","4","","1.2","","100.57","","","","-14","","Snow"
"-71.39","46.79","QUEBEC INTL A","7016293","2020-02-16 03:00","2020","02","16","03:00","","-11.4","","-13.1","","87","","","","","","0","","1.2","","100.50","","","","","","Snow"
"-71.39","46.79","QUEBEC INTL A","7016293","2020-02-16 04:00","2020","02","16","04:00","","-10.4","","-11.9","","89","","","","22","","7","","3.2","","100.48","","","","-14","","Snow"
"-71.39","46.79","QUEBEC INTL A","7016293","2020-02-16 05:00","2020","02","16","05:00","","-8.9","","-10.6","","88","","","","27","","9","","9.7","","100.46","","","","-14","","Snow"
"-71.39","46.79","QUEBEC INTL A","7016293","2020-02-16 06:00","2020","02","16","06:00","","-7.7","","-9.1","","89","","","","25","","13","","4.0","","100.44","","","","-13","","Snow"
"-71.39","46.79","QUEBEC INTL A","7016293","2020-02-16 07:00","2020","02","16","07:00","","-6.7","","-8.2","","89","","","","26","","14","","11.3","","100.46","","","","-12","","Snow"
"-71.39","46.79","QUEBEC INTL A","7016293","2020-02-16 08:00","2020","02","16","08:00","","-6.0","","-7.7","","88","","","","26","","11","","12.9","","100.49","","","","-11","","Snow"
"-71.39","46.79","QUEBEC INTL A","7016293","2020-02-16 09:00","2020","02","16","09:00","","-5.9","","-7.6","","88","","","","26","","12","","1.6","","100.49","","","","-11","","Snow"
"-71.39","46.79","QUEBEC INTL A","7016293","2020-02-16 10:00","2020","02","16","10:00","","-5.0","","-6.5","","89","","","","25","","14","","2.4","","100.48","","","","-10","","Snow"
"-71.39","46.79","QUEBEC INTL A","7016293","2020-02-16 11:00","2020","02","16","11:00","","-3.0","","-4.7","","88","","","","24","","18","","2.4","","100.41","","","","-9","","Snow"
"-71.39","46.79","QUEBEC INTL A","7016293","2020-02-16 12:00","2020","02","16","12:00","","-1.7","","-4.4","","82","","","","24","","23","","8.1","","100.33","","","","-8","","Snow"
"-71.39","46.79","QUEBEC INTL A","7016293","2020-02-16 13:00","2020","02","16","13:00","","-0.4","","-4.1","","76","","","","23","","25","","12.9","","100.29","","","","-6","","Snow"
"-71.39","46.79","QUEBEC INTL A","7016293","2020-02-16 14:00","2020","02","16","14:00","","-0.3","","-3.8","","78","","","","25","","25","","16.1","","100.26","","","","-6","","Snow"
"-71.39","46.79","QUEBEC INTL A","7016293","2020-02-16 15:00","2020","02","16","15:00","","0.2","","-3.7","","75","","","","24","","26","","12.9","","100.27","","","","","","NA"
"-71.39","46.79","QUEBEC INTL A","7016293","2020-02-16 16:00","2020","02","16","16:00","","-0.1","","-4.1","","75","","","","24","","20","","12.9","","100.28","","","","-5","","Mostly Cloudy"
"-71.39","46.79","QUEBEC INTL A","7016293","2020-02-16 17:00","2020","02","16","17:00","","-0.2","","-3.8","","77","","","","25","","17","","12.9","","100.31","","","","-5","","NA"
"-71.39","46.79","QUEBEC INTL A","7016293","2020-02-16 18:00","2020","02","16","18:00","","-0.4","","-3.0","","83","","","","28","","8","","8.1","","100.38","","","","-3","","Snow Showers"
"-71.39","46.79","QUEBEC INTL A","7016293","2020-02-16 19:00","2020","02","16","19:00","","-1.0","","-2.1","","92","","","","27","","9","","4.8","","100.43","","","","-4","","Snow Showers"
"-71.39","46.79","QUEBEC INTL A","7016293","2020-02-16 20:00","2020","02","16","20:00","","-1.2","","-2.4","","92","","","","25","","7","","11.3","","100.41","","","","-4","","NA"
"-71.39","46.79","QUEBEC INTL A","7016293","2020-02-16 21:00","2020","02","16","21:00","","-1.5","","-2.7","","92","","","","25","","6","","11.3","","100.36","","","","-4","","NA"
"-71.39","46.79","QUEBEC INTL A","7016293","2020-02-16 22:00","2020","02","16","22:00","","-2.2","","-3.2","","93","","","","24","","3","","9.7","","100.29","","","","-3","","Snow"
"-71.39","46.79","QUEBEC INTL A","7016293","2020-02-16 23:00","2020","02","16","23:00","","-0.9","","-2.5","","89","","","","24","","18","","9.7","","100.32","","","","-6","","Snow"
"-71.39","46.79","QUEBEC INTL A","7016293","2020-02-17 00:00","2020","02","17","00:00","","-1.4","","-5.4","","75","","","","32","","12","","24.1","","100.37","","","","-5","","NA"
"-71.39","46.79","QUEBEC INTL A","7016293","2020-02-17 01:00","2020","02","17","01:00","","-3.2","","-8.3","","68","","","","30","","10","","24.1","","100.53","","","","-7","","Cloudy"
"-71.39","46.79","QUEBEC INTL A","7016293","2020-02-17 02:00","2020","02","17","02:00","","-3.7","","-9.6","","64","","","","26","","6","","24.1","","100.63","","","","-6","","NA"
"-71.39","46.79","QUEBEC INTL A","7016293","2020-02-17 03:00","2020","02","17","03:00","","-5.0","","-11.0","","63","","","","25","","11","","24.1","","100.67","","","","-10","","NA"
"-71.39","46.79","QUEBEC INTL A","7016293","2020-02-17 04:00","2020","02","17","04:00","","-6.5","","-11.8","","66","","","","26","","20","","24.1","","100.80","","","","-13","","Mostly Cloudy"
"-71.39","46.79","QUEBEC INTL A","7016293","2020-02-17 05:00","2020","02","17","05:00","","-8.6","","-15.3","","59","","","","30","","13","","24.1","","100.97","","","","-15","","NA"
"-71.39","46.79","QUEBEC INTL A","7016293","2020-02-17 06:00","2020","02","17","06:00","","-10.7","","-17.0","","60","","","","28","","12","","24.1","","101.12","","","","-17","","NA"
"-71.39","46.79","QUEBEC INTL A","7016293","2020-02-17 07:00","2020","02","17","07:00","","-13.3","","-18.9","","63","","","","27","","11","","40.2","","101.25","","","","-20","","Clear"
"-71.39","46.79","QUEBEC INTL A","7016293","2020-02-17 08:00","2020","02","17","08:00","","-12.9","","-19.8","","57","","","","28","","10","","40.2","","101.39","","","","-19","","NA"
"-71.39","46.79","QUEBEC INTL A","7016293","2020-02-17 09:00","2020","02","17","09:00","","-12.4","","-19.4","","57","","","","27","","9","","40.2","","101.51","","","","-18","","NA"
"-71.39","46.79","QUEBEC INTL A","7016293","2020-02-17 10:00","2020","02","17","10:00","","-11.5","","-19.3","","53","","","","25","","16","","40.2","","101.56","","","","-19","","Clear"
"-71.39","46.79","QUEBEC INTL A","7016293","2020-02-17 11:00","2020","02","17","11:00","","-9.7","","-19.4","","46","","","","24","","14","","40.2","","101.62","","","","-16","","NA"
"-71.39","46.79","QUEBEC INTL A","7016293","2020-02-17 12:00","2020","02","17","12:00","","-8.7","","-18.3","","46","","","","23","","17","","40.2","","101.61","","","","-16","","NA"
"-71.39","46.79","QUEBEC INTL A","7016293","2020-02-17 13:00","2020","02","17","13:00","","-8.7","","-18.0","","47","","","","26","","16","","40.2","","101.65","","","","-15","","Clear"
"-71.39","46.79","QUEBEC INTL A","7016293","2020-02-17 14:00","2020","02","17","14:00","","-8.8","","-17.4","","50","","","","24","","22","","40.2","","101.71","","","","-17","","NA"
"-71.39","46.79","QUEBEC INTL A","7016293","2020-02-17 15:00","2020","02","17","15:00","","-9.4","","-17.9","","50","","","","25","","22","","48.3","","101.82","","","","-17","","NA"
"-71.39","46.79","QUEBEC INTL A","7016293","2020-02-17 16:00","2020","02","17","16:00","","-9.8","","-18.9","","48","","","","24","","19","","48.3","","101.92","","","","-17","","Clear"
"-71.39","46.79","QUEBEC INTL A","7016293","2020-02-17 17:00","2020","02","17","17:00","","-10.7","","-19.8","","48","","","","24","","15","","48.3","","102.01","","","","-18","","NA"
"-71.39","46.79","QUEBEC INTL A","7016293","2020-02-17 18:00","2020","02","17","18:00","","-14.0","","-22.0","","51","","","","26","","13","","24.1","","102.12","","","","-21","","NA"
"-71.39","46.79","QUEBEC INTL A","7016293","2020-02-17 19:00","2020","02","17","19:00","","-14.2","","-21.4","","55","","","","22","","8","","24.1","","102.20","","","","-19","","Clear"
"-71.39","46.79","QUEBEC INTL A","7016293","2020-02-17 20:00","2020","02","17","20:00","","-14.8","","-21.4","","58","","","","27","","9","","24.1","","102.26","","","","-21","","NA"
"-71.39","46.79","QUEBEC INTL A","7016293","2020-02-17 21:00","2020","02","17","21:00","","-18.3","","-22.1","","73","","","","","","0","","24.1","","102.26","","","","","","NA"
"-71.39","46.79","QUEBEC INTL A","7016293","2020-02-17 22:00","2020","02","17","22:00","","-19.3","","-22.0","","80","","","","20","","3","","24.1","","102.30","","","","-22","","Clear"
"-71.39","46.79","QUEBEC INTL A","7016293","2020-02-17 23:00","2020","02","17","23:00","","-22.0","","-24.5","","81","","","","3","","7","","24.1","","102.29","","","","-28","","NA"
"-71.39","46.79","QUEBEC INTL A","7016293","2020-02-18 00:00","2020","02","18","00:00","","-24.2","","-26.6","","81","","","","","","0","","24.1","","102.34","","","","","","NA"
"-71.39","46.79","QUEBEC INTL A","7016293","2020-02-18 01:00","2020","02","18","01:00","","-23.7","","-25.9","","82","","","","","","0","","24.1","","102.38","","","","","","Clear"
"-71.39","46.79","QUEBEC INTL A","7016293","2020-02-18 02:00","2020","02","18","02:00","","-23.6","","-25.8","","82","","","","3","","4","","24.1","","102.41","","","","-27","","NA"
"-71.39","46.79","QUEBEC INTL A","7016293","2020-02-18 03:00","2020","02","18","03:00","","-20.0","","-23.3","","75","","","","4","","8","","24.1","","102.41","","","","-26","","NA"
"-71.39","46.79","QUEBEC INTL A","7016293","2020-02-18 04:00","2020","02","18","04:00","","-21.2","","-24.4","","76","","","","2","","5","","24.1","","102.38","","","","-26","","Mainly Clear"
"-71.39","46.79","QUEBEC INTL A","7016293","2020-02-18 05:00","2020","02","18","05:00","","-19.5","","-23.0","","74","","","","1","","13","","24.1","","102.30","","","","-28","","NA"
"-71.39","46.79","QUEBEC INTL A","7016293","2020-02-18 06:00","2020","02","18","06:00","","-22.4","","-25.6","","76","","","","1","","4","","24.1","","102.31","","","","-26","","NA"
"-71.39","46.79","QUEBEC INTL A","7016293","2020-02-18 07:00","2020","02","18","07:00","","-19.6","","-23.3","","73","","","","2","","11","","24.1","","102.19","","","","-27","","Mainly Clear"
"-71.39","46.79","QUEBEC INTL A","7016293","2020-02-18 08:00","2020","02","18","08:00","","-19.6","","-23.5","","72","","","","4","","13","","32.2","","102.06","","","","-28","","NA"
"-71.39","46.79","QUEBEC INTL A","7016293","2020-02-18 09:00","2020","02","18","09:00","","-13.9","","-18.4","","69","","","","7","","25","","32.2","","101.99","","","","-24","","NA"
"-71.39","46.79","QUEBEC INTL A","7016293","2020-02-18 10:00","2020","02","18","10:00","","-11.8","","-16.2","","70","","","","9","","8","","32.2","","101.95","","","","-17","","Mostly Cloudy"
"-71.39","46.79","QUEBEC INTL A","7016293","2020-02-18 11:00","2020","02","18","11:00","","-9.6","","-13.8","","72","","","","7","","22","","32.2","","101.79","","","","-18","","NA"
"-71.39","46.79","QUEBEC INTL A","7016293","2020-02-18 12:00","2020","02","18","12:00","","-8.6","","-15.9","","56","","","","7","","18","","32.2","","101.63","","","","-16","","NA"
"-71.39","46.79","QUEBEC INTL A","7016293","2020-02-18 13:00","2020","02","18","13:00","","-8.8","","-12.3","","76","","","","9","","22","","1.2","","101.43","","","","-17","","Snow"
"-71.39","46.79","QUEBEC INTL A","7016293","2020-02-18 14:00","2020","02","18","14:00","","-8.9","","-10.7","","87","","","","6","","22","","1.2","","101.22","","","","-17","","Snow,Blowing Snow"
"-71.39","46.79","QUEBEC INTL A","7016293","2020-02-18 15:00","2020","02","18","15:00","","-8.6","","-10.3","","88","","","","7","","29","","3.6","","100.94","","","","-18","","Snow,Blowing Snow"
"-71.39","46.79","QUEBEC INTL A","7016293","2020-02-18 16:00","2020","02","18","16:00","","-8.4","","-10.1","","88","","","","7","","30","","2.0","","100.70","","","","-17","","Snow,Blowing Snow"
"-71.39","46.79","QUEBEC INTL A","7016293","2020-02-18 17:00","2020","02","18","17:00","","-7.8","","-9.2","","90","","","","6","","30","","1.0","","100.53","","","","-17","","Snow,Blowing Snow"
"-71.39","46.79","QUEBEC INTL A","7016293","2020-02-18 18:00","2020","02","18","18:00","","-7.1","","-8.4","","91","","","","6","","30","","0.8","","100.35","","","","-16","","Moderate Snow,Blowing Snow"
"-71.39","46.79","QUEBEC INTL A","7016293","2020-02-18 19:00","2020","02","18","19:00","","-6.2","","-7.4","","92","","","","7","","30","","2.4","","100.19","","","","-15","","Snow,Blowing Snow"
"-71.39","46.79","QUEBEC INTL A","7016293","2020-02-18 20:00","2020","02","18","20:00","","-5.7","","-6.8","","92","","","","6","","23","","9.7","","99.98","","","","-13","","Snow Grains,Blowing Snow"
"-71.39","46.79","QUEBEC INTL A","7016293","2020-02-18 21:00","2020","02","18","21:00","","-5.0","","-5.9","","93","","","","7","","12","","4.8","","99.88","","","","-10","","Snow,Snow Grains,Blowing Snow"
"-71.39","46.79","QUEBEC INTL A","7016293","2020-02-18 22:00","2020","02","18","22:00","","-4.4","","-5.2","","94","","","","6","","5","","9.7","","99.79","","","","-7","","Snow"
"-71.39","46.79","QUEBEC INTL A","7016293","2020-02-18 23:00","2020","02","18","23:00","","-1.2","","-1.8","","95","","","","23","","16","","16.1","","99.66","","","","-6","","NA"
"-71.39","46.79","QUEBEC INTL A","7016293","2020-02-19 00:00","2020","02","19","00:00","","1.7","","-0.2","","87","","","","23","","27","","24.1","","99.65","","","","","","NA"
"-71.39","46.79","QUEBEC INTL A","7016293","2020-02-19 01:00","2020","02","19","01:00","","2.3","","-1.2","","77","","","","24","","41","","16.1","","99.63","","","","","","Snow"
"-71.39","46.79","QUEBEC INTL A","7016293","2020-02-19 02:00","2020","02","19","02:00","","0.9","","-1.4","","85","","","","26","","34","","8.1","","99.70","","","","","","Snow"
"-71.39","46.79","QUEBEC INTL A","7016293","2020-02-19 03:00","2020","02","19","03:00","","-0.7","","-5.8","","68","","","","27","","29","","24.1","","99.89","","","","-7","","NA"
"-71.39","46.79","QUEBEC INTL A","7016293","2020-02-19 04:00","2020","02","19","04:00","","-2.2","","-7.9","","65","","","","27","","26","","24.1","","100.05","","","","-9","","Cloudy"
"-71.39","46.79","QUEBEC INTL A","7016293","2020-02-19 05:00","2020","02","19","05:00","","-3.1","","-8.7","","65","","","","26","","32","","24.1","","100.14","","","","-11","","NA"
"-71.39","46.79","QUEBEC INTL A","7016293","2020-02-19 06:00","2020","02","19","06:00","","-4.9","","-10.5","","65","","","","26","","24","","24.1","","100.20","","","","-12","","NA"
"-71.39","46.79","QUEBEC INTL A","7016293","2020-02-19 07:00","2020","02","19","07:00","","-5.8","","-11.1","","66","","","","26","","24","","24.1","","100.24","","","","-13","","Mainly Clear"
"-71.39","46.79","QUEBEC INTL A","7016293","2020-02-19 08:00","2020","02","19","08:00","","-5.8","","-10.8","","68","","","","26","","23","","24.1","","100.37","","","","-13","","NA"
"-71.39","46.79","QUEBEC INTL A","7016293","2020-02-19 09:00","2020","02","19","09:00","","-5.7","","-12.6","","58","","","","27","","24","","24.1","","100.40","","","","-13","","NA"
"-71.39","46.79","QUEBEC INTL A","7016293","2020-02-19 10:00","2020","02","19","10:00","","-5.0","","-12.9","","54","","","","28","","24","","24.1","","100.50","","","","-12","","Mostly Cloudy"
"-71.39","46.79","QUEBEC INTL A","7016293","2020-02-19 11:00","2020","02","19","11:00","","-5.0","","-13.2","","53","","","","28","","26","","24.1","","100.61","","","","-12","","NA"
"-71.39","46.79","QUEBEC INTL A","7016293","2020-02-19 12:00","2020","02","19","12:00","","-5.6","","-15.1","","48","","","","27","","27","","24.1","","100.69","","","","-13","","NA"
"-71.39","46.79","QUEBEC INTL A","7016293","2020-02-19 13:00","2020","02","19","13:00","","-6.3","","-16.0","","47","","","","27","","28","","24.1","","100.79","","","","-14","","Mainly Clear"
"-71.39","46.79","QUEBEC INTL A","7016293","2020-02-19 14:00","2020","02","19","14:00","","-7.6","","-17.4","","46","","","","27","","33","","24.1","","100.87","","","","-17","","NA"
"-71.39","46.79","QUEBEC INTL A","7016293","2020-02-19 15:00","2020","02","19","15:00","","-8.4","","-18.2","","46","","","","28","","24","","48.3","","101.00","","","","-17","","NA"
"-71.39","46.79","QUEBEC INTL A","7016293","2020-02-19 16:00","2020","02","19","16:00","","-9.3","","-19.0","","46","","","","27","","18","","48.3","","101.10","","","","-17","","Mostly Cloudy"
"-71.39","46.79","QUEBEC INTL A","7016293","2020-02-19 17:00","2020","02","19","17:00","","-9.8","","-19.1","","47","","","","28","","20","","48.3","","101.15","","","","-18","","NA"
"-71.39","46.79","QUEBEC INTL A","7016293","2020-02-19 18:00","2020","02","19","18:00","","-10.9","","-20.4","","46","","","","27","","28","","24.1","","101.30","","","","-20","","NA"
"-71.39","46.79","QUEBEC INTL A","7016293","2020-02-19 19:00","2020","02","19","19:00","","-12.2","","-21.3","","47","","","","27","","23","","24.1","","101.46","","","","-21","","Mainly Clear"
"-71.39","46.79","QUEBEC INTL A","7016293","2020-02-19 20:00","2020","02","19","20:00","","-13.4","","-22.0","","49","","","","28","","15","","24.1","","101.56","","","","-21","","NA"
"-71.39","46.79","QUEBEC INTL A","7016293","2020-02-19 21:00","2020","02","19","21:00","","-14.5","","-22.7","","50","","","","29","","23","","24.1","","101.67","","","","-24","","NA"
"-71.39","46.79","QUEBEC INTL A","7016293","2020-02-19 22:00","2020","02","19","22:00","","-15.6","","-23.9","","50","","","","29","","14","","24.1","","101.73","","","","-23","","Mainly Clear"
"-71.39","46.79","QUEBEC INTL A","7016293","2020-02-19 23:00","2020","02","19","23:00","","-16.6","","-24.4","","52","","","","31","","12","","24.1","","101.76","","","","-24","","NA"
"-71.39","46.79","QUEBEC INTL A","7016293","2020-02-20 00:00","2020","02","20","00:00","","-17.8","","-25.7","","51","","","","29","","9","","24.1","","101.78","","","","-24","","NA"
"-71.39","46.79","QUEBEC INTL A","7016293","2020-02-20 01:00","2020","02","20","01:00","","-19.1","","-25.9","","56","","","","29","","10","","24.1","","101.79","","","","-26","","Clear"
"-71.39","46.79","QUEBEC INTL A","7016293","2020-02-20 02:00","2020","02","20","02:00","","-19.4","","-25.7","","58","","","","27","","12","","24.1","","101.82","","","","-27","","NA"
"-71.39","46.79","QUEBEC INTL A","7016293","2020-02-20 03:00","2020","02","20","03:00","","-22.9","","-27.6","","66","","","","25","","17","","24.1","","101.81","","","","-33","","NA"
"-71.39","46.79","QUEBEC INTL A","7016293","2020-02-20 04:00","2020","02","20","04:00","","-23.1","","-27.5","","68","","","","27","","16","","24.1","","101.86","","","","-33","","Clear"
"-71.39","46.79","QUEBEC INTL A","7016293","2020-02-20 05:00","2020","02","20","05:00","","-23.8","","-28.1","","68","","","","27","","13","","24.1","","101.90","","","","-33","","NA"
"-71.39","46.79","QUEBEC INTL A","7016293","2020-02-20 06:00","2020","02","20","06:00","","-23.1","","-27.2","","69","","","","27","","16","","24.1","","101.95","","","","-33","","NA"
"-71.39","46.79","QUEBEC INTL A","7016293","2020-02-20 07:00","2020","02","20","07:00","","-24.1","","-28.3","","69","","","","27","","10","","24.1","","102.01","","","","-32","","Mainly Clear"
"-71.39","46.79","QUEBEC INTL A","7016293","2020-02-20 08:00","2020","02","20","08:00","","-22.0","","-26.7","","66","","","","25","","16","","24.1","","102.08","","","","-32","","NA"
"-71.39","46.79","QUEBEC INTL A","7016293","2020-02-20 09:00","2020","02","20","09:00","","-20.2","","-26.4","","59","","","","25","","18","","24.1","","102.11","","","","-30","","NA"
"-71.39","46.79","QUEBEC INTL A","7016293","2020-02-20 10:00","2020","02","20","10:00","","-18.8","","-26.2","","53","","","","26","","23","","24.1","","102.13","","","","-30","","Mainly Clear"
"-71.39","46.79","QUEBEC INTL A","7016293","2020-02-20 11:00","2020","02","20","11:00","","-17.4","","-25.1","","52","","","","24","","16","","24.1","","102.11","","","","-26","","NA"
"-71.39","46.79","QUEBEC INTL A","7016293","2020-02-20 12:00","2020","02","20","12:00","","-16.4","","-24.5","","50","","","","25","","29","","24.1","","102.07","","","","-28","","NA"
"-71.39","46.79","QUEBEC INTL A","7016293","2020-02-20 13:00","2020","02","20","13:00","","-15.6","","-24.1","","49","","","","26","","25","","24.1","","101.98","","","","-26","","Mainly Clear"
"-71.39","46.79","QUEBEC INTL A","7016293","2020-02-20 14:00","2020","02","20","14:00","","-14.9","","-23.6","","48","","","","25","","25","","24.1","","101.94","","","","-25","","NA"
"-71.39","46.79","QUEBEC INTL A","7016293","2020-02-20 15:00","2020","02","20","15:00","","-14.4","","-23.8","","46","","","","26","","18","","48.3","","101.91","","","","-23","","NA"
"-71.39","46.79","QUEBEC INTL A","7016293","2020-02-20 16:00","2020","02","20","16:00","","-14.3","","-23.5","","46","","","","26","","21","","48.3","","101.93","","","","-24","","Mainly Clear"
"-71.39","46.79","QUEBEC INTL A","7016293","2020-02-20 17:00","2020","02","20","17:00","","-15.7","","-23.0","","54","","","","24","","14","","48.3","","101.96","","","","-23","","NA"
"-71.39","46.79","QUEBEC INTL A","7016293","2020-02-20 18:00","2020","02","20","18:00","","-18.0","","-23.6","","62","","","","25","","14","","24.1","","102.06","","","","-26","","NA"
"-71.39","46.79","QUEBEC INTL A","7016293","2020-02-20 19:00","2020","02","20","19:00","","-18.2","","-23.1","","66","","","","25","","5","","24.1","","102.11","","","","-22","","Clear"
"-71.39","46.79","QUEBEC INTL A","7016293","2020-02-20 20:00","2020","02","20","20:00","","-20.3","","-24.8","","68","","","","25","","10","","24.1","","102.14","","","","-28","","NA"
"-71.39","46.79","QUEBEC INTL A","7016293","2020-02-20 21:00","2020","02","20","21:00","","-19.2","","-24.3","","64","","","","24","","12","","24.1","","102.16","","","","-27","","NA"
"-71.39","46.79","QUEBEC INTL A","7016293","2020-02-20 22:00","2020","02","20","22:00","","-18.8","","-23.7","","66","","","","24","","11","","24.1","","102.14","","","","-26","","Clear"
"-71.39","46.79","QUEBEC INTL A","7016293","2020-02-20 23:00","2020","02","20","23:00","","-20.7","","-25.4","","66","","","","25","","13","","24.1","","102.14","","","","-29","","NA"
"-71.39","46.79","QUEBEC INTL A","7016293","2020-02-21 00:00","2020","02","21","00:00","","-19.1","","-23.6","","68","","","","25","","16","","24.1","","102.11","","","","-28","","NA"
"-71.39","46.79","QUEBEC INTL A","7016293","2020-02-21 01:00","2020","02","21","01:00","","-25.4","","-28.1","","78","","","","28","","7","","24.1","","102.12","","","","-32","","Clear"
"-71.39","46.79","QUEBEC INTL A","7016293","2020-02-21 02:00","2020","02","21","02:00","","-26.1","","-29.1","","77","","","","29","","4","","24.1","","102.11","","","","-30","","NA"
"-71.39","46.79","QUEBEC INTL A","7016293","2020-02-21 03:00","2020","02","21","03:00","","-27.2","","-29.8","","79","","","","22","","8","","24.1","","102.09","","","","-35","","NA"
"-71.39","46.79","QUEBEC INTL A","7016293","2020-02-21 04:00","2020","02","21","04:00","","-27.8","","-30.4","","79","","","","4","","5","","24.1","","102.08","","","","-33","","Mainly Clear"
"-71.39","46.79","QUEBEC INTL A","7016293","2020-02-21 05:00","2020","02","21","05:00","","-29.3","","-32.2","","77","","","","33","","4","","24.1","","102.07","","","","-34","","NA"
"-71.39","46.79","QUEBEC INTL A","7016293","2020-02-21 06:00","2020","02","21","06:00","","-30.8","","-34.0","","74","","","","35","","3","","24.1","","102.07","","","","-34","","NA"
"-71.39","46.79","QUEBEC INTL A","7016293","2020-02-21 07:00","2020","02","21","07:00","","-30.2","","-33.4","","75","","","","","","0","","48.3","","102.05","","","","","","Clear"
"-71.39","46.79","QUEBEC INTL A","7016293","2020-02-21 08:00","2020","02","21","08:00","","-26.6","","-29.4","","78","","","","5","","4","","48.3","","102.06","","","","-31","","NA"
"-71.39","46.79","QUEBEC INTL A","7016293","2020-02-21 09:00","2020","02","21","09:00","","-21.5","","-24.7","","76","","","","","","0","","32.2","","102.03","","","","","","NA"
"-71.39","46.79","QUEBEC INTL A","7016293","2020-02-21 10:00","2020","02","21","10:00","","-16.8","","-21.5","","67","","","","25","","17","","32.2","","101.97","","","","-26","","Clear"
"-71.39","46.79","QUEBEC INTL A","7016293","2020-02-21 11:00","2020","02","21","11:00","","-14.3","","-20.2","","61","","","","25","","16","","32.2","","101.89","","","","-22","","NA"
"-71.39","46.79","QUEBEC INTL A","7016293","2020-02-21 12:00","2020","02","21","12:00","","-12.4","","-18.9","","59","","","","22","","13","","32.2","","101.75","","","","-19","","NA"
"-71.39","46.79","QUEBEC INTL A","7016293","2020-02-21 13:00","2020","02","21","13:00","","-10.5","","-17.9","","55","","","","21","","13","","24.1","","101.58","","","","-17","","Mainly Clear"
"-71.39","46.79","QUEBEC INTL A","7016293","2020-02-21 14:00","2020","02","21","14:00","","-8.8","","-15.7","","58","","","","23","","13","","32.2","","101.43","","","","-15","","NA"
"-71.39","46.79","QUEBEC INTL A","7016293","2020-02-21 15:00","2020","02","21","15:00","","-7.5","","-13.7","","62","","","","25","","17","","32.2","","101.31","","","","-14","","NA"
"-71.39","46.79","QUEBEC INTL A","7016293","2020-02-21 16:00","2020","02","21","16:00","","-6.9","","-12.4","","65","","","","25","","18","","48.3","","101.19","","","","-14","","Mostly Cloudy"
"-71.39","46.79","QUEBEC INTL A","7016293","2020-02-21 17:00","2020","02","21","17:00","","-6.4","","-12.0","","64","","","","23","","24","","48.3","","101.06","","","","-14","","NA"
"-71.39","46.79","QUEBEC INTL A","7016293","2020-02-21 18:00","2020","02","21","18:00","","-6.6","","-12.2","","65","","","","24","","18","","24.1","","101.00","","","","-13","","NA"
"-71.39","46.79","QUEBEC INTL A","7016293","2020-02-21 19:00","2020","02","21","19:00","","-8.0","","-12.6","","70","","","","27","","6","","24.1","","100.94","","","","-11","","Mostly Cloudy"
"-71.39","46.79","QUEBEC INTL A","7016293","2020-02-21 20:00","2020","02","21","20:00","","-10.8","","-14.7","","73","","","","25","","6","","24.1","","100.84","","","","-14","","NA"
"-71.39","46.79","QUEBEC INTL A","7016293","2020-02-21 21:00","2020","02","21","21:00","","-11.3","","-13.8","","82","","","","22","","6","","24.1","","100.72","","","","-15","","NA"
"-71.39","46.79","QUEBEC INTL A","7016293","2020-02-21 22:00","2020","02","21","22:00","","-9.4","","-14.1","","69","","","","24","","13","","24.1","","100.59","","","","-15","","Mainly Clear"
"-71.39","46.79","QUEBEC INTL A","7016293","2020-02-21 23:00","2020","02","21","23:00","","-9.5","","-13.8","","71","","","","25","","16","","24.1","","100.65","","","","-16","","NA"
"-71.39","46.79","QUEBEC INTL A","7016293","2020-02-22 00:00","2020","02","22","00:00","","-6.3","","-11.8","","65","","","","24","","18","","22.5","","100.60","","","","-13","","NA"
"-71.39","46.79","QUEBEC INTL A","7016293","2020-02-22 01:00","2020","02","22","01:00","","-5.2","","-9.8","","70","","","","24","","19","","24.1","","100.55","","","","-12","","Mostly Cloudy"
"-71.39","46.79","QUEBEC INTL A","7016293","2020-02-22 02:00","2020","02","22","02:00","","-4.2","","-8.8","","71","","","","24","","36","","24.1","","100.47","","","","-13","","NA"
"-71.39","46.79","QUEBEC INTL A","7016293","2020-02-22 03:00","2020","02","22","03:00","","-4.0","","-8.4","","72","","","","24","","29","","24.1","","100.47","","","","-12","","NA"
"-71.39","46.79","QUEBEC INTL A","7016293","2020-02-22 04:00","2020","02","22","04:00","","-5.0","","-8.4","","77","","","","23","","22","","9.7","","100.48","","","","-12","","Snow"
"-71.39","46.79","QUEBEC INTL A","7016293","2020-02-22 05:00","2020","02","22","05:00","","-4.6","","-8.3","","75","","","","24","","22","","9.7","","100.49","","","","-11","","Snow"
"-71.39","46.79","QUEBEC INTL A","7016293","2020-02-22 06:00","2020","02","22","06:00","","-4.4","","-8.0","","76","","","","24","","28","","12.9","","100.51","","","","-12","","Snow"
"-71.39","46.79","QUEBEC INTL A","7016293","2020-02-22 07:00","2020","02","22","07:00","","-4.4","","-8.1","","75","","","","24","","27","","24.1","","100.52","","","","-12","","Snow"
"-71.39","46.79","QUEBEC INTL A","7016293","2020-02-22 08:00","2020","02","22","08:00","","-4.2","","-7.8","","76","","","","24","","26","","32.2","","100.56","","","","-11","","NA"
"-71.39","46.79","QUEBEC INTL A","7016293","2020-02-22 09:00","2020","02","22","09:00","","-3.5","","-7.3","","75","","","","25","","23","","32.2","","100.62","","","","-10","","NA"
"-71.39","46.79","QUEBEC INTL A","7016293","2020-02-22 10:00","2020","02","22","10:00","","-2.3","","-7.1","","70","","","","25","","27","","24.1","","100.61","","","","-9","","Mostly Cloudy"
"-71.39","46.79","QUEBEC INTL A","7016293","2020-02-22 11:00","2020","02","22","11:00","","-1.9","","-7.3","","66","","","","25","","23","","32.2","","100.61","","","","-8","","NA"
"-71.39","46.79","QUEBEC INTL A","7016293","2020-02-22 12:00","2020","02","22","12:00","","-0.9","","-7.1","","63","","","","23","","24","","32.2","","100.56","","","","-7","","NA"
"-71.39","46.79","QUEBEC INTL A","7016293","2020-02-22 13:00","2020","02","22","13:00","","-0.4","","-7.0","","61","","","","23","","30","","40.2","","100.52","","","","-7","","Mainly Clear"
"-71.39","46.79","QUEBEC INTL A","7016293","2020-02-22 14:00","2020","02","22","14:00","","0.5","","-6.6","","59","","","","24","","27","","40.2","","100.47","","","","","","NA"
"-71.39","46.79","QUEBEC INTL A","7016293","2020-02-22 15:00","2020","02","22","15:00","","0.1","","-6.6","","61","","","","25","","32","","40.2","","100.49","","","","","","NA"
"-71.39","46.79","QUEBEC INTL A","7016293","2020-02-22 16:00","2020","02","22","16:00","","-0.7","","-6.3","","66","","","","25","","26","","32.2","","100.49","","","","-7","","Mainly Clear"
"-71.39","46.79","QUEBEC INTL A","7016293","2020-02-22 17:00","2020","02","22","17:00","","-1.3","","-6.6","","67","","","","25","","20","","32.2","","100.53","","","","-7","","NA"
"-71.39","46.79","QUEBEC INTL A","7016293","2020-02-22 18:00","2020","02","22","18:00","","-2.7","","-7.1","","72","","","","24","","15","","32.2","","100.61","","","","-8","","NA"
"-71.39","46.79","QUEBEC INTL A","7016293","2020-02-22 19:00","2020","02","22","19:00","","-1.6","","-6.5","","69","","","","24","","17","","19.3","","100.63","","","","-7","","Mostly Cloudy"
"-71.39","46.79","QUEBEC INTL A","7016293","2020-02-22 20:00","2020","02","22","20:00","","-1.9","","-6.5","","71","","","","24","","15","","19.3","","100.67","","","","-7","","NA"
"-71.39","46.79","QUEBEC INTL A","7016293","2020-02-22 21:00","2020","02","22","21:00","","-5.1","","-8.5","","77","","","","25","","14","","19.3","","100.71","","","","-10","","NA"
"-71.39","46.79","QUEBEC INTL A","7016293","2020-02-22 22:00","2020","02","22","22:00","","-4.9","","-7.0","","85","","","","25","","13","","19.3","","100.72","","","","-10","","Clear"
"-71.39","46.79","QUEBEC INTL A","7016293","2020-02-22 23:00","2020","02","22","23:00","","-8.0","","-9.8","","87","","","","24","","8","","24.1","","100.70","","","","-12","","NA"
"-71.39","46.79","QUEBEC INTL A","7016293","2020-02-23 00:00","2020","02","23","00:00","","-7.3","","-9.2","","87","","","","","","0","","24.1","","100.71","","","","","","NA"
"-71.39","46.79","QUEBEC INTL A","7016293","2020-02-23 01:00","2020","02","23","01:00","","-9.8","","-11.0","","90","","","","21","","10","","19.3","","100.75","","","","-15","","Mainly Clear"
"-71.39","46.79","QUEBEC INTL A","7016293","2020-02-23 02:00","2020","02","23","02:00","","-8.6","","-9.6","","92","","","","22","","3","","19.3","","100.75","","","","-10","","NA"
"-71.39","46.79","QUEBEC INTL A","7016293","2020-02-23 03:00","2020","02","23","03:00","","-9.0","","-9.9","","94","","","","","","0","","16.1","","100.76","","","","","","NA"
"-71.39","46.79","QUEBEC INTL A","7016293","2020-02-23 04:00","2020","02","23","04:00","","-8.2","","-9.2","","93","","","","23","","7","","16.1","","100.75","","","","-12","","Mostly Cloudy"
"-71.39","46.79","QUEBEC INTL A","7016293","2020-02-23 05:00","2020","02","23","05:00","","-9.1","","-10.2","","92","","","","18","","3","","12.9","","100.77","","","","-11","","NA"
"-71.39","46.79","QUEBEC INTL A","7016293","2020-02-23 06:00","2020","02","23","06:00","","-8.2","","-9.3","","92","","","","22","","4","","12.9","","100.77","","","","-10","","NA"
"-71.39","46.79","QUEBEC INTL A","7016293","2020-02-23 07:00","2020","02","23","07:00","","-5.7","","-6.6","","93","","","","20","","7","","16.1","","100.78","","","","-9","","Mostly Cloudy"
"-71.39","46.79","QUEBEC INTL A","7016293","2020-02-23 08:00","2020","02","23","08:00","","-3.9","","-4.8","","94","","","","25","","10","","16.1","","100.82","","","","-8","","NA"
"-71.39","46.79","QUEBEC INTL A","7016293","2020-02-23 09:00","2020","02","23","09:00","","-2.9","","-4.8","","86","","","","25","","11","","16.1","","100.81","","","","-7","","NA"
"-71.39","46.79","QUEBEC INTL A","7016293","2020-02-23 10:00","2020","02","23","10:00","","-1.5","","-4.4","","81","","","","25","","18","","16.1","","100.79","","","","-7","","Cloudy"
"-71.39","46.79","QUEBEC INTL A","7016293","2020-02-23 11:00","2020","02","23","11:00","","-0.2","","-4.0","","76","","","","27","","11","","16.1","","100.78","","","","-4","","NA"
"-71.39","46.79","QUEBEC INTL A","7016293","2020-02-23 12:00","2020","02","23","12:00","","1.3","","-3.9","","69","","","","30","","7","","16.1","","100.72","","","","","","NA"
"-71.39","46.79","QUEBEC INTL A","7016293","2020-02-23 13:00","2020","02","23","13:00","","2.1","","-3.4","","67","","","","25","","13","","19.3","","100.64","","","","","","Mainly Clear"
"-71.39","46.79","QUEBEC INTL A","7016293","2020-02-23 14:00","2020","02","23","14:00","","3.1","","-3.0","","64","","","","24","","10","","19.3","","100.61","","","","","","NA"
"-71.39","46.79","QUEBEC INTL A","7016293","2020-02-23 15:00","2020","02","23","15:00","","3.2","","-2.6","","65","","","","21","","13","","24.1","","100.59","","","","","","NA"
"-71.39","46.79","QUEBEC INTL A","7016293","2020-02-23 16:00","2020","02","23","16:00","","2.9","","-2.7","","67","","","","21","","10","","24.1","","100.59","","","","","","Mainly Clear"
"-71.39","46.79","QUEBEC INTL A","7016293","2020-02-23 17:00","2020","02","23","17:00","","2.8","","-2.5","","68","","","","27","","4","","24.1","","100.58","","","","","","NA"
"-71.39","46.79","QUEBEC INTL A","7016293","2020-02-23 18:00","2020","02","23","18:00","","-0.2","","-3.4","","79","","","","","","0","","24.1","","100.60","","","","","","NA"
"-71.39","46.79","QUEBEC INTL A","7016293","2020-02-23 19:00","2020","02","23","19:00","","-2.8","","-5.0","","85","","","","","","0","","24.1","","100.60","","","","","","Mainly Clear"
"-71.39","46.79","QUEBEC INTL A","7016293","2020-02-23 20:00","2020","02","23","20:00","","-2.5","","-4.1","","89","","","","3","","4","","19.3","","100.59","","","","-4","","NA"
"-71.39","46.79","QUEBEC INTL A","7016293","2020-02-23 21:00","2020","02","23","21:00","","-4.4","","-5.5","","92","","","","35","","4","","19.3","","100.58","","","","-6","","NA"
"-71.39","46.79","QUEBEC INTL A","7016293","2020-02-23 22:00","2020","02","23","22:00","","-1.6","","-4.5","","81","","","","35","","9","","19.3","","100.57","","","","-5","","Mostly Cloudy"
"-71.39","46.79","QUEBEC INTL A","7016293","2020-02-23 23:00","2020","02","23","23:00","","-1.0","","-4.0","","80","","","","35","","10","","24.1","","100.52","","","","-5","","NA"
"-71.39","46.79","QUEBEC INTL A","7016293","2020-02-24 00:00","2020","02","24","00:00","","-3.4","","-5.4","","86","","","","10","","7","","24.1","","100.52","","","","-6","","NA"
"-71.39","46.79","QUEBEC INTL A","7016293","2020-02-24 01:00","2020","02","24","01:00","","-5.3","","-6.7","","91","","","","34","","5","","24.1","","100.47","","","","-8","","Mostly Cloudy"
"-71.39","46.79","QUEBEC INTL A","7016293","2020-02-24 02:00","2020","02","24","02:00","","-4.3","","-5.9","","89","","","","36","","5","","19.3","","100.40","","","","-6","","NA"
"-71.39","46.79","QUEBEC INTL A","7016293","2020-02-24 03:00","2020","02","24","03:00","","-5.1","","-6.3","","91","","","","","","0","","24.1","","100.34","","","","","","NA"
"-71.39","46.79","QUEBEC INTL A","7016293","2020-02-24 04:00","2020","02","24","04:00","","-2.8","","-5.4","","82","","","","36","","6","","24.1","","100.32","","","","-5","","Mostly Cloudy"
"-71.39","46.79","QUEBEC INTL A","7016293","2020-02-24 05:00","2020","02","24","05:00","","-3.1","","-5.3","","84","","","","1","","3","","24.1","","100.29","","","","-4","","NA"
"-71.39","46.79","QUEBEC INTL A","7016293","2020-02-24 06:00","2020","02","24","06:00","","-3.0","","-5.2","","85","","","","8","","4","","24.1","","100.24","","","","-5","","NA"
"-71.39","46.79","QUEBEC INTL A","7016293","2020-02-24 07:00","2020","02","24","07:00","","-4.1","","-6.7","","83","","","","3","","4","","40.2","","100.20","","","","-6","","Mostly Cloudy"
"-71.39","46.79","QUEBEC INTL A","7016293","2020-02-24 08:00","2020","02","24","08:00","","-1.7","","-4.8","","80","","","","1","","4","","40.2","","100.22","","","","-3","","NA"
"-71.39","46.79","QUEBEC INTL A","7016293","2020-02-24 09:00","2020","02","24","09:00","","0.2","","-5.0","","68","","","","","","0","","40.2","","100.19","","","","","","NA"
"-71.39","46.79","QUEBEC INTL A","7016293","2020-02-24 10:00","2020","02","24","10:00","","3.6","","-5.0","","53","","","","14","","3","","40.2","","100.18","","","","","","Mainly Clear"
"-71.39","46.79","QUEBEC INTL A","7016293","2020-02-24 11:00","2020","02","24","11:00","","5.5","","-4.0","","51","","","","25","","22","","40.2","","100.16","","","","","","NA"
"-71.39","46.79","QUEBEC INTL A","7016293","2020-02-24 12:00","2020","02","24","12:00","","5.6","","-3.1","","53","","","","25","","30","","40.2","","100.11","","","","","","NA"
"-71.39","46.79","QUEBEC INTL A","7016293","2020-02-24 13:00","2020","02","24","13:00","","5.3","","-2.6","","57","","","","25","","25","","40.2","","100.06","","","","","","Mainly Clear"
"-71.39","46.79","QUEBEC INTL A","7016293","2020-02-24 14:00","2020","02","24","14:00","","5.6","","-2.3","","57","","","","25","","23","","40.2","","100.06","","","","","","NA"
"-71.39","46.79","QUEBEC INTL A","7016293","2020-02-24 15:00","2020","02","24","15:00","","5.4","","-2.0","","59","","","","25","","26","","24.1","","100.08","","","","","","NA"
"-71.39","46.79","QUEBEC INTL A","7016293","2020-02-24 16:00","2020","02","24","16:00","","5.1","","-1.8","","61","","","","25","","22","","40.2","","100.11","","","","","","Mainly Clear"
"-71.39","46.79","QUEBEC INTL A","7016293","2020-02-24 17:00","2020","02","24","17:00","","5.0","","-1.9","","61","","","","25","","17","","40.2","","100.17","","","","","","NA"
"-71.39","46.79","QUEBEC INTL A","7016293","2020-02-24 18:00","2020","02","24","18:00","","4.4","","-2.0","","63","","","","25","","13","","24.1","","100.27","","","","","","NA"
"-71.39","46.79","QUEBEC INTL A","7016293","2020-02-24 19:00","2020","02","24","19:00","","1.7","","-2.6","","73","","","","25","","8","","24.1","","100.31","","","","","","Clear"
"-71.39","46.79","QUEBEC INTL A","7016293","2020-02-24 20:00","2020","02","24","20:00","","2.9","","-2.5","","68","","","","25","","13","","24.1","","100.31","","","","","","NA"
"-71.39","46.79","QUEBEC INTL A","7016293","2020-02-24 21:00","2020","02","24","21:00","","0.4","","-3.3","","76","","","","19","","12","","24.1","","100.39","","","","","","NA"
"-71.39","46.79","QUEBEC INTL A","7016293","2020-02-24 22:00","2020","02","24","22:00","","-1.4","","-4.5","","79","","","","30","","5","","24.1","","100.43","","","","-3","","Clear"
"-71.39","46.79","QUEBEC INTL A","7016293","2020-02-24 23:00","2020","02","24","23:00","","-2.1","","-3.8","","88","","","","26","","7","","24.1","","100.44","","","","-5","","NA"
"-71.39","46.79","QUEBEC INTL A","7016293","2020-02-25 00:00","2020","02","25","00:00","","-1.4","","-3.7","","84","","","","11","","5","","24.1","","100.47","","","","-3","","NA"
"-71.39","46.79","QUEBEC INTL A","7016293","2020-02-25 01:00","2020","02","25","01:00","","-3.5","","-4.9","","90","","","","34","","7","","24.1","","100.48","","","","-6","","Mostly Cloudy"
"-71.39","46.79","QUEBEC INTL A","7016293","2020-02-25 02:00","2020","02","25","02:00","","-4.3","","-5.7","","90","","","","33","","5","","24.1","","100.48","","","","-6","","NA"
"-71.39","46.79","QUEBEC INTL A","7016293","2020-02-25 03:00","2020","02","25","03:00","","-4.4","","-5.2","","94","","","","15","","3","","24.1","","100.48","","","","-6","","NA"
"-71.39","46.79","QUEBEC INTL A","7016293","2020-02-25 04:00","2020","02","25","04:00","","-4.9","","-5.5","","96","","","","","","0","","24.1","","100.50","","","","","","Mainly Clear"
"-71.39","46.79","QUEBEC INTL A","7016293","2020-02-25 05:00","2020","02","25","05:00","","-5.8","","-6.5","","94","","","","27","","4","","24.1","","100.51","","","","-8","","NA"
"-71.39","46.79","QUEBEC INTL A","7016293","2020-02-25 06:00","2020","02","25","06:00","","-5.9","","-6.7","","94","","","","19","","4","","40.2","","100.55","","","","-8","","NA"
"-71.39","46.79","QUEBEC INTL A","7016293","2020-02-25 07:00","2020","02","25","07:00","","-7.4","","-8.4","","93","","","","","","0","","48.3","","100.60","","","","","","Mainly Clear"
"-71.39","46.79","QUEBEC INTL A","7016293","2020-02-25 08:00","2020","02","25","08:00","","-7.1","","-8.2","","92","","","","","","0","","48.3","","100.64","","","","","","NA"
"-71.39","46.79","QUEBEC INTL A","7016293","2020-02-25 09:00","2020","02","25","09:00","","-2.3","","-3.0","","96","","","","26","","3","","48.3","","100.64","","","","-3","","NA"
"-71.39","46.79","QUEBEC INTL A","7016293","2020-02-25 10:00","2020","02","25","10:00","","1.1","","-2.8","","75","","","","","","0","","48.3","","100.63","","","","","","Cloudy"
"-71.39","46.79","QUEBEC INTL A","7016293","2020-02-25 11:00","2020","02","25","11:00","","2.1","","-2.1","","74","","","","26","","3","","48.3","","100.64","","","","","","NA"
"-71.39","46.79","QUEBEC INTL A","7016293","2020-02-25 12:00","2020","02","25","12:00","","2.4","","-2.4","","70","","","","27","","5","","48.3","","100.61","","","","","","NA"
"-71.39","46.79","QUEBEC INTL A","7016293","2020-02-25 13:00","2020","02","25","13:00","","3.5","","-3.2","","61","","","","","","0","","48.3","","100.56","","","","","","Mostly Cloudy"
"-71.39","46.79","QUEBEC INTL A","7016293","2020-02-25 14:00","2020","02","25","14:00","","3.8","","-3.3","","60","","","","","","0","","48.3","","100.50","","","","","","NA"
"-71.39","46.79","QUEBEC INTL A","7016293","2020-02-25 15:00","2020","02","25","15:00","","4.2","","-3.4","","58","","","","","","0","","32.2","","100.52","","","","","","NA"
"-71.39","46.79","QUEBEC INTL A","7016293","2020-02-25 16:00","2020","02","25","16:00","","4.0","","-3.1","","60","","","","24","","7","","32.2","","100.53","","","","","","Mostly Cloudy"
"-71.39","46.79","QUEBEC INTL A","7016293","2020-02-25 17:00","2020","02","25","17:00","","3.8","","-3.8","","57","","","","17","","6","","32.2","","100.56","","","","","","NA"
"-71.39","46.79","QUEBEC INTL A","7016293","2020-02-25 18:00","2020","02","25","18:00","","1.1","","-3.2","","73","","","","7","","14","","19.3","","100.61","","","","","","NA"
"-71.39","46.79","QUEBEC INTL A","7016293","2020-02-25 19:00","2020","02","25","19:00","","0.1","","-3.6","","76","","","","7","","15","","19.3","","100.67","","","","","","Mainly Clear"
"-71.39","46.79","QUEBEC INTL A","7016293","2020-02-25 20:00","2020","02","25","20:00","","-1.3","","-4.0","","82","","","","4","","5","","24.1","","100.72","","","","-3","","NA"
"-71.39","46.79","QUEBEC INTL A","7016293","2020-02-25 21:00","2020","02","25","21:00","","-3.6","","-5.9","","84","","","","34","","3","","24.1","","100.74","","","","-5","","NA"
"-71.39","46.79","QUEBEC INTL A","7016293","2020-02-25 22:00","2020","02","25","22:00","","-0.6","","-5.5","","70","","","","3","","10","","24.1","","100.81","","","","-4","","Mainly Clear"
"-71.39","46.79","QUEBEC INTL A","7016293","2020-02-25 23:00","2020","02","25","23:00","","-1.4","","-6.8","","67","","","","36","","9","","24.1","","100.81","","","","-5","","NA"
"-71.39","46.79","QUEBEC INTL A","7016293","2020-02-26 00:00","2020","02","26","00:00","","-1.6","","-8.0","","62","","","","3","","8","","24.1","","100.82","","","","-5","","NA"
"-71.39","46.79","QUEBEC INTL A","7016293","2020-02-26 01:00","2020","02","26","01:00","","-3.0","","-8.4","","66","","","","1","","7","","24.1","","100.86","","","","-6","","Mostly Cloudy"
"-71.39","46.79","QUEBEC INTL A","7016293","2020-02-26 02:00","2020","02","26","02:00","","-3.2","","-8.8","","66","","","","36","","9","","24.1","","100.91","","","","-7","","NA"
"-71.39","46.79","QUEBEC INTL A","7016293","2020-02-26 03:00","2020","02","26","03:00","","-3.5","","-9.2","","65","","","","1","","8","","24.1","","100.94","","","","-7","","NA"
"-71.39","46.79","QUEBEC INTL A","7016293","2020-02-26 04:00","2020","02","26","04:00","","-4.4","","-9.8","","66","","","","1","","9","","24.1","","100.97","","","","-8","","Mainly Clear"
"-71.39","46.79","QUEBEC INTL A","7016293","2020-02-26 05:00","2020","02","26","05:00","","-5.1","","-10.2","","68","","","","1","","11","","24.1","","101.00","","","","-10","","NA"
"-71.39","46.79","QUEBEC INTL A","7016293","2020-02-26 06:00","2020","02","26","06:00","","-5.3","","-10.4","","68","","","","36","","12","","24.1","","101.05","","","","-10","","NA"
"-71.39","46.79","QUEBEC INTL A","7016293","2020-02-26 07:00","2020","02","26","07:00","","-5.5","","-10.6","","68","","","","1","","9","","24.1","","101.10","","","","-10","","Mostly Cloudy"
"-71.39","46.79","QUEBEC INTL A","7016293","2020-02-26 08:00","2020","02","26","08:00","","-5.8","","-10.2","","72","","","","3","","7","","24.1","","101.16","","","","-9","","NA"
"-71.39","46.79","QUEBEC INTL A","7016293","2020-02-26 09:00","2020","02","26","09:00","","-3.3","","-8.2","","69","","","","7","","7","","24.1","","101.20","","","","-6","","NA"
"-71.39","46.79","QUEBEC INTL A","7016293","2020-02-26 10:00","2020","02","26","10:00","","-1.7","","-6.4","","70","","","","6","","23","","24.1","","101.21","","","","-8","","Mostly Cloudy"
"-71.39","46.79","QUEBEC INTL A","7016293","2020-02-26 11:00","2020","02","26","11:00","","-1.1","","-5.9","","70","","","","7","","18","","24.1","","101.13","","","","-6","","NA"
"-71.39","46.79","QUEBEC INTL A","7016293","2020-02-26 12:00","2020","02","26","12:00","","-0.6","","-5.9","","68","","","","8","","15","","24.1","","101.10","","","","-5","","NA"
"-71.39","46.79","QUEBEC INTL A","7016293","2020-02-26 13:00","2020","02","26","13:00","","0.2","","-5.6","","65","","","","7","","17","","24.1","","101.02","","","","","","Mostly Cloudy"
"-71.39","46.79","QUEBEC INTL A","7016293","2020-02-26 14:00","2020","02","26","14:00","","0.4","","-5.6","","65","","","","8","","22","","24.1","","100.99","","","","","","NA"
"-71.39","46.79","QUEBEC INTL A","7016293","2020-02-26 15:00","2020","02","26","15:00","","-0.2","","-5.8","","66","","","","7","","28","","48.3","","100.96","","","","-7","","NA"
"-71.39","46.79","QUEBEC INTL A","7016293","2020-02-26 16:00","2020","02","26","16:00","","-0.7","","-4.8","","74","","","","9","","16","","48.3","","100.94","","","","-5","","Mostly Cloudy"
"-71.39","46.79","QUEBEC INTL A","7016293","2020-02-26 17:00","2020","02","26","17:00","","-1.1","","-5.9","","70","","","","7","","19","","48.3","","100.95","","","","-6","","NA"
"-71.39","46.79","QUEBEC INTL A","7016293","2020-02-26 18:00","2020","02","26","18:00","","-1.6","","-6.6","","69","","","","7","","37","","24.1","","100.91","","","","-9","","NA"
"-71.39","46.79","QUEBEC INTL A","7016293","2020-02-26 19:00","2020","02","26","19:00","","-1.4","","-5.8","","72","","","","7","","32","","24.1","","100.92","","","","-9","","Cloudy"
"-71.39","46.79","QUEBEC INTL A","7016293","2020-02-26 20:00","2020","02","26","20:00","","-1.1","","-5.8","","70","","","","7","","36","","24.1","","100.85","","","","-9","","NA"
"-71.39","46.79","QUEBEC INTL A","7016293","2020-02-26 21:00","2020","02","26","21:00","","-0.8","","-5.9","","68","","","","7","","35","","16.1","","100.83","","","","-8","","Snow"
"-71.39","46.79","QUEBEC INTL A","7016293","2020-02-26 22:00","2020","02","26","22:00","","-0.9","","-5.3","","73","","","","7","","41","","12.9","","100.76","","","","-9","","Snow"
"-71.39","46.79","QUEBEC INTL A","7016293","2020-02-26 23:00","2020","02","26","23:00","","-0.8","","-5.0","","73","","","","7","","35","","24.1","","100.64","","","","-8","","NA"
"-71.39","46.79","QUEBEC INTL A","7016293","2020-02-27 00:00","2020","02","27","00:00","","-0.7","","-4.8","","74","","","","7","","38","","24.1","","100.61","","","","-8","","NA"
"-71.39","46.79","QUEBEC INTL A","7016293","2020-02-27 01:00","2020","02","27","01:00","","-0.6","","-4.8","","73","","","","7","","39","","24.1","","100.48","","","","-8","","Cloudy"
"-71.39","46.79","QUEBEC INTL A","7016293","2020-02-27 02:00","2020","02","27","02:00","","-0.6","","-5.1","","72","","","","7","","44","","24.1","","100.34","","","","-9","","NA"
"-71.39","46.79","QUEBEC INTL A","7016293","2020-02-27 03:00","2020","02","27","03:00","","-0.4","","-5.5","","68","","","","7","","38","","24.1","","100.19","","","","-8","","NA"
"-71.39","46.79","QUEBEC INTL A","7016293","2020-02-27 04:00","2020","02","27","04:00","","-0.5","","-5.4","","69","","","","7","","44","","24.1","","99.98","","","","-8","","Cloudy"
"-71.39","46.79","QUEBEC INTL A","7016293","2020-02-27 05:00","2020","02","27","05:00","","-0.4","","-5.2","","70","","","","7","","51","","24.1","","99.81","","","","-9","","NA"
"-71.39","46.79","QUEBEC INTL A","7016293","2020-02-27 06:00","2020","02","27","06:00","","-1.0","","-4.9","","75","","","","7","","52","","24.1","","99.82","","","","-10","","NA"
"-71.39","46.79","QUEBEC INTL A","7016293","2020-02-27 07:00","2020","02","27","07:00","","-1.0","","-4.6","","77","","","","6","","58","","24.1","","99.54","","","","-10","","Blowing Snow"
"-71.39","46.79","QUEBEC INTL A","7016293","2020-02-27 08:00","2020","02","27","08:00","","-1.0","","-4.3","","78","","","","6","","56","","24.1","","99.46","","","","-10","","Blowing Snow"
"-71.39","46.79","QUEBEC INTL A","7016293","2020-02-27 09:00","2020","02","27","09:00","","-1.7","","-2.9","","92","","","","7","","52","","0.8","","99.31","","","","-11","","Moderate Snow,Blowing Snow"
"-71.39","46.79","QUEBEC INTL A","7016293","2020-02-27 10:00","2020","02","27","10:00","","-1.9","","-2.8","","94","","","","7","","61","","0.4","","98.99","","","","-11","","Moderate Snow,Blowing Snow"
"-71.39","46.79","QUEBEC INTL A","7016293","2020-02-27 11:00","2020","02","27","11:00","","-1.8","","-2.8","","93","","","","7","","59","","0.4","","98.65","","","","-11","","Moderate Snow,Blowing Snow"
"-71.39","46.79","QUEBEC INTL A","7016293","2020-02-27 12:00","2020","02","27","12:00","","-2.2","","-3.5","","91","","","","7","","62","","0.8","","98.44","","","","-12","","Snow,Blowing Snow"
"-71.39","46.79","QUEBEC INTL A","7016293","2020-02-27 13:00","2020","02","27","13:00","","-3.0","","-4.0","","93","","","","7","","59","","0.4","","98.15","","","","-13","","Moderate Snow,Blowing Snow"
"-71.39","46.79","QUEBEC INTL A","7016293","2020-02-27 14:00","2020","02","27","14:00","","-3.5","","-4.7","","92","","","","7","","57","","0.2","","98.31","","","","-13","","Moderate Snow,Blowing Snow"
"-71.39","46.79","QUEBEC INTL A","7016293","2020-02-27 15:00","2020","02","27","15:00","","-4.0","","-5.2","","91","","","","6","","52","","0.4","","98.36","","","","-14","","Moderate Snow,Blowing Snow"
"-71.39","46.79","QUEBEC INTL A","7016293","2020-02-27 16:00","2020","02","27","16:00","","-4.2","","-5.5","","91","","","","6","","45","","1.2","","98.39","","","","-13","","Snow,Blowing Snow"
"-71.39","46.79","QUEBEC INTL A","7016293","2020-02-27 17:00","2020","02","27","17:00","","-4.7","","-6.0","","90","","","","6","","41","","0.6","","98.36","","","","-14","","Moderate Snow,Blowing Snow"
"-71.39","46.79","QUEBEC INTL A","7016293","2020-02-27 18:00","2020","02","27","18:00","","-5.0","","-6.4","","90","","","","7","","40","","1.6","","98.33","","","","-14","","Snow,Blowing Snow"
"-71.39","46.79","QUEBEC INTL A","7016293","2020-02-27 19:00","2020","02","27","19:00","","-5.1","","-7.0","","87","","","","8","","27","","6.4","","98.39","","","","-13","","Snow,Blowing Snow"
"-71.39","46.79","QUEBEC INTL A","7016293","2020-02-27 20:00","2020","02","27","20:00","","-5.0","","-7.8","","80","","","","9","","23","","8.1","","98.44","","","","-12","","Snow,Blowing Snow"
"-71.39","46.79","QUEBEC INTL A","7016293","2020-02-27 21:00","2020","02","27","21:00","","-5.2","","-6.7","","90","","","","12","","19","","0.6","","98.52","","","","-12","","Moderate Snow"
"-71.39","46.79","QUEBEC INTL A","7016293","2020-02-27 22:00","2020","02","27","22:00","","-5.4","","-6.9","","89","","","","18","","17","","1.2","","98.55","","","","-11","","Snow"
"-71.39","46.79","QUEBEC INTL A","7016293","2020-02-27 23:00","2020","02","27","23:00","","-5.9","","-8.4","","82","","","","20","","14","","8.1","","98.52","","","","-11","","Snow"
"-71.39","46.79","QUEBEC INTL A","7016293","2020-02-28 00:00","2020","02","28","00:00","","-6.5","","-8.3","","87","","","","19","","16","","3.2","","98.49","","","","-13","","Snow"
"-71.39","46.79","QUEBEC INTL A","7016293","2020-02-28 01:00","2020","02","28","01:00","","-7.3","","-10.6","","77","","","","24","","27","","4.8","","98.51","","","","-16","","Snow"
"-71.39","46.79","QUEBEC INTL A","7016293","2020-02-28 02:00","2020","02","28","02:00","","-7.8","","-11.7","","74","","","","24","","27","","8.1","","98.56","","","","-16","","Snow,Blowing Snow"
"-71.39","46.79","QUEBEC INTL A","7016293","2020-02-28 03:00","2020","02","28","03:00","","-8.4","","-12.2","","75","","","","24","","27","","8.1","","98.60","","","","-17","","Snow,Blowing Snow"
"-71.39","46.79","QUEBEC INTL A","7016293","2020-02-28 04:00","2020","02","28","04:00","","-9.3","","-11.4","","85","","","","25","","30","","2.4","","98.66","","","","-19","","Snow,Blowing Snow"
"-71.39","46.79","QUEBEC INTL A","7016293","2020-02-28 05:00","2020","02","28","05:00","","-10.1","","-13.3","","77","","","","24","","22","","12.9","","98.68","","","","-18","","Snow"
"-71.39","46.79","QUEBEC INTL A","7016293","2020-02-28 06:00","2020","02","28","06:00","","-10.8","","-13.8","","79","","","","24","","14","","12.9","","98.75","","","","-17","","Snow"
"-71.39","46.79","QUEBEC INTL A","7016293","2020-02-28 07:00","2020","02","28","07:00","","-10.6","","-12.6","","85","","","","26","","15","","1.6","","98.80","","","","-17","","Snow"
"-71.39","46.79","QUEBEC INTL A","7016293","2020-02-28 08:00","2020","02","28","08:00","","-9.8","","-13.1","","77","","","","24","","23","","19.3","","98.84","","","","-18","","Snow"
"-71.39","46.79","QUEBEC INTL A","7016293","2020-02-28 09:00","2020","02","28","09:00","","-10.0","","-13.7","","75","","","","24","","31","","8.1","","98.90","","","","-20","","Snow"
"-71.39","46.79","QUEBEC INTL A","7016293","2020-02-28 10:00","2020","02","28","10:00","","-9.8","","-13.0","","78","","","","23","","23","","4.8","","98.96","","","","-18","","Snow"
"-71.39","46.79","QUEBEC INTL A","7016293","2020-02-28 11:00","2020","02","28","11:00","","-9.1","","-13.4","","71","","","","23","","34","","8.1","","99.05","","","","-19","","Snow"
"-71.39","46.79","QUEBEC INTL A","7016293","2020-02-28 12:00","2020","02","28","12:00","","-9.6","","-14.3","","69","","","","24","","32","","16.1","","99.10","","","","-19","","Snow"
"-71.39","46.79","QUEBEC INTL A","7016293","2020-02-28 13:00","2020","02","28","13:00","","-9.2","","-14.6","","65","","","","25","","24","","19.3","","99.13","","","","-18","","Mostly Cloudy"
"-71.39","46.79","QUEBEC INTL A","7016293","2020-02-28 14:00","2020","02","28","14:00","","-9.2","","-15.1","","62","","","","24","","23","","24.1","","99.18","","","","-17","","NA"
"-71.39","46.79","QUEBEC INTL A","7016293","2020-02-28 15:00","2020","02","28","15:00","","-9.0","","-14.6","","64","","","","22","","26","","24.1","","99.24","","","","-18","","Snow Showers"
"-71.39","46.79","QUEBEC INTL A","7016293","2020-02-28 16:00","2020","02","28","16:00","","-9.4","","-14.9","","65","","","","24","","26","","24.1","","99.32","","","","-18","","Snow Showers"
"-71.39","46.79","QUEBEC INTL A","7016293","2020-02-28 17:00","2020","02","28","17:00","","-10.2","","-14.7","","70","","","","25","","20","","24.1","","99.39","","","","-18","","Snow Showers"
"-71.39","46.79","QUEBEC INTL A","7016293","2020-02-28 18:00","2020","02","28","18:00","","-10.3","","-14.2","","74","","","","24","","19","","16.1","","99.48","","","","-18","","Snow Showers"
"-71.39","46.79","QUEBEC INTL A","7016293","2020-02-28 19:00","2020","02","28","19:00","","-11.0","","-14.3","","77","","","","24","","13","","19.3","","99.55","","","","-17","","Snow Showers"
"-71.39","46.79","QUEBEC INTL A","7016293","2020-02-28 20:00","2020","02","28","20:00","","-11.2","","-13.9","","80","","","","24","","9","","19.3","","99.58","","","","-16","","Snow Showers"
"-71.39","46.79","QUEBEC INTL A","7016293","2020-02-28 21:00","2020","02","28","21:00","","-11.0","","-13.6","","82","","","","25","","12","","16.1","","99.62","","","","-17","","Snow Showers"
"-71.39","46.79","QUEBEC INTL A","7016293","2020-02-28 22:00","2020","02","28","22:00","","-13.0","","-15.3","","83","","","","25","","9","","11.3","","99.62","","","","-18","","Snow"
"-71.39","46.79","QUEBEC INTL A","7016293","2020-02-28 23:00","2020","02","28","23:00","","-13.7","","-15.4","","88","","","","26","","7","","24.1","","99.61","","","","-18","","Snow"
"-71.39","46.79","QUEBEC INTL A","7016293","2020-02-29 00:00","2020","02","29","00:00","","-13.2","","-14.8","","88","","","","24","","9","","9.7","","99.61","","","","-19","","Snow"
"-71.39","46.79","QUEBEC INTL A","7016293","2020-02-29 01:00","2020","02","29","01:00","","-14.3","","-15.9","","88","","","","25","","8","","16.1","","99.60","","","","-20","","Snow"
"-71.39","46.79","QUEBEC INTL A","7016293","2020-02-29 02:00","2020","02","29","02:00","","-14.6","","-16.4","","86","","","","25","","8","","12.9","","99.59","","","","-20","","Snow"
"-71.39","46.79","QUEBEC INTL A","7016293","2020-02-29 03:00","2020","02","29","03:00","","-14.6","","-16.4","","87","","","","3","","6","","11.3","","99.61","","","","-19","","Snow"
"-71.39","46.79","QUEBEC INTL A","7016293","2020-02-29 04:00","2020","02","29","04:00","","-15.2","","-17.1","","85","","","","35","","4","","11.3","","99.61","","","","-18","","Snow"
"-71.39","46.79","QUEBEC INTL A","7016293","2020-02-29 05:00","2020","02","29","05:00","","-15.9","","-18.1","","84","","","","","","0","","11.3","","99.65","","","","","","Snow"
"-71.39","46.79","QUEBEC INTL A","7016293","2020-02-29 06:00","2020","02","29","06:00","","-15.9","","-17.7","","86","","","","25","","12","","12.9","","99.66","","","","-23","","Snow"
"-71.39","46.79","QUEBEC INTL A","7016293","2020-02-29 07:00","2020","02","29","07:00","","-18.0","","-20.1","","84","","","","34","","3","","32.2","","99.72","","","","-20","","Mostly Cloudy"
"-71.39","46.79","QUEBEC INTL A","7016293","2020-02-29 08:00","2020","02","29","08:00","","-16.3","","-18.0","","87","","","","","","0","","32.2","","99.76","","","","","","NA"
"-71.39","46.79","QUEBEC INTL A","7016293","2020-02-29 09:00","2020","02","29","09:00","","-13.5","","-16.4","","79","","","","25","","13","","24.1","","99.82","","","","-20","","Snow"
"-71.39","46.79","QUEBEC INTL A","7016293","2020-02-29 10:00","2020","02","29","10:00","","-11.5","","-14.9","","76","","","","22","","13","","32.2","","99.85","","","","-18","","Snow"
"-71.39","46.79","QUEBEC INTL A","7016293","2020-02-29 11:00","2020","02","29","11:00","","-10.8","","-14.7","","73","","","","22","","16","","32.2","","99.87","","","","-18","","NA"
"-71.39","46.79","QUEBEC INTL A","7016293","2020-02-29 12:00","2020","02","29","12:00","","-9.7","","-14.8","","67","","","","22","","22","","32.2","","99.88","","","","-18","","Snow"
"-71.39","46.79","QUEBEC INTL A","7016293","2020-02-29 13:00","2020","02","29","13:00","","-9.2","","-14.1","","68","","","","22","","23","","24.1","","99.86","","","","-17","","Snow"
"-71.39","46.79","QUEBEC INTL A","7016293","2020-02-29 14:00","2020","02","29","14:00","","-8.3","","-13.8","","65","","","","22","","23","","32.2","","99.88","","","","-16","","NA"
"-71.39","46.79","QUEBEC INTL A","7016293","2020-02-29 15:00","2020","02","29","15:00","","-8.5","","-14.1","","65","","","","22","","24","","32.2","","99.95","","","","-17","","NA"
"-71.39","46.79","QUEBEC INTL A","7016293","2020-02-29 16:00","2020","02","29","16:00","","-8.7","","-13.4","","69","","","","23","","23","","32.2","","99.99","","","","-17","","Cloudy"
"-71.39","46.79","QUEBEC INTL A","7016293","2020-02-29 17:00","2020","02","29","17:00","","-9.2","","-13.7","","70","","","","23","","21","","32.2","","100.05","","","","-17","","NA"
"-71.39","46.79","QUEBEC INTL A","7016293","2020-02-29 18:00","2020","02","29","18:00","","-9.8","","-12.8","","79","","","","24","","21","","19.3","","100.13","","","","-18","","NA"
"-71.39","46.79","QUEBEC INTL A","7016293","2020-02-29 19:00","2020","02","29","19:00","","-10.6","","-12.9","","83","","","","24","","22","","19.3","","100.17","","","","-19","","Mainly Clear"
"-71.39","46.79","QUEBEC INTL A","7016293","2020-02-29 20:00","2020","02","29","20:00","","-10.4","","-12.7","","83","","","","25","","21","","11.3","","100.21","","","","-19","","Snow"
"-71.39","46.79","QUEBEC INTL A","7016293","2020-02-29 21:00","2020","02","29","21:00","","-10.5","","-12.6","","85","","","","24","","21","","11.3","","100.26","","","","-19","","Snow"
"-71.39","46.79","QUEBEC INTL A","7016293","2020-02-29 22:00","2020","02","29","22:00","","-10.7","","-12.7","","85","","","","24","","17","","9.7","","100.27","","","","-18","","Snow"
"-71.39","46.79","QUEBEC INTL A","7016293","2020-02-29 23:00","2020","02","29","23:00","","-11.0","","-12.9","","86","","","","24","","15","","16.1","","100.28","","","","-18","","Snow"
