"Longitude (x)","Latitude (y)","Station Name","Climate ID","Date/Time (LST)","Year","Month","Day","Time (LST)","Flag","Temp (°C)","Temp Flag","Dew Point Temp (°C)","Dew Point Temp Flag","Rel Hum (%)","Rel Hum Flag","Precip. Amount (mm)","Precip. Amount Flag","Wind Dir (10s deg)","Wind Dir Flag","Wind Spd (km/h)","Wind Spd Flag","Visibility (km)","Visibility Flag","Stn Press (kPa)","Stn Press Flag","Hmdx","Hmdx Flag","Wind Chill","Wind Chill Flag","Weather"
"-71.39","46.79","QUEBEC INTL A","7016293","2022-01-01 00:00","2022","01","01","00:00","","-2.2","","-3.0","","94","","","","6","","8","","11.3","","100.33","","","","-5","","NA"
"-71.39","46.79","QUEBEC INTL A","7016293","2022-01-01 01:00","2022","01","01","01:00","","-2.1","","-2.8","","95","","","","2","","3","","8.1","","100.33","","","","-3","","Snow,Fog"
"-71.39","46.79","QUEBEC INTL A","7016293","2022-01-01 02:00","2022","01","01","02:00","","-2.2","","-2.5","","98","","","","35","","4","","4.8","","100.35","","","","-4","","Snow,Fog"
"-71.39","46.79","QUEBEC INTL A","7016293","2022-01-01 03:00","2022","01","01","03:00","","-2.2","","-2.4","","99","","","","2","","5","","2.4","","100.31","","","","-4","","Snow,Fog"
"-71.39","46.79","QUEBEC INTL A","7016293","2022-01-01 04:00","2022","01","01","04:00","","-2.1","","-2.2","","99","","","","3","","5","","1.2","","100.25","","","","-4","","Snow,Fog"
"-71.39","46.79","QUEBEC INTL A","7016293","2022-01-01 05:00","2022","01","01","05:00","","-1.9","","-2.0","","99","","","","6","","6","","0.4","","100.19","","","","-4","","Heavy Snow"
"-71.39","46.79","QUEBEC INTL A","7016293","2022-01-01 06:00","2022","01","01","06:00","","-1.8","","-1.9","","99","","","","36","","3","","0.4","","100.20","","","","-3","","Snow,Freezing Fog"
"-71.39","46.79","QUEBEC INTL A","7016293","2022-01-01 07:00","2022","01","01","07:00","","-1.5","","-1.6","","100","","","","4","","4","","0.4","","100.09","","","","-3","","Snow,Freezing Fog"
"-71.39","46.79","QUEBEC INTL A","7016293","2022-01-01 08:00","2022","01","01","08:00","","-1.2","","-1.3","","100","","","","35","","7","","0.4","","100.07","","","","-4","","Freezing Fog"
"-71.39","46.79","QUEBEC INTL A","7016293","2022-01-01 09:00","2022","01","01","09:00","","-0.4","","-0.5","","99","","","","6","","7","","1.2","","99.91","","","","-3","","Fog"
"-71.39","46.79","QUEBEC INTL A","7016293","2022-01-01 10:00","2022","01","01","10:00","","0.8","","0.4","","96","","","","2","","6","","12.9","","99.90","","","","","","Cloudy"
"-71.39","46.79","QUEBEC INTL A","7016293","2022-01-01 11:00","2022","01","01","11:00","","1.4","","0.7","","95","","","","35","","8","","12.9","","99.90","","","","","","Rain"
"-71.39","46.79","QUEBEC INTL A","7016293","2022-01-01 12:00","2022","01","01","12:00","","1.5","","1.0","","96","","","","4","","5","","12.9","","99.76","","","","","","Rain"
"-71.39","46.79","QUEBEC INTL A","7016293","2022-01-01 13:00","2022","01","01","13:00","","0.8","","0.6","","99","","","","5","","5","","9.7","","99.67","","","","","","Rain,Fog"
"-71.39","46.79","QUEBEC INTL A","7016293","2022-01-01 14:00","2022","01","01","14:00","","1.0","","0.7","","98","","","","4","","9","","4.8","","99.71","","","","","","Rain,Fog"
"-71.39","46.79","QUEBEC INTL A","7016293","2022-01-01 15:00","2022","01","01","15:00","","0.6","","0.5","","99","","","","","","0","","1.0","","99.66","","","","","","Drizzle,Fog"
"-71.39","46.79","QUEBEC INTL A","7016293","2022-01-01 16:00","2022","01","01","16:00","","1.0","","0.9","","99","","","","26","","4","","2.8","","99.73","","","","","","Drizzle,Fog"
"-71.39","46.79","QUEBEC INTL A","7016293","2022-01-01 17:00","2022","01","01","17:00","","0.9","","0.8","","100","","","","22","","12","","0.8","","99.71","","","","","","Fog"
"-71.39","46.79","QUEBEC INTL A","7016293","2022-01-01 18:00","2022","01","01","18:00","","0.8","","0.8","","100","","","","23","","13","","2.4","","99.68","","","","","","Fog"
"-71.39","46.79","QUEBEC INTL A","7016293","2022-01-01 19:00","2022","01","01","19:00","","1.3","","1.2","","99","","","","24","","15","","4.8","","99.75","","","","","","Fog"
"-71.39","46.79","QUEBEC INTL A","7016293","2022-01-01 20:00","2022","01","01","20:00","","1.2","","0.8","","97","","","","24","","12","","9.7","","99.81","","","","","","Fog"
"-71.39","46.79","QUEBEC INTL A","7016293","2022-01-01 21:00","2022","01","01","21:00","","1.5","","0.1","","90","","","","29","","5","","24.1","","99.76","","","","","","NA"
"-71.39","46.79","QUEBEC INTL A","7016293","2022-01-01 22:00","2022","01","01","22:00","","1.0","","-1.7","","82","","","","1","","12","","24.1","","99.77","","","","","","Cloudy"
"-71.39","46.79","QUEBEC INTL A","7016293","2022-01-01 23:00","2022","01","01","23:00","","0.9","","-0.7","","89","","","","4","","10","","19.3","","99.81","","","","","","NA"
"-71.39","46.79","QUEBEC INTL A","7016293","2022-01-02 00:00","2022","01","02","00:00","","0.1","","-2.8","","81","","","","7","","14","","24.1","","99.86","","","","","","NA"
"-71.39","46.79","QUEBEC INTL A","7016293","2022-01-02 01:00","2022","01","02","01:00","","-0.4","","-3.7","","78","","","","7","","16","","24.1","","99.84","","","","-5","","Cloudy"
"-71.39","46.79","QUEBEC INTL A","7016293","2022-01-02 02:00","2022","01","02","02:00","","-0.9","","-4.8","","75","","","","7","","19","","24.1","","99.83","","","","-6","","NA"
"-71.39","46.79","QUEBEC INTL A","7016293","2022-01-02 03:00","2022","01","02","03:00","","-1.8","","-5.5","","75","","","","6","","21","","24.1","","99.88","","","","-8","","NA"
"-71.39","46.79","QUEBEC INTL A","7016293","2022-01-02 04:00","2022","01","02","04:00","","-3.0","","-5.7","","82","","","","7","","18","","4.8","","99.88","","","","-9","","Snow,Fog"
"-71.39","46.79","QUEBEC INTL A","7016293","2022-01-02 05:00","2022","01","02","05:00","","-4.1","","-5.2","","92","","","","8","","12","","3.2","","99.90","","","","-9","","Snow,Fog"
"-71.39","46.79","QUEBEC INTL A","7016293","2022-01-02 06:00","2022","01","02","06:00","","-4.9","","-6.0","","92","","","","8","","20","","2.0","","99.88","","","","-11","","Snow,Fog"
"-71.39","46.79","QUEBEC INTL A","7016293","2022-01-02 07:00","2022","01","02","07:00","","-6.1","","-7.6","","89","","","","8","","28","","2.0","","99.90","","","","-14","","Snow"
"-71.39","46.79","QUEBEC INTL A","7016293","2022-01-02 08:00","2022","01","02","08:00","","-7.2","","-8.8","","88","","","","7","","23","","1.6","","99.94","","","","-15","","Snow"
"-71.39","46.79","QUEBEC INTL A","7016293","2022-01-02 09:00","2022","01","02","09:00","","-7.4","","-9.1","","88","","","","7","","28","","1.2","","100.00","","","","-16","","Snow"
"-71.39","46.79","QUEBEC INTL A","7016293","2022-01-02 10:00","2022","01","02","10:00","","-7.5","","-9.3","","87","","","","8","","25","","1.2","","100.02","","","","-16","","Snow"
"-71.39","46.79","QUEBEC INTL A","7016293","2022-01-02 11:00","2022","01","02","11:00","","-8.0","","-9.6","","89","","","","9","","17","","1.2","","99.99","","","","-15","","Snow"
"-71.39","46.79","QUEBEC INTL A","7016293","2022-01-02 12:00","2022","01","02","12:00","","-8.2","","-10.2","","85","","","","10","","15","","2.4","","99.92","","","","-15","","Snow"
"-71.39","46.79","QUEBEC INTL A","7016293","2022-01-02 13:00","2022","01","02","13:00","","-8.2","","-10.5","","84","","","","9","","13","","9.7","","99.96","","","","-14","","Snow"
"-71.39","46.79","QUEBEC INTL A","7016293","2022-01-02 14:00","2022","01","02","14:00","","-8.1","","-10.7","","82","","","","11","","7","","32.2","","99.99","","","","-12","","Snow"
"-71.39","46.79","QUEBEC INTL A","7016293","2022-01-02 15:00","2022","01","02","15:00","","-7.9","","-10.7","","81","","","","16","","5","","48.3","","100.03","","","","-11","","NA"
"-71.39","46.79","QUEBEC INTL A","7016293","2022-01-02 16:00","2022","01","02","16:00","","-8.2","","-10.1","","86","","","","25","","9","","48.3","","100.18","","","","-13","","Cloudy"
"-71.39","46.79","QUEBEC INTL A","7016293","2022-01-02 17:00","2022","01","02","17:00","","-8.5","","-11.4","","80","","","","24","","12","","24.1","","100.22","","","","-14","","NA"
"-71.39","46.79","QUEBEC INTL A","7016293","2022-01-02 18:00","2022","01","02","18:00","","-9.0","","-11.7","","81","","","","23","","14","","24.1","","100.24","","","","-15","","NA"
"-71.39","46.79","QUEBEC INTL A","7016293","2022-01-02 19:00","2022","01","02","19:00","","-9.8","","-12.2","","83","","","","21","","15","","24.1","","100.36","","","","-16","","Cloudy"
"-71.39","46.79","QUEBEC INTL A","7016293","2022-01-02 20:00","2022","01","02","20:00","","-10.9","","-14.0","","78","","","","22","","17","","24.1","","100.46","","","","-18","","NA"
"-71.39","46.79","QUEBEC INTL A","7016293","2022-01-02 21:00","2022","01","02","21:00","","-12.1","","-16.0","","73","","","","23","","20","","24.1","","100.53","","","","-21","","NA"
"-71.39","46.79","QUEBEC INTL A","7016293","2022-01-02 22:00","2022","01","02","22:00","","-13.4","","-16.9","","75","","","","22","","13","","24.1","","100.61","","","","-20","","Snow"
"-71.39","46.79","QUEBEC INTL A","7016293","2022-01-02 23:00","2022","01","02","23:00","","-14.5","","-18.4","","72","","","","26","","4","","24.1","","100.72","","","","-17","","NA"
"-71.39","46.79","QUEBEC INTL A","7016293","2022-01-03 00:00","2022","01","03","00:00","","-14.3","","-20.3","","61","","","","30","","4","","24.1","","100.73","","","","-17","","NA"
"-71.39","46.79","QUEBEC INTL A","7016293","2022-01-03 01:00","2022","01","03","01:00","","-17.2","","-21.1","","72","","","","23","","22","","24.1","","100.87","","","","-27","","Mainly Clear"
"-71.39","46.79","QUEBEC INTL A","7016293","2022-01-03 02:00","2022","01","03","02:00","","-17.9","","-22.6","","67","","","","26","","13","","24.1","","101.01","","","","-26","","NA"
"-71.39","46.79","QUEBEC INTL A","7016293","2022-01-03 03:00","2022","01","03","03:00","","-19.1","","-23.1","","71","","","","25","","15","","24.1","","101.15","","","","-28","","NA"
"-71.39","46.79","QUEBEC INTL A","7016293","2022-01-03 04:00","2022","01","03","04:00","","-20.1","","-24.1","","71","","","","25","","9","","24.1","","101.18","","","","-27","","Clear"
"-71.39","46.79","QUEBEC INTL A","7016293","2022-01-03 05:00","2022","01","03","05:00","","-20.8","","-24.8","","71","","","","26","","16","","24.1","","101.27","","","","-30","","NA"
"-71.39","46.79","QUEBEC INTL A","7016293","2022-01-03 06:00","2022","01","03","06:00","","-19.8","","-24.5","","67","","","","24","","21","","24.1","","101.42","","","","-30","","NA"
"-71.39","46.79","QUEBEC INTL A","7016293","2022-01-03 07:00","2022","01","03","07:00","","-20.5","","-25.0","","68","","","","23","","21","","48.3","","101.50","","","","-31","","Clear"
"-71.39","46.79","QUEBEC INTL A","7016293","2022-01-03 08:00","2022","01","03","08:00","","-20.5","","-25.1","","67","","","","23","","11","","48.3","","101.56","","","","-28","","NA"
"-71.39","46.79","QUEBEC INTL A","7016293","2022-01-03 09:00","2022","01","03","09:00","","-19.4","","-24.5","","65","","","","23","","12","","48.3","","101.60","","","","-27","","NA"
"-71.39","46.79","QUEBEC INTL A","7016293","2022-01-03 10:00","2022","01","03","10:00","","-18.3","","-23.9","","62","","","","22","","16","","48.3","","101.63","","","","-27","","Clear"
"-71.39","46.79","QUEBEC INTL A","7016293","2022-01-03 11:00","2022","01","03","11:00","","-16.7","","-23.2","","58","","","","24","","17","","48.3","","101.59","","","","-26","","NA"
"-71.39","46.79","QUEBEC INTL A","7016293","2022-01-03 12:00","2022","01","03","12:00","","-16.0","","-22.5","","58","","","","23","","20","","48.3","","101.55","","","","-25","","NA"
"-71.39","46.79","QUEBEC INTL A","7016293","2022-01-03 13:00","2022","01","03","13:00","","-15.5","","-22.3","","57","","","","23","","18","","48.3","","101.57","","","","-24","","Mainly Clear"
"-71.39","46.79","QUEBEC INTL A","7016293","2022-01-03 14:00","2022","01","03","14:00","","-15.8","","-22.4","","58","","","","22","","26","","48.3","","101.57","","","","-26","","NA"
"-71.39","46.79","QUEBEC INTL A","7016293","2022-01-03 15:00","2022","01","03","15:00","","-15.9","","-21.6","","62","","","","24","","17","","48.3","","101.56","","","","-25","","NA"
"-71.39","46.79","QUEBEC INTL A","7016293","2022-01-03 16:00","2022","01","03","16:00","","-16.3","","-21.8","","63","","","","23","","19","","48.3","","101.58","","","","-26","","Mainly Clear"
"-71.39","46.79","QUEBEC INTL A","7016293","2022-01-03 17:00","2022","01","03","17:00","","-17.3","","-21.5","","70","","","","23","","12","","24.1","","101.62","","","","-25","","NA"
"-71.39","46.79","QUEBEC INTL A","7016293","2022-01-03 18:00","2022","01","03","18:00","","-18.5","","-22.4","","72","","","","25","","11","","24.1","","101.57","","","","-26","","NA"
"-71.39","46.79","QUEBEC INTL A","7016293","2022-01-03 19:00","2022","01","03","19:00","","-18.5","","-22.8","","69","","","","23","","7","","24.1","","101.57","","","","-24","","Mostly Cloudy"
"-71.39","46.79","QUEBEC INTL A","7016293","2022-01-03 20:00","2022","01","03","20:00","","-19.5","","-23.5","","71","","","","27","","4","","24.1","","101.63","","","","-23","","NA"
"-71.39","46.79","QUEBEC INTL A","7016293","2022-01-03 21:00","2022","01","03","21:00","","-21.9","","-23.8","","85","","","","","","0","","24.1","","101.64","","","","","","NA"
"-71.39","46.79","QUEBEC INTL A","7016293","2022-01-03 22:00","2022","01","03","22:00","","-24.1","","-26.6","","81","","","","34","","3","","24.1","","101.61","","","","-27","","Mainly Clear"
"-71.39","46.79","QUEBEC INTL A","7016293","2022-01-03 23:00","2022","01","03","23:00","","-24.5","","-27.0","","80","","","","36","","3","","24.1","","101.55","","","","-27","","NA"
"-71.39","46.79","QUEBEC INTL A","7016293","2022-01-04 00:00","2022","01","04","00:00","","-23.7","","-25.9","","82","","","","26","","8","","24.1","","101.57","","","","-31","","NA"
"-71.39","46.79","QUEBEC INTL A","7016293","2022-01-04 01:00","2022","01","04","01:00","","-23.6","","-26.1","","81","","","","1","","3","","24.1","","101.52","","","","-26","","Clear"
"-71.39","46.79","QUEBEC INTL A","7016293","2022-01-04 02:00","2022","01","04","02:00","","-21.6","","-23.7","","84","","","","22","","12","","24.1","","101.61","","","","-30","","NA"
"-71.39","46.79","QUEBEC INTL A","7016293","2022-01-04 03:00","2022","01","04","03:00","","-19.4","","-21.9","","81","","","","25","","26","","24.1","","101.60","","","","-31","","NA"
"-71.39","46.79","QUEBEC INTL A","7016293","2022-01-04 04:00","2022","01","04","04:00","","-18.8","","-21.2","","81","","","","20","","19","","24.1","","101.59","","","","-29","","Mainly Clear"
"-71.39","46.79","QUEBEC INTL A","7016293","2022-01-04 05:00","2022","01","04","05:00","","-19.5","","-21.9","","82","","","","22","","13","","24.1","","101.59","","","","-28","","NA"
"-71.39","46.79","QUEBEC INTL A","7016293","2022-01-04 06:00","2022","01","04","06:00","","-19.5","","-21.9","","82","","","","22","","12","","24.1","","101.59","","","","-27","","NA"
"-71.39","46.79","QUEBEC INTL A","7016293","2022-01-04 07:00","2022","01","04","07:00","","-19.1","","-21.4","","82","","","","26","","3","","24.1","","101.57","","","","-22","","Snow"
"-71.39","46.79","QUEBEC INTL A","7016293","2022-01-04 08:00","2022","01","04","08:00","","-18.8","","-21.1","","82","","","","","","0","","2.4","","101.52","","","","","","Snow"
"-71.39","46.79","QUEBEC INTL A","7016293","2022-01-04 09:00","2022","01","04","09:00","","-17.6","","-20.0","","82","","","","34","","3","","2.4","","101.52","","","","-20","","Snow"
"-71.39","46.79","QUEBEC INTL A","7016293","2022-01-04 10:00","2022","01","04","10:00","","-16.4","","-18.9","","81","","","","","","0","","4.8","","101.51","","","","","","Snow"
"-71.39","46.79","QUEBEC INTL A","7016293","2022-01-04 11:00","2022","01","04","11:00","","-15.9","","-18.5","","81","","","","","","0","","2.4","","101.44","","","","","","Snow"
"-71.39","46.79","QUEBEC INTL A","7016293","2022-01-04 12:00","2022","01","04","12:00","","-14.7","","-17.7","","79","","","","24","","8","","3.2","","101.30","","","","-20","","Snow"
"-71.39","46.79","QUEBEC INTL A","7016293","2022-01-04 13:00","2022","01","04","13:00","","-14.3","","-17.2","","79","","","","25","","8","","4.0","","101.27","","","","-20","","Snow"
"-71.39","46.79","QUEBEC INTL A","7016293","2022-01-04 14:00","2022","01","04","14:00","","-13.6","","-16.7","","78","","","","24","","8","","8.1","","101.25","","","","-19","","Snow"
"-71.39","46.79","QUEBEC INTL A","7016293","2022-01-04 15:00","2022","01","04","15:00","","-13.0","","-16.1","","78","","","","23","","8","","8.1","","101.26","","","","-18","","Snow"
"-71.39","46.79","QUEBEC INTL A","7016293","2022-01-04 16:00","2022","01","04","16:00","","-12.9","","-15.6","","80","","","","22","","10","","16.1","","101.29","","","","-19","","Snow"
"-71.39","46.79","QUEBEC INTL A","7016293","2022-01-04 17:00","2022","01","04","17:00","","-12.5","","-15.4","","79","","","","","","0","","24.1","","101.34","","","","","","Snow"
"-71.39","46.79","QUEBEC INTL A","7016293","2022-01-04 18:00","2022","01","04","18:00","","-12.5","","-15.4","","79","","","","7","","4","","24.1","","101.32","","","","-15","","Snow"
"-71.39","46.79","QUEBEC INTL A","7016293","2022-01-04 19:00","2022","01","04","19:00","","-12.2","","-15.3","","78","","","","","","0","","16.1","","101.30","","","","","","Snow"
"-71.39","46.79","QUEBEC INTL A","7016293","2022-01-04 20:00","2022","01","04","20:00","","-11.9","","-14.7","","80","","","","36","","3","","16.1","","101.28","","","","-14","","Snow"
"-71.39","46.79","QUEBEC INTL A","7016293","2022-01-04 21:00","2022","01","04","21:00","","-11.8","","-14.4","","81","","","","","","0","","16.1","","101.27","","","","","","Snow"
"-71.39","46.79","QUEBEC INTL A","7016293","2022-01-04 22:00","2022","01","04","22:00","","-11.7","","-13.8","","85","","","","","","0","","16.1","","101.23","","","","","","Snow"
"-71.39","46.79","QUEBEC INTL A","7016293","2022-01-04 23:00","2022","01","04","23:00","","-11.2","","-13.3","","85","","","","19","","3","","4.8","","101.18","","","","-13","","Snow"
"-71.39","46.79","QUEBEC INTL A","7016293","2022-01-05 00:00","2022","01","05","00:00","","-11.4","","-13.0","","88","","","","","","0","","9.7","","101.07","","","","","","Snow"
"-71.39","46.79","QUEBEC INTL A","7016293","2022-01-05 01:00","2022","01","05","01:00","","-10.9","","-12.3","","90","","","","","","0","","9.7","","101.03","","","","","","Snow"
"-71.39","46.79","QUEBEC INTL A","7016293","2022-01-05 02:00","2022","01","05","02:00","","-10.2","","-11.6","","89","","","","34","","4","","8.1","","100.99","","","","-13","","Snow"
"-71.39","46.79","QUEBEC INTL A","7016293","2022-01-05 03:00","2022","01","05","03:00","","-9.7","","-10.9","","91","","","","5","","5","","9.7","","100.89","","","","-13","","Snow"
"-71.39","46.79","QUEBEC INTL A","7016293","2022-01-05 04:00","2022","01","05","04:00","","-9.1","","-10.2","","91","","","","5","","8","","12.9","","100.76","","","","-13","","Cloudy"
"-71.39","46.79","QUEBEC INTL A","7016293","2022-01-05 05:00","2022","01","05","05:00","","-8.7","","-10.0","","91","","","","7","","5","","9.7","","100.63","","","","-11","","Fog"
"-71.39","46.79","QUEBEC INTL A","7016293","2022-01-05 06:00","2022","01","05","06:00","","-7.9","","-9.0","","92","","","","4","","14","","8.1","","100.48","","","","-14","","Fog"
"-71.39","46.79","QUEBEC INTL A","7016293","2022-01-05 07:00","2022","01","05","07:00","","-7.8","","-8.5","","94","","","","4","","8","","8.1","","100.43","","","","-12","","Fog"
"-71.39","46.79","QUEBEC INTL A","7016293","2022-01-05 08:00","2022","01","05","08:00","","-7.3","","-8.2","","93","","","","4","","9","","4.8","","100.37","","","","-12","","Fog"
"-71.39","46.79","QUEBEC INTL A","7016293","2022-01-05 09:00","2022","01","05","09:00","","-5.6","","-6.5","","94","","","","7","","14","","4.8","","100.28","","","","-11","","Fog"
"-71.39","46.79","QUEBEC INTL A","7016293","2022-01-05 10:00","2022","01","05","10:00","","-4.6","","-5.8","","91","","","","8","","15","","8.1","","100.20","","","","-10","","Fog"
"-71.39","46.79","QUEBEC INTL A","7016293","2022-01-05 11:00","2022","01","05","11:00","","-4.3","","-5.9","","88","","","","7","","17","","11.3","","100.10","","","","-10","","NA"
"-71.39","46.79","QUEBEC INTL A","7016293","2022-01-05 12:00","2022","01","05","12:00","","-4.0","","-5.9","","86","","","","8","","17","","24.1","","99.97","","","","-10","","NA"
"-71.39","46.79","QUEBEC INTL A","7016293","2022-01-05 13:00","2022","01","05","13:00","","-3.7","","-6.1","","84","","","","8","","17","","19.3","","99.86","","","","-9","","Cloudy"
"-71.39","46.79","QUEBEC INTL A","7016293","2022-01-05 14:00","2022","01","05","14:00","","-3.7","","-6.1","","84","","","","7","","22","","19.3","","99.80","","","","-10","","NA"
"-71.39","46.79","QUEBEC INTL A","7016293","2022-01-05 15:00","2022","01","05","15:00","","-3.9","","-6.3","","83","","","","7","","22","","24.1","","99.73","","","","-10","","NA"
"-71.39","46.79","QUEBEC INTL A","7016293","2022-01-05 16:00","2022","01","05","16:00","","-4.2","","-6.8","","82","","","","6","","19","","24.1","","99.68","","","","-10","","Cloudy"
"-71.39","46.79","QUEBEC INTL A","7016293","2022-01-05 17:00","2022","01","05","17:00","","-3.8","","-6.3","","83","","","","7","","14","","24.1","","99.64","","","","-9","","NA"
"-71.39","46.79","QUEBEC INTL A","7016293","2022-01-05 18:00","2022","01","05","18:00","","-3.8","","-6.0","","85","","","","8","","13","","24.1","","99.61","","","","-9","","NA"
"-71.39","46.79","QUEBEC INTL A","7016293","2022-01-05 19:00","2022","01","05","19:00","","-4.8","","-6.2","","90","","","","2","","3","","22.5","","99.60","","","","-6","","Mostly Cloudy"
"-71.39","46.79","QUEBEC INTL A","7016293","2022-01-05 20:00","2022","01","05","20:00","","-4.1","","-5.8","","88","","","","6","","23","","22.5","","99.54","","","","-11","","NA"
"-71.39","46.79","QUEBEC INTL A","7016293","2022-01-05 21:00","2022","01","05","21:00","","-4.0","","-5.9","","87","","","","7","","17","","22.5","","99.50","","","","-10","","NA"
"-71.39","46.79","QUEBEC INTL A","7016293","2022-01-05 22:00","2022","01","05","22:00","","-3.9","","-5.8","","87","","","","7","","21","","8.1","","99.43","","","","-10","","Snow"
"-71.39","46.79","QUEBEC INTL A","7016293","2022-01-05 23:00","2022","01","05","23:00","","-3.9","","-5.4","","90","","","","7","","26","","12.9","","99.40","","","","-11","","Snow"
"-71.39","46.79","QUEBEC INTL A","7016293","2022-01-06 00:00","2022","01","06","00:00","","-3.9","","-5.3","","90","","","","7","","28","","12.9","","99.27","","","","-11","","Snow"
"-71.39","46.79","QUEBEC INTL A","7016293","2022-01-06 01:00","2022","01","06","01:00","","-4.1","","-5.0","","94","","","","8","","19","","0.8","","99.26","","","","-10","","Moderate Snow"
"-71.39","46.79","QUEBEC INTL A","7016293","2022-01-06 02:00","2022","01","06","02:00","","-4.2","","-5.1","","93","","","","8","","11","","1.6","","99.26","","","","-9","","Snow"
"-71.39","46.79","QUEBEC INTL A","7016293","2022-01-06 03:00","2022","01","06","03:00","","-4.3","","-5.4","","92","","","","7","","27","","12.9","","99.23","","","","-12","","Snow"
"-71.39","46.79","QUEBEC INTL A","7016293","2022-01-06 04:00","2022","01","06","04:00","","-4.2","","-5.7","","90","","","","8","","17","","24.1","","99.24","","","","-10","","Snow"
"-71.39","46.79","QUEBEC INTL A","7016293","2022-01-06 05:00","2022","01","06","05:00","","-4.4","","-5.7","","91","","","","8","","19","","16.1","","99.22","","","","-11","","Snow"
"-71.39","46.79","QUEBEC INTL A","7016293","2022-01-06 06:00","2022","01","06","06:00","","-4.7","","-5.7","","93","","","","9","","19","","2.0","","99.21","","","","-11","","Snow"
"-71.39","46.79","QUEBEC INTL A","7016293","2022-01-06 07:00","2022","01","06","07:00","","-4.8","","-5.8","","93","","","","13","","9","","1.6","","99.25","","","","-9","","Snow"
"-71.39","46.79","QUEBEC INTL A","7016293","2022-01-06 08:00","2022","01","06","08:00","","-4.9","","-5.9","","93","","","","10","","17","","2.0","","99.31","","","","-11","","Snow"
"-71.39","46.79","QUEBEC INTL A","7016293","2022-01-06 09:00","2022","01","06","09:00","","-4.8","","-5.7","","94","","","","9","","7","","0.8","","99.38","","","","-8","","Moderate Snow"
"-71.39","46.79","QUEBEC INTL A","7016293","2022-01-06 10:00","2022","01","06","10:00","","-4.6","","-5.5","","94","","","","10","","10","","1.6","","99.47","","","","-9","","Snow"
"-71.39","46.79","QUEBEC INTL A","7016293","2022-01-06 11:00","2022","01","06","11:00","","-4.2","","-5.2","","93","","","","9","","5","","2.0","","99.51","","","","-6","","Snow"
"-71.39","46.79","QUEBEC INTL A","7016293","2022-01-06 12:00","2022","01","06","12:00","","-2.6","","-4.7","","86","","","","23","","21","","6.4","","99.52","","","","-9","","Snow"
"-71.39","46.79","QUEBEC INTL A","7016293","2022-01-06 13:00","2022","01","06","13:00","","-2.5","","-5.2","","82","","","","25","","25","","16.1","","99.56","","","","-9","","Snow,Blowing Snow"
"-71.39","46.79","QUEBEC INTL A","7016293","2022-01-06 14:00","2022","01","06","14:00","","-4.1","","-7.8","","76","","","","26","","23","","24.1","","99.73","","","","-11","","Snow,Blowing Snow"
"-71.39","46.79","QUEBEC INTL A","7016293","2022-01-06 15:00","2022","01","06","15:00","","-5.4","","-9.1","","75","","","","26","","19","","16.1","","99.89","","","","-12","","Snow,Blowing Snow"
"-71.39","46.79","QUEBEC INTL A","7016293","2022-01-06 16:00","2022","01","06","16:00","","-6.1","","-9.4","","77","","","","24","","18","","24.1","","100.00","","","","-13","","Mostly Cloudy"
"-71.39","46.79","QUEBEC INTL A","7016293","2022-01-06 17:00","2022","01","06","17:00","","-6.6","","-9.9","","78","","","","24","","16","","24.1","","100.09","","","","-13","","NA"
"-71.39","46.79","QUEBEC INTL A","7016293","2022-01-06 18:00","2022","01","06","18:00","","-7.0","","-10.3","","78","","","","24","","11","","24.1","","100.11","","","","-12","","NA"
"-71.39","46.79","QUEBEC INTL A","7016293","2022-01-06 19:00","2022","01","06","19:00","","-7.3","","-10.5","","78","","","","24","","16","","24.1","","100.22","","","","-14","","Cloudy"
"-71.39","46.79","QUEBEC INTL A","7016293","2022-01-06 20:00","2022","01","06","20:00","","-7.5","","-10.5","","79","","","","22","","16","","24.1","","100.34","","","","-14","","NA"
"-71.39","46.79","QUEBEC INTL A","7016293","2022-01-06 21:00","2022","01","06","21:00","","-7.6","","-10.6","","79","","","","25","","8","","24.1","","100.33","","","","-12","","Snow"
"-71.39","46.79","QUEBEC INTL A","7016293","2022-01-06 22:00","2022","01","06","22:00","","-7.8","","-10.4","","82","","","","13","","5","","24.1","","100.32","","","","-10","","Cloudy"
"-71.39","46.79","QUEBEC INTL A","7016293","2022-01-06 23:00","2022","01","06","23:00","","-7.6","","-10.2","","82","","","","12","","4","","19.3","","100.40","","","","-10","","Snow"
"-71.39","46.79","QUEBEC INTL A","7016293","2022-01-07 00:00","2022","01","07","00:00","","-8.1","","-9.9","","87","","","","34","","5","","12.9","","100.48","","","","-11","","Snow"
"-71.39","46.79","QUEBEC INTL A","7016293","2022-01-07 01:00","2022","01","07","01:00","","-7.7","","-9.6","","86","","","","3","","7","","16.1","","100.37","","","","-11","","Snow"
"-71.39","46.79","QUEBEC INTL A","7016293","2022-01-07 02:00","2022","01","07","02:00","","-7.7","","-9.3","","88","","","","7","","3","","16.1","","100.45","","","","-9","","Snow"
"-71.39","46.79","QUEBEC INTL A","7016293","2022-01-07 03:00","2022","01","07","03:00","","-7.7","","-9.2","","89","","","","","","0","","16.1","","100.50","","","","","","Snow"
"-71.39","46.79","QUEBEC INTL A","7016293","2022-01-07 04:00","2022","01","07","04:00","","-7.9","","-9.1","","91","","","","3","","6","","3.2","","100.43","","","","-11","","Snow"
"-71.39","46.79","QUEBEC INTL A","7016293","2022-01-07 05:00","2022","01","07","05:00","","-7.9","","-8.9","","92","","","","5","","8","","8.1","","100.39","","","","-12","","Snow"
"-71.39","46.79","QUEBEC INTL A","7016293","2022-01-07 06:00","2022","01","07","06:00","","-7.3","","-8.4","","92","","","","10","","7","","6.4","","100.34","","","","-11","","Snow"
"-71.39","46.79","QUEBEC INTL A","7016293","2022-01-07 07:00","2022","01","07","07:00","","-6.9","","-8.5","","89","","","","8","","22","","4.0","","100.38","","","","-14","","Snow,Fog"
"-71.39","46.79","QUEBEC INTL A","7016293","2022-01-07 08:00","2022","01","07","08:00","","-7.7","","-9.6","","86","","","","7","","25","","11.3","","100.26","","","","-16","","Snow"
"-71.39","46.79","QUEBEC INTL A","7016293","2022-01-07 09:00","2022","01","07","09:00","","-7.4","","-9.8","","84","","","","6","","22","","12.9","","100.27","","","","-15","","Snow"
"-71.39","46.79","QUEBEC INTL A","7016293","2022-01-07 10:00","2022","01","07","10:00","","-7.3","","-10.1","","81","","","","7","","19","","24.1","","100.25","","","","-14","","Cloudy"
"-71.39","46.79","QUEBEC INTL A","7016293","2022-01-07 11:00","2022","01","07","11:00","","-7.2","","-10.2","","79","","","","8","","19","","24.1","","100.20","","","","-14","","NA"
"-71.39","46.79","QUEBEC INTL A","7016293","2022-01-07 12:00","2022","01","07","12:00","","-7.1","","-9.8","","81","","","","7","","19","","19.3","","100.12","","","","-14","","NA"
"-71.39","46.79","QUEBEC INTL A","7016293","2022-01-07 13:00","2022","01","07","13:00","","-7.3","","-9.3","","86","","","","7","","17","","2.4","","100.02","","","","-14","","Snow"
"-71.39","46.79","QUEBEC INTL A","7016293","2022-01-07 14:00","2022","01","07","14:00","","-7.4","","-9.4","","85","","","","7","","16","","2.0","","100.03","","","","-14","","Snow,Fog"
"-71.39","46.79","QUEBEC INTL A","7016293","2022-01-07 15:00","2022","01","07","15:00","","-7.5","","-9.3","","87","","","","7","","11","","4.0","","100.04","","","","-13","","Snow,Fog"
"-71.39","46.79","QUEBEC INTL A","7016293","2022-01-07 16:00","2022","01","07","16:00","","-7.7","","-9.6","","87","","","","7","","7","","4.0","","100.08","","","","-11","","Snow,Fog"
"-71.39","46.79","QUEBEC INTL A","7016293","2022-01-07 17:00","2022","01","07","17:00","","-8.7","","-10.0","","90","","","","","","0","","8.1","","100.11","","","","","","Snow"
"-71.39","46.79","QUEBEC INTL A","7016293","2022-01-07 18:00","2022","01","07","18:00","","-8.4","","-9.6","","91","","","","28","","4","","16.1","","100.18","","","","-11","","Snow"
"-71.39","46.79","QUEBEC INTL A","7016293","2022-01-07 19:00","2022","01","07","19:00","","-8.0","","-9.7","","87","","","","23","","12","","16.1","","100.21","","","","-13","","Cloudy"
"-71.39","46.79","QUEBEC INTL A","7016293","2022-01-07 20:00","2022","01","07","20:00","","-9.2","","-11.7","","82","","","","22","","14","","24.1","","100.26","","","","-16","","NA"
"-71.39","46.79","QUEBEC INTL A","7016293","2022-01-07 21:00","2022","01","07","21:00","","-10.7","","-13.3","","81","","","","23","","16","","24.1","","100.30","","","","-18","","NA"
"-71.39","46.79","QUEBEC INTL A","7016293","2022-01-07 22:00","2022","01","07","22:00","","-12.1","","-14.7","","81","","","","25","","9","","24.1","","100.39","","","","-17","","Cloudy"
"-71.39","46.79","QUEBEC INTL A","7016293","2022-01-07 23:00","2022","01","07","23:00","","-10.7","","-15.2","","70","","","","34","","6","","24.1","","100.52","","","","-14","","NA"
"-71.39","46.79","QUEBEC INTL A","7016293","2022-01-08 00:00","2022","01","08","00:00","","-11.4","","-16.2","","68","","","","27","","6","","24.1","","100.65","","","","-15","","NA"
"-71.39","46.79","QUEBEC INTL A","7016293","2022-01-08 01:00","2022","01","08","01:00","","-11.3","","-16.9","","63","","","","30","","12","","24.1","","100.80","","","","-17","","Mostly Cloudy"
"-71.39","46.79","QUEBEC INTL A","7016293","2022-01-08 02:00","2022","01","08","02:00","","-14.7","","-18.7","","71","","","","25","","23","","24.1","","101.02","","","","-24","","NA"
"-71.39","46.79","QUEBEC INTL A","7016293","2022-01-08 03:00","2022","01","08","03:00","","-15.9","","-19.5","","74","","","","25","","31","","24.1","","101.24","","","","-27","","NA"
"-71.39","46.79","QUEBEC INTL A","7016293","2022-01-08 04:00","2022","01","08","04:00","","-16.6","","-20.2","","74","","","","25","","27","","24.1","","101.37","","","","-28","","Mainly Clear"
"-71.39","46.79","QUEBEC INTL A","7016293","2022-01-08 05:00","2022","01","08","05:00","","-17.1","","-20.5","","75","","","","24","","28","","24.1","","101.52","","","","-28","","NA"
"-71.39","46.79","QUEBEC INTL A","7016293","2022-01-08 06:00","2022","01","08","06:00","","-18.1","","-21.5","","75","","","","25","","30","","24.1","","101.73","","","","-30","","NA"
"-71.39","46.79","QUEBEC INTL A","7016293","2022-01-08 07:00","2022","01","08","07:00","","-19.1","","-22.6","","74","","","","25","","30","","48.3","","101.88","","","","-31","","Clear"
"-71.39","46.79","QUEBEC INTL A","7016293","2022-01-08 08:00","2022","01","08","08:00","","-19.3","","-23.4","","71","","","","24","","26","","48.3","","101.98","","","","-31","","NA"
"-71.39","46.79","QUEBEC INTL A","7016293","2022-01-08 09:00","2022","01","08","09:00","","-19.1","","-23.6","","68","","","","24","","25","","48.3","","102.16","","","","-30","","NA"
"-71.39","46.79","QUEBEC INTL A","7016293","2022-01-08 10:00","2022","01","08","10:00","","-17.9","","-23.1","","64","","","","23","","23","","48.3","","102.26","","","","-29","","Clear"
"-71.39","46.79","QUEBEC INTL A","7016293","2022-01-08 11:00","2022","01","08","11:00","","-16.9","","-21.9","","66","","","","22","","24","","48.3","","102.35","","","","-27","","NA"
"-71.39","46.79","QUEBEC INTL A","7016293","2022-01-08 12:00","2022","01","08","12:00","","-15.9","","-21.7","","62","","","","24","","26","","48.3","","102.44","","","","-27","","NA"
"-71.39","46.79","QUEBEC INTL A","7016293","2022-01-08 13:00","2022","01","08","13:00","","-15.4","","-21.3","","61","","","","25","","22","","48.3","","102.48","","","","-25","","Mainly Clear"
"-71.39","46.79","QUEBEC INTL A","7016293","2022-01-08 14:00","2022","01","08","14:00","","-14.9","","-21.4","","58","","","","22","","18","","48.3","","102.45","","","","-24","","NA"
"-71.39","46.79","QUEBEC INTL A","7016293","2022-01-08 15:00","2022","01","08","15:00","","-14.7","","-20.9","","60","","","","24","","16","","48.3","","102.46","","","","-23","","NA"
"-71.39","46.79","QUEBEC INTL A","7016293","2022-01-08 16:00","2022","01","08","16:00","","-15.9","","-21.2","","64","","","","25","","21","","48.3","","102.53","","","","-26","","Mainly Clear"
"-71.39","46.79","QUEBEC INTL A","7016293","2022-01-08 17:00","2022","01","08","17:00","","-16.4","","-20.8","","69","","","","24","","13","","48.3","","102.49","","","","-24","","NA"
"-71.39","46.79","QUEBEC INTL A","7016293","2022-01-08 18:00","2022","01","08","18:00","","-16.9","","-21.4","","68","","","","25","","14","","24.1","","102.52","","","","-25","","NA"
"-71.39","46.79","QUEBEC INTL A","7016293","2022-01-08 19:00","2022","01","08","19:00","","-16.0","","-20.9","","67","","","","26","","7","","24.1","","102.49","","","","-21","","Cloudy"
"-71.39","46.79","QUEBEC INTL A","7016293","2022-01-08 20:00","2022","01","08","20:00","","-15.7","","-21.0","","64","","","","28","","6","","24.1","","102.38","","","","-20","","NA"
"-71.39","46.79","QUEBEC INTL A","7016293","2022-01-08 21:00","2022","01","08","21:00","","-15.3","","-20.1","","67","","","","5","","4","","24.1","","102.25","","","","-18","","NA"
"-71.39","46.79","QUEBEC INTL A","7016293","2022-01-08 22:00","2022","01","08","22:00","","-15.0","","-20.0","","66","","","","36","","3","","24.1","","102.16","","","","-17","","Cloudy"
"-71.39","46.79","QUEBEC INTL A","7016293","2022-01-08 23:00","2022","01","08","23:00","","-14.7","","-19.7","","66","","","","1","","5","","24.1","","102.08","","","","-18","","NA"
"-71.39","46.79","QUEBEC INTL A","7016293","2022-01-09 00:00","2022","01","09","00:00","","-14.5","","-19.2","","68","","","","6","","8","","24.1","","101.95","","","","-20","","NA"
"-71.39","46.79","QUEBEC INTL A","7016293","2022-01-09 01:00","2022","01","09","01:00","","-14.1","","-18.7","","69","","","","6","","9","","24.1","","101.77","","","","-20","","Cloudy"
"-71.39","46.79","QUEBEC INTL A","7016293","2022-01-09 02:00","2022","01","09","02:00","","-13.7","","-18.2","","69","","","","5","","12","","24.1","","101.59","","","","-20","","NA"
"-71.39","46.79","QUEBEC INTL A","7016293","2022-01-09 03:00","2022","01","09","03:00","","-13.3","","-17.7","","70","","","","36","","9","","24.1","","101.49","","","","-19","","NA"
"-71.39","46.79","QUEBEC INTL A","7016293","2022-01-09 04:00","2022","01","09","04:00","","-12.7","","-17.6","","67","","","","1","","8","","24.1","","101.26","","","","-18","","Cloudy"
"-71.39","46.79","QUEBEC INTL A","7016293","2022-01-09 05:00","2022","01","09","05:00","","-11.7","","-17.1","","65","","","","1","","9","","24.1","","101.09","","","","-17","","NA"
"-71.39","46.79","QUEBEC INTL A","7016293","2022-01-09 06:00","2022","01","09","06:00","","-11.1","","-16.5","","65","","","","1","","8","","24.1","","100.97","","","","-16","","NA"
"-71.39","46.79","QUEBEC INTL A","7016293","2022-01-09 07:00","2022","01","09","07:00","","-10.5","","-15.6","","67","","","","35","","7","","24.1","","100.75","","","","-15","","Mostly Cloudy"
"-71.39","46.79","QUEBEC INTL A","7016293","2022-01-09 08:00","2022","01","09","08:00","","-10.2","","-15.3","","67","","","","2","","8","","40.2","","100.58","","","","-15","","NA"
"-71.39","46.79","QUEBEC INTL A","7016293","2022-01-09 09:00","2022","01","09","09:00","","-9.8","","-14.2","","71","","","","35","","5","","32.2","","100.44","","","","-13","","NA"
"-71.39","46.79","QUEBEC INTL A","7016293","2022-01-09 10:00","2022","01","09","10:00","","-9.4","","-12.6","","78","","","","2","","5","","9.7","","100.32","","","","-12","","Snow Pellets"
"-71.39","46.79","QUEBEC INTL A","7016293","2022-01-09 11:00","2022","01","09","11:00","","-8.9","","-10.7","","87","","","","2","","5","","9.7","","100.11","","","","-12","","Snow"
"-71.39","46.79","QUEBEC INTL A","7016293","2022-01-09 12:00","2022","01","09","12:00","","-8.3","","-9.7","","90","","","","5","","4","","1.6","","99.90","","","","-10","","Snow Grains"
"-71.39","46.79","QUEBEC INTL A","7016293","2022-01-09 13:00","2022","01","09","13:00","","-7.4","","-8.6","","91","","","","6","","5","","8.1","","99.70","","","","-10","","Snow"
"-71.39","46.79","QUEBEC INTL A","7016293","2022-01-09 14:00","2022","01","09","14:00","","-7.1","","-8.2","","92","","","","","","0","","2.0","","99.53","","","","","","Snow"
"-71.39","46.79","QUEBEC INTL A","7016293","2022-01-09 15:00","2022","01","09","15:00","","-6.2","","-7.2","","93","","","","6","","4","","1.6","","99.42","","","","-8","","Snow"
"-71.39","46.79","QUEBEC INTL A","7016293","2022-01-09 16:00","2022","01","09","16:00","","-6.0","","-6.9","","94","","","","19","","4","","1.6","","99.34","","","","-8","","Snow"
"-71.39","46.79","QUEBEC INTL A","7016293","2022-01-09 17:00","2022","01","09","17:00","","-6.0","","-6.8","","94","","","","21","","5","","1.6","","99.28","","","","-8","","Snow,Snow Grains"
"-71.39","46.79","QUEBEC INTL A","7016293","2022-01-09 18:00","2022","01","09","18:00","","-5.1","","-5.9","","94","","","","23","","13","","3.2","","99.23","","","","-10","","Snow"
"-71.39","46.79","QUEBEC INTL A","7016293","2022-01-09 19:00","2022","01","09","19:00","","-3.5","","-4.5","","93","","","","25","","23","","6.4","","99.22","","","","-10","","Snow"
"-71.39","46.79","QUEBEC INTL A","7016293","2022-01-09 20:00","2022","01","09","20:00","","-3.6","","-4.1","","96","","","","25","","26","","6.4","","99.25","","","","-11","","Snow"
"-71.39","46.79","QUEBEC INTL A","7016293","2022-01-09 21:00","2022","01","09","21:00","","-4.0","","-4.6","","95","","","","24","","24","","11.3","","99.28","","","","-11","","NA"
"-71.39","46.79","QUEBEC INTL A","7016293","2022-01-09 22:00","2022","01","09","22:00","","-4.2","","-5.4","","91","","","","24","","20","","24.1","","99.38","","","","-11","","Mainly Clear"
"-71.39","46.79","QUEBEC INTL A","7016293","2022-01-09 23:00","2022","01","09","23:00","","-3.9","","-6.5","","82","","","","26","","31","","24.1","","99.45","","","","-12","","NA"
"-71.39","46.79","QUEBEC INTL A","7016293","2022-01-10 00:00","2022","01","10","00:00","","-5.7","","-11.6","","64","","","","28","","26","","24.1","","99.63","","","","-13","","NA"
"-71.39","46.79","QUEBEC INTL A","7016293","2022-01-10 01:00","2022","01","10","01:00","","-7.3","","-12.7","","66","","","","28","","16","","24.1","","99.82","","","","-14","","Mostly Cloudy"
"-71.39","46.79","QUEBEC INTL A","7016293","2022-01-10 02:00","2022","01","10","02:00","","-9.2","","-16.0","","58","","","","29","","21","","24.1","","100.03","","","","-17","","NA"
"-71.39","46.79","QUEBEC INTL A","7016293","2022-01-10 03:00","2022","01","10","03:00","","-11.2","","-17.9","","58","","","","27","","16","","24.1","","100.18","","","","-18","","NA"
"-71.39","46.79","QUEBEC INTL A","7016293","2022-01-10 04:00","2022","01","10","04:00","","-13.0","","-17.0","","72","","","","26","","15","","24.1","","100.35","","","","-20","","Mostly Cloudy"
"-71.39","46.79","QUEBEC INTL A","7016293","2022-01-10 05:00","2022","01","10","05:00","","-14.9","","-20.6","","62","","","","23","","16","","24.1","","100.44","","","","-23","","NA"
"-71.39","46.79","QUEBEC INTL A","7016293","2022-01-10 06:00","2022","01","10","06:00","","-16.2","","-22.4","","59","","","","25","","21","","24.1","","100.57","","","","-26","","NA"
"-71.39","46.79","QUEBEC INTL A","7016293","2022-01-10 07:00","2022","01","10","07:00","","-16.8","","-22.9","","60","","","","29","","10","","48.3","","100.55","","","","-23","","Mainly Clear"
"-71.39","46.79","QUEBEC INTL A","7016293","2022-01-10 08:00","2022","01","10","08:00","","-17.6","","-23.6","","60","","","","27","","12","","48.3","","100.57","","","","-25","","NA"
"-71.39","46.79","QUEBEC INTL A","7016293","2022-01-10 09:00","2022","01","10","09:00","","-17.5","","-22.9","","63","","","","25","","18","","48.3","","100.62","","","","-27","","NA"
"-71.39","46.79","QUEBEC INTL A","7016293","2022-01-10 10:00","2022","01","10","10:00","","-16.0","","-21.8","","62","","","","27","","19","","48.3","","100.64","","","","-25","","Clear"
"-71.39","46.79","QUEBEC INTL A","7016293","2022-01-10 11:00","2022","01","10","11:00","","-14.9","","-22.3","","54","","","","27","","20","","48.3","","100.59","","","","-24","","NA"
"-71.39","46.79","QUEBEC INTL A","7016293","2022-01-10 12:00","2022","01","10","12:00","","-14.4","","-22.6","","51","","","","28","","19","","48.3","","100.49","","","","-23","","NA"
"-71.39","46.79","QUEBEC INTL A","7016293","2022-01-10 13:00","2022","01","10","13:00","","-15.2","","-22.9","","53","","","","28","","19","","48.3","","100.46","","","","-24","","Mainly Clear"
"-71.39","46.79","QUEBEC INTL A","7016293","2022-01-10 14:00","2022","01","10","14:00","","-14.6","","-22.2","","53","","","","26","","23","","48.3","","100.51","","","","-24","","NA"
"-71.39","46.79","QUEBEC INTL A","7016293","2022-01-10 15:00","2022","01","10","15:00","","-15.2","","-22.8","","53","","","","27","","12","","40.2","","100.56","","","","-22","","NA"
"-71.39","46.79","QUEBEC INTL A","7016293","2022-01-10 16:00","2022","01","10","16:00","","-15.7","","-23.8","","51","","","","27","","10","","48.3","","100.61","","","","-22","","Clear"
"-71.39","46.79","QUEBEC INTL A","7016293","2022-01-10 17:00","2022","01","10","17:00","","-17.0","","-23.7","","57","","","","28","","7","","48.3","","100.67","","","","-22","","NA"
"-71.39","46.79","QUEBEC INTL A","7016293","2022-01-10 18:00","2022","01","10","18:00","","-17.5","","-23.5","","60","","","","31","","10","","24.1","","100.76","","","","-24","","NA"
"-71.39","46.79","QUEBEC INTL A","7016293","2022-01-10 19:00","2022","01","10","19:00","","-18.6","","-24.4","","61","","","","32","","9","","24.1","","100.83","","","","-25","","Mainly Clear"
"-71.39","46.79","QUEBEC INTL A","7016293","2022-01-10 20:00","2022","01","10","20:00","","-19.3","","-25.7","","58","","","","33","","7","","24.1","","100.93","","","","-25","","NA"
"-71.39","46.79","QUEBEC INTL A","7016293","2022-01-10 21:00","2022","01","10","21:00","","-20.0","","-28.0","","50","","","","33","","10","","24.1","","101.02","","","","-27","","NA"
"-71.39","46.79","QUEBEC INTL A","7016293","2022-01-10 22:00","2022","01","10","22:00","","-20.9","","-28.5","","51","","","","33","","14","","24.1","","101.08","","","","-30","","Clear"
"-71.39","46.79","QUEBEC INTL A","7016293","2022-01-10 23:00","2022","01","10","23:00","","-21.7","","-29.6","","50","","","","31","","9","","24.1","","101.18","","","","-29","","NA"
"-71.39","46.79","QUEBEC INTL A","7016293","2022-01-11 00:00","2022","01","11","00:00","","-22.5","","-30.0","","51","","","","30","","8","","24.1","","101.28","","","","-29","","NA"
"-71.39","46.79","QUEBEC INTL A","7016293","2022-01-11 01:00","2022","01","11","01:00","","-23.6","","-30.9","","52","","","","29","","5","","24.1","","101.40","","","","-28","","Mainly Clear"
"-71.39","46.79","QUEBEC INTL A","7016293","2022-01-11 02:00","2022","01","11","02:00","","-24.1","","-31.4","","52","","","","27","","3","","24.1","","101.52","","","","-27","","NA"
"-71.39","46.79","QUEBEC INTL A","7016293","2022-01-11 03:00","2022","01","11","03:00","","-26.4","","-32.0","","60","","","","25","","16","","24.1","","101.64","","","","-37","","NA"
"-71.39","46.79","QUEBEC INTL A","7016293","2022-01-11 04:00","2022","01","11","04:00","","-26.8","","-32.4","","60","","","","27","","9","","24.1","","101.75","","","","-35","","Mainly Clear"
"-71.39","46.79","QUEBEC INTL A","7016293","2022-01-11 05:00","2022","01","11","05:00","","-28.1","","-33.1","","63","","","","26","","14","","24.1","","101.88","","","","-39","","NA"
"-71.39","46.79","QUEBEC INTL A","7016293","2022-01-11 06:00","2022","01","11","06:00","","-28.1","","-33.1","","63","","","","26","","14","","24.1","","102.04","","","","-39","","NA"
"-71.39","46.79","QUEBEC INTL A","7016293","2022-01-11 07:00","2022","01","11","07:00","","-28.6","","-33.6","","63","","","","24","","13","","40.2","","102.16","","","","-39","","Mainly Clear"
"-71.39","46.79","QUEBEC INTL A","7016293","2022-01-11 08:00","2022","01","11","08:00","","-29.6","","-34.3","","65","","","","25","","14","","40.2","","102.24","","","","-41","","NA"
"-71.39","46.79","QUEBEC INTL A","7016293","2022-01-11 09:00","2022","01","11","09:00","","-28.0","","-33.7","","59","","","","27","","15","","40.2","","102.30","","","","-39","","NA"
"-71.39","46.79","QUEBEC INTL A","7016293","2022-01-11 10:00","2022","01","11","10:00","","-26.9","","-33.6","","54","","","","26","","22","","40.2","","102.35","","","","-40","","Clear"
"-71.39","46.79","QUEBEC INTL A","7016293","2022-01-11 11:00","2022","01","11","11:00","","-25.9","","-33.1","","52","","","","23","","16","","40.2","","102.35","","","","-37","","NA"
"-71.39","46.79","QUEBEC INTL A","7016293","2022-01-11 12:00","2022","01","11","12:00","","-25.3","","-32.3","","53","","","","25","","25","","40.2","","102.34","","","","-38","","NA"
"-71.39","46.79","QUEBEC INTL A","7016293","2022-01-11 13:00","2022","01","11","13:00","","-24.5","","-31.8","","52","","","","24","","22","","40.2","","102.31","","","","-37","","Mainly Clear"
"-71.39","46.79","QUEBEC INTL A","7016293","2022-01-11 14:00","2022","01","11","14:00","","-23.9","","-31.6","","50","","","","24","","22","","40.2","","102.25","","","","-36","","NA"
"-71.39","46.79","QUEBEC INTL A","7016293","2022-01-11 15:00","2022","01","11","15:00","","-23.9","","-30.0","","58","","","","23","","19","","40.2","","102.22","","","","-35","","NA"
"-71.39","46.79","QUEBEC INTL A","7016293","2022-01-11 16:00","2022","01","11","16:00","","-24.7","","-30.1","","62","","","","25","","20","","40.2","","102.26","","","","-36","","Mainly Clear"
"-71.39","46.79","QUEBEC INTL A","7016293","2022-01-11 17:00","2022","01","11","17:00","","-25.6","","-29.8","","69","","","","25","","13","","24.1","","102.28","","","","-35","","NA"
"-71.39","46.79","QUEBEC INTL A","7016293","2022-01-11 18:00","2022","01","11","18:00","","-26.4","","-30.2","","71","","","","26","","9","","24.1","","102.30","","","","-34","","NA"
"-71.39","46.79","QUEBEC INTL A","7016293","2022-01-11 19:00","2022","01","11","19:00","","-26.8","","-30.6","","71","","","","30","","5","","24.1","","102.24","","","","-32","","Clear"
"-71.39","46.79","QUEBEC INTL A","7016293","2022-01-11 20:00","2022","01","11","20:00","","-29.2","","-32.7","","72","","","","36","","3","","24.1","","102.16","","","","-33","","NA"
"-71.39","46.79","QUEBEC INTL A","7016293","2022-01-11 21:00","2022","01","11","21:00","","-28.7","","-31.6","","76","","","","","","0","","24.1","","102.05","","","","","","NA"
"-71.39","46.79","QUEBEC INTL A","7016293","2022-01-11 22:00","2022","01","11","22:00","","-29.1","","-32.1","","76","","","","3","","5","","24.1","","101.99","","","","-35","","Clear"
"-71.39","46.79","QUEBEC INTL A","7016293","2022-01-11 23:00","2022","01","11","23:00","","-31.0","","-34.1","","75","","","","","","0","","24.1","","101.89","","","","","","NA"
"-71.39","46.79","QUEBEC INTL A","7016293","2022-01-12 00:00","2022","01","12","00:00","","-28.3","","-31.7","","74","","","","3","","6","","24.1","","101.83","","","","-35","","NA"
"-71.39","46.79","QUEBEC INTL A","7016293","2022-01-12 01:00","2022","01","12","01:00","","-27.0","","-30.6","","72","","","","1","","9","","24.1","","101.71","","","","-35","","Mainly Clear"
"-71.39","46.79","QUEBEC INTL A","7016293","2022-01-12 02:00","2022","01","12","02:00","","-25.6","","-29.7","","70","","","","36","","9","","24.1","","101.58","","","","-33","","NA"
"-71.39","46.79","QUEBEC INTL A","7016293","2022-01-12 03:00","2022","01","12","03:00","","-24.6","","-28.8","","69","","","","5","","9","","24.1","","101.35","","","","-32","","NA"
"-71.39","46.79","QUEBEC INTL A","7016293","2022-01-12 04:00","2022","01","12","04:00","","-23.7","","-27.3","","72","","","","1","","7","","9.7","","101.11","","","","-30","","Snow"
"-71.39","46.79","QUEBEC INTL A","7016293","2022-01-12 05:00","2022","01","12","05:00","","-23.0","","-26.1","","76","","","","1","","5","","9.7","","100.96","","","","-28","","Snow"
"-71.39","46.79","QUEBEC INTL A","7016293","2022-01-12 06:00","2022","01","12","06:00","","-21.6","","-25.0","","74","","","","1","","7","","16.1","","100.85","","","","-28","","Snow"
"-71.39","46.79","QUEBEC INTL A","7016293","2022-01-12 07:00","2022","01","12","07:00","","-20.7","","-24.4","","73","","","","36","","8","","24.1","","100.76","","","","-27","","Cloudy"
"-71.39","46.79","QUEBEC INTL A","7016293","2022-01-12 08:00","2022","01","12","08:00","","-19.7","","-23.6","","72","","","","1","","7","","24.1","","100.65","","","","-25","","Snow"
"-71.39","46.79","QUEBEC INTL A","7016293","2022-01-12 09:00","2022","01","12","09:00","","-18.9","","-22.6","","73","","","","36","","7","","2.8","","100.60","","","","-24","","Snow"
"-71.39","46.79","QUEBEC INTL A","7016293","2022-01-12 10:00","2022","01","12","10:00","","-17.8","","-20.8","","78","","","","1","","9","","2.0","","100.55","","","","-24","","Snow"
"-71.39","46.79","QUEBEC INTL A","7016293","2022-01-12 11:00","2022","01","12","11:00","","-16.3","","-19.0","","80","","","","2","","8","","1.6","","100.48","","","","-22","","Snow"
"-71.39","46.79","QUEBEC INTL A","7016293","2022-01-12 12:00","2022","01","12","12:00","","-15.3","","-17.8","","81","","","","4","","7","","2.4","","100.39","","","","-20","","Snow"
"-71.39","46.79","QUEBEC INTL A","7016293","2022-01-12 13:00","2022","01","12","13:00","","-14.3","","-16.7","","83","","","","6","","8","","2.0","","100.34","","","","-20","","Snow"
"-71.39","46.79","QUEBEC INTL A","7016293","2022-01-12 14:00","2022","01","12","14:00","","-13.4","","-15.7","","83","","","","8","","5","","2.4","","100.31","","","","-17","","Snow"
"-71.39","46.79","QUEBEC INTL A","7016293","2022-01-12 15:00","2022","01","12","15:00","","-13.0","","-15.0","","85","","","","11","","4","","2.4","","100.37","","","","-16","","Snow"
"-71.39","46.79","QUEBEC INTL A","7016293","2022-01-12 16:00","2022","01","12","16:00","","-12.4","","-14.3","","86","","","","","","0","","2.0","","100.44","","","","","","Snow"
"-71.39","46.79","QUEBEC INTL A","7016293","2022-01-12 17:00","2022","01","12","17:00","","-12.8","","-14.5","","87","","","","25","","5","","2.8","","100.51","","","","-16","","Snow"
"-71.39","46.79","QUEBEC INTL A","7016293","2022-01-12 18:00","2022","01","12","18:00","","-12.7","","-14.4","","87","","","","27","","5","","4.0","","100.56","","","","-16","","Snow"
"-71.39","46.79","QUEBEC INTL A","7016293","2022-01-12 19:00","2022","01","12","19:00","","-12.5","","-14.2","","87","","","","26","","5","","9.7","","100.63","","","","-16","","Snow"
"-71.39","46.79","QUEBEC INTL A","7016293","2022-01-12 20:00","2022","01","12","20:00","","-12.2","","-13.9","","88","","","","24","","4","","16.1","","100.70","","","","-15","","NA"
"-71.39","46.79","QUEBEC INTL A","7016293","2022-01-12 21:00","2022","01","12","21:00","","-13.8","","-15.1","","91","","","","24","","10","","19.3","","100.73","","","","-20","","NA"
"-71.39","46.79","QUEBEC INTL A","7016293","2022-01-12 22:00","2022","01","12","22:00","","-12.6","","-14.4","","87","","","","22","","10","","24.1","","100.80","","","","-18","","Cloudy"
"-71.39","46.79","QUEBEC INTL A","7016293","2022-01-12 23:00","2022","01","12","23:00","","-12.2","","-14.2","","85","","","","26","","11","","24.1","","100.85","","","","-18","","NA"
"-71.39","46.79","QUEBEC INTL A","7016293","2022-01-13 00:00","2022","01","13","00:00","","-12.6","","-14.7","","84","","","","27","","12","","24.1","","100.86","","","","-19","","NA"
"-71.39","46.79","QUEBEC INTL A","7016293","2022-01-13 01:00","2022","01","13","01:00","","-12.8","","-14.8","","85","","","","36","","4","","24.1","","100.84","","","","-15","","Cloudy"
"-71.39","46.79","QUEBEC INTL A","7016293","2022-01-13 02:00","2022","01","13","02:00","","-12.4","","-14.5","","85","","","","4","","12","","24.1","","100.86","","","","-19","","NA"
"-71.39","46.79","QUEBEC INTL A","7016293","2022-01-13 03:00","2022","01","13","03:00","","-12.2","","-14.3","","84","","","","13","","4","","16.1","","100.93","","","","-15","","Snow"
"-71.39","46.79","QUEBEC INTL A","7016293","2022-01-13 04:00","2022","01","13","04:00","","-12.4","","-14.1","","87","","","","36","","3","","16.1","","100.94","","","","-14","","Snow"
"-71.39","46.79","QUEBEC INTL A","7016293","2022-01-13 05:00","2022","01","13","05:00","","-12.3","","-14.1","","87","","","","36","","6","","16.1","","100.94","","","","-16","","Snow"
"-71.39","46.79","QUEBEC INTL A","7016293","2022-01-13 06:00","2022","01","13","06:00","","-12.1","","-13.8","","87","","","","36","","8","","16.1","","100.97","","","","-17","","Snow"
"-71.39","46.79","QUEBEC INTL A","7016293","2022-01-13 07:00","2022","01","13","07:00","","-11.6","","-13.1","","89","","","","3","","7","","12.9","","100.96","","","","-16","","Snow"
"-71.39","46.79","QUEBEC INTL A","7016293","2022-01-13 08:00","2022","01","13","08:00","","-10.9","","-12.8","","86","","","","6","","7","","40.2","","100.97","","","","-15","","NA"
"-71.39","46.79","QUEBEC INTL A","7016293","2022-01-13 09:00","2022","01","13","09:00","","-10.0","","-13.0","","79","","","","5","","11","","40.2","","100.95","","","","-16","","NA"
"-71.39","46.79","QUEBEC INTL A","7016293","2022-01-13 10:00","2022","01","13","10:00","","-9.2","","-12.8","","76","","","","7","","19","","40.2","","100.93","","","","-17","","Snow"
"-71.39","46.79","QUEBEC INTL A","7016293","2022-01-13 11:00","2022","01","13","11:00","","-9.0","","-12.2","","78","","","","6","","23","","24.1","","100.84","","","","-17","","Snow"
"-71.39","46.79","QUEBEC INTL A","7016293","2022-01-13 12:00","2022","01","13","12:00","","-8.9","","-12.0","","78","","","","6","","22","","8.1","","100.76","","","","-17","","Snow"
"-71.39","46.79","QUEBEC INTL A","7016293","2022-01-13 13:00","2022","01","13","13:00","","-8.7","","-11.6","","80","","","","7","","22","","9.7","","100.66","","","","-17","","Snow"
"-71.39","46.79","QUEBEC INTL A","7016293","2022-01-13 14:00","2022","01","13","14:00","","-8.7","","-11.3","","82","","","","6","","16","","16.1","","100.65","","","","-15","","Snow"
"-71.39","46.79","QUEBEC INTL A","7016293","2022-01-13 15:00","2022","01","13","15:00","","-8.8","","-11.0","","84","","","","6","","17","","4.0","","100.61","","","","-16","","Snow"
"-71.39","46.79","QUEBEC INTL A","7016293","2022-01-13 16:00","2022","01","13","16:00","","-8.8","","-11.0","","84","","","","7","","18","","19.3","","100.57","","","","-16","","Snow"
"-71.39","46.79","QUEBEC INTL A","7016293","2022-01-13 17:00","2022","01","13","17:00","","-8.8","","-10.6","","87","","","","7","","16","","12.9","","100.54","","","","-16","","Snow"
"-71.39","46.79","QUEBEC INTL A","7016293","2022-01-13 18:00","2022","01","13","18:00","","-8.7","","-10.2","","89","","","","7","","12","","9.7","","100.56","","","","-14","","Snow"
"-71.39","46.79","QUEBEC INTL A","7016293","2022-01-13 19:00","2022","01","13","19:00","","-8.6","","-9.8","","91","","","","5","","7","","4.8","","100.58","","","","-12","","Freezing Drizzle,Snow"
"-71.39","46.79","QUEBEC INTL A","7016293","2022-01-13 20:00","2022","01","13","20:00","","-8.3","","-9.3","","92","","","","5","","7","","4.8","","100.56","","","","-12","","Snow,Snow Grains"
"-71.39","46.79","QUEBEC INTL A","7016293","2022-01-13 21:00","2022","01","13","21:00","","-8.1","","-9.0","","93","","","","7","","8","","4.8","","100.55","","","","-12","","Snow,Snow Grains"
"-71.39","46.79","QUEBEC INTL A","7016293","2022-01-13 22:00","2022","01","13","22:00","","-7.9","","-8.8","","94","","","","5","","10","","4.8","","100.50","","","","-13","","Freezing Drizzle,Snow,Fog"
"-71.39","46.79","QUEBEC INTL A","7016293","2022-01-13 23:00","2022","01","13","23:00","","-7.8","","-8.7","","93","","","","5","","8","","9.7","","100.50","","","","-12","","Snow,Fog,Haze"
"-71.39","46.79","QUEBEC INTL A","7016293","2022-01-14 00:00","2022","01","14","00:00","","-7.6","","-8.4","","94","","","","5","","6","","4.8","","100.43","","","","-11","","Freezing Drizzle,Snow,Fog"
"-71.39","46.79","QUEBEC INTL A","7016293","2022-01-14 01:00","2022","01","14","01:00","","-7.6","","-8.5","","93","","","","3","","3","","4.0","","100.44","","","","-9","","Snow,Fog"
"-71.39","46.79","QUEBEC INTL A","7016293","2022-01-14 02:00","2022","01","14","02:00","","-7.6","","-8.7","","92","","","","34","","4","","8.1","","100.44","","","","-10","","Snow,Haze"
"-71.39","46.79","QUEBEC INTL A","7016293","2022-01-14 03:00","2022","01","14","03:00","","-7.5","","-8.7","","91","","","","","","0","","11.3","","100.46","","","","","","Snow"
"-71.39","46.79","QUEBEC INTL A","7016293","2022-01-14 04:00","2022","01","14","04:00","","-7.5","","-8.6","","92","","","","25","","7","","6.4","","100.52","","","","-11","","Snow,Haze"
"-71.39","46.79","QUEBEC INTL A","7016293","2022-01-14 05:00","2022","01","14","05:00","","-7.5","","-8.7","","91","","","","22","","8","","9.7","","100.56","","","","-12","","Snow"
"-71.39","46.79","QUEBEC INTL A","7016293","2022-01-14 06:00","2022","01","14","06:00","","-7.4","","-9.0","","88","","","","25","","15","","17.7","","100.64","","","","-14","","NA"
"-71.39","46.79","QUEBEC INTL A","7016293","2022-01-14 07:00","2022","01","14","07:00","","-8.2","","-9.7","","89","","","","23","","12","","17.7","","100.71","","","","-14","","Mostly Cloudy"
"-71.39","46.79","QUEBEC INTL A","7016293","2022-01-14 08:00","2022","01","14","08:00","","-8.0","","-11.6","","75","","","","30","","8","","48.3","","100.86","","","","-12","","NA"
"-71.39","46.79","QUEBEC INTL A","7016293","2022-01-14 09:00","2022","01","14","09:00","","-8.3","","-12.8","","70","","","","33","","11","","48.3","","101.00","","","","-14","","NA"
"-71.39","46.79","QUEBEC INTL A","7016293","2022-01-14 10:00","2022","01","14","10:00","","-9.8","","-15.3","","65","","","","34","","16","","48.3","","101.09","","","","-17","","Mainly Clear"
"-71.39","46.79","QUEBEC INTL A","7016293","2022-01-14 11:00","2022","01","14","11:00","","-10.5","","-17.6","","56","","","","36","","16","","48.3","","101.14","","","","-18","","NA"
"-71.39","46.79","QUEBEC INTL A","7016293","2022-01-14 12:00","2022","01","14","12:00","","-10.2","","-18.0","","53","","","","35","","12","","40.2","","101.14","","","","-16","","NA"
"-71.39","46.79","QUEBEC INTL A","7016293","2022-01-14 13:00","2022","01","14","13:00","","-9.9","","-19.0","","48","","","","34","","12","","40.2","","101.14","","","","-16","","Mostly Cloudy"
"-71.39","46.79","QUEBEC INTL A","7016293","2022-01-14 14:00","2022","01","14","14:00","","-10.4","","-19.5","","48","","","","36","","8","","40.2","","101.21","","","","-15","","NA"
"-71.39","46.79","QUEBEC INTL A","7016293","2022-01-14 15:00","2022","01","14","15:00","","-11.2","","-20.9","","45","","","","1","","11","","40.2","","101.29","","","","-17","","NA"
"-71.39","46.79","QUEBEC INTL A","7016293","2022-01-14 16:00","2022","01","14","16:00","","-12.7","","-21.5","","48","","","","34","","10","","48.3","","101.33","","","","-18","","Mostly Cloudy"
"-71.39","46.79","QUEBEC INTL A","7016293","2022-01-14 17:00","2022","01","14","17:00","","-15.3","","-23.5","","50","","","","34","","12","","24.1","","101.43","","","","-22","","NA"
"-71.39","46.79","QUEBEC INTL A","7016293","2022-01-14 18:00","2022","01","14","18:00","","-17.2","","-25.5","","49","","","","34","","15","","24.1","","101.38","","","","-26","","NA"
"-71.39","46.79","QUEBEC INTL A","7016293","2022-01-14 19:00","2022","01","14","19:00","","-18.4","","-26.8","","49","","","","36","","16","","24.1","","101.48","","","","-27","","Clear"
"-71.39","46.79","QUEBEC INTL A","7016293","2022-01-14 20:00","2022","01","14","20:00","","-19.2","","-28.2","","46","","","","1","","15","","24.1","","101.60","","","","-28","","NA"
"-71.39","46.79","QUEBEC INTL A","7016293","2022-01-14 21:00","2022","01","14","21:00","","-20.7","","-28.5","","50","","","","36","","13","","24.1","","101.59","","","","-29","","NA"
"-71.39","46.79","QUEBEC INTL A","7016293","2022-01-14 22:00","2022","01","14","22:00","","-21.8","","-29.5","","51","","","","35","","12","","24.1","","101.50","","","","-30","","Clear"
"-71.39","46.79","QUEBEC INTL A","7016293","2022-01-14 23:00","2022","01","14","23:00","","-22.6","","-30.4","","50","","","","33","","14","","24.1","","101.46","","","","-32","","NA"
"-71.39","46.79","QUEBEC INTL A","7016293","2022-01-15 00:00","2022","01","15","00:00","","-24.7","","-31.1","","56","","","","28","","7","","24.1","","101.38","","","","-31","","NA"
"-71.39","46.79","QUEBEC INTL A","7016293","2022-01-15 01:00","2022","01","15","01:00","","-25.6","","-31.5","","59","","","","28","","8","","24.1","","101.37","","","","-33","","Clear"
"-71.39","46.79","QUEBEC INTL A","7016293","2022-01-15 02:00","2022","01","15","02:00","","-25.0","","-31.5","","56","","","","28","","8","","24.1","","101.39","","","","-32","","NA"
"-71.39","46.79","QUEBEC INTL A","7016293","2022-01-15 03:00","2022","01","15","03:00","","-24.4","","-31.6","","52","","","","31","","11","","24.1","","101.38","","","","-33","","NA"
"-71.39","46.79","QUEBEC INTL A","7016293","2022-01-15 04:00","2022","01","15","04:00","","-25.1","","-32.0","","53","","","","30","","14","","24.1","","101.40","","","","-35","","Clear"
"-71.39","46.79","QUEBEC INTL A","7016293","2022-01-15 05:00","2022","01","15","05:00","","-25.7","","-32.6","","53","","","","29","","10","","24.1","","101.42","","","","-34","","NA"
"-71.39","46.79","QUEBEC INTL A","7016293","2022-01-15 06:00","2022","01","15","06:00","","-25.9","","-32.8","","53","","","","28","","5","","24.1","","101.52","","","","-31","","NA"
"-71.39","46.79","QUEBEC INTL A","7016293","2022-01-15 07:00","2022","01","15","07:00","","-25.8","","-33.4","","50","","","","28","","7","","32.2","","101.57","","","","-32","","Clear"
"-71.39","46.79","QUEBEC INTL A","7016293","2022-01-15 08:00","2022","01","15","08:00","","-25.6","","-33.5","","49","","","","27","","8","","48.3","","101.60","","","","-33","","NA"
"-71.39","46.79","QUEBEC INTL A","7016293","2022-01-15 09:00","2022","01","15","09:00","","-24.5","","-32.9","","47","","","","28","","13","","48.3","","101.61","","","","-34","","NA"
"-71.39","46.79","QUEBEC INTL A","7016293","2022-01-15 10:00","2022","01","15","10:00","","-22.4","","-32.2","","42","","","","30","","8","","48.3","","101.60","","","","-29","","Clear"
"-71.39","46.79","QUEBEC INTL A","7016293","2022-01-15 11:00","2022","01","15","11:00","","-20.6","","-30.1","","43","","","","27","","13","","48.3","","101.58","","","","-29","","NA"
"-71.39","46.79","QUEBEC INTL A","7016293","2022-01-15 12:00","2022","01","15","12:00","","-19.6","","-29.1","","44","","","","28","","12","","48.3","","101.50","","","","-28","","NA"
"-71.39","46.79","QUEBEC INTL A","7016293","2022-01-15 13:00","2022","01","15","13:00","","-18.6","","-28.9","","41","","","","30","","18","","48.3","","101.51","","","","-28","","Clear"
"-71.39","46.79","QUEBEC INTL A","7016293","2022-01-15 14:00","2022","01","15","14:00","","-17.9","","-28.1","","42","","","","29","","16","","48.3","","101.51","","","","-27","","Blowing Snow"
"-71.39","46.79","QUEBEC INTL A","7016293","2022-01-15 15:00","2022","01","15","15:00","","-17.7","","-27.2","","44","","","","29","","10","","48.3","","101.55","","","","-24","","Blowing Snow"
"-71.39","46.79","QUEBEC INTL A","7016293","2022-01-15 16:00","2022","01","15","16:00","","-17.9","","-26.6","","47","","","","28","","15","","48.3","","101.60","","","","-26","","Clear"
"-71.39","46.79","QUEBEC INTL A","7016293","2022-01-15 17:00","2022","01","15","17:00","","-18.6","","-26.0","","53","","","","29","","9","","48.3","","101.70","","","","-25","","NA"
"-71.39","46.79","QUEBEC INTL A","7016293","2022-01-15 18:00","2022","01","15","18:00","","-18.8","","-25.9","","54","","","","29","","10","","24.1","","101.71","","","","-26","","NA"
"-71.39","46.79","QUEBEC INTL A","7016293","2022-01-15 19:00","2022","01","15","19:00","","-20.8","","-26.3","","62","","","","23","","18","","24.1","","101.74","","","","-31","","Mainly Clear"
"-71.39","46.79","QUEBEC INTL A","7016293","2022-01-15 20:00","2022","01","15","20:00","","-21.3","","-26.6","","63","","","","24","","18","","24.1","","101.76","","","","-32","","NA"
"-71.39","46.79","QUEBEC INTL A","7016293","2022-01-15 21:00","2022","01","15","21:00","","-22.5","","-27.1","","67","","","","23","","21","","24.1","","101.75","","","","-34","","NA"
"-71.39","46.79","QUEBEC INTL A","7016293","2022-01-15 22:00","2022","01","15","22:00","","-22.3","","-26.9","","67","","","","24","","27","","24.1","","101.76","","","","-35","","Clear"
"-71.39","46.79","QUEBEC INTL A","7016293","2022-01-15 23:00","2022","01","15","23:00","","-22.9","","-27.4","","67","","","","23","","20","","24.1","","101.82","","","","-34","","NA"
"-71.39","46.79","QUEBEC INTL A","7016293","2022-01-16 00:00","2022","01","16","00:00","","-23.5","","-28.0","","67","","","","24","","22","","24.1","","101.83","","","","-35","","NA"
"-71.39","46.79","QUEBEC INTL A","7016293","2022-01-16 01:00","2022","01","16","01:00","","-23.9","","-28.5","","66","","","","25","","24","","24.1","","101.93","","","","-36","","Clear"
"-71.39","46.79","QUEBEC INTL A","7016293","2022-01-16 02:00","2022","01","16","02:00","","-24.0","","-28.9","","65","","","","25","","22","","24.1","","102.02","","","","-36","","NA"
"-71.39","46.79","QUEBEC INTL A","7016293","2022-01-16 03:00","2022","01","16","03:00","","-24.1","","-29.0","","65","","","","24","","20","","24.1","","102.01","","","","-36","","NA"
"-71.39","46.79","QUEBEC INTL A","7016293","2022-01-16 04:00","2022","01","16","04:00","","-24.0","","-29.1","","64","","","","22","","22","","24.1","","102.01","","","","-36","","Clear"
"-71.39","46.79","QUEBEC INTL A","7016293","2022-01-16 05:00","2022","01","16","05:00","","-24.1","","-29.0","","65","","","","24","","20","","24.1","","102.02","","","","-36","","NA"
"-71.39","46.79","QUEBEC INTL A","7016293","2022-01-16 06:00","2022","01","16","06:00","","-24.5","","-28.3","","71","","","","23","","20","","24.1","","102.06","","","","-36","","NA"
"-71.39","46.79","QUEBEC INTL A","7016293","2022-01-16 07:00","2022","01","16","07:00","","-25.6","","-28.1","","80","","","","25","","22","","48.3","","102.04","","","","-38","","Clear"
"-71.39","46.79","QUEBEC INTL A","7016293","2022-01-16 08:00","2022","01","16","08:00","","-26.5","","-29.2","","78","","","","26","","18","","40.2","","102.11","","","","-38","","NA"
"-71.39","46.79","QUEBEC INTL A","7016293","2022-01-16 09:00","2022","01","16","09:00","","-24.9","","-28.2","","74","","","","25","","17","","40.2","","102.11","","","","-36","","NA"
"-71.39","46.79","QUEBEC INTL A","7016293","2022-01-16 10:00","2022","01","16","10:00","","-23.1","","-27.1","","70","","","","26","","14","","48.3","","102.07","","","","-33","","Clear"
"-71.39","46.79","QUEBEC INTL A","7016293","2022-01-16 11:00","2022","01","16","11:00","","-21.4","","-26.1","","66","","","","25","","16","","48.3","","102.02","","","","-31","","NA"
"-71.39","46.79","QUEBEC INTL A","7016293","2022-01-16 12:00","2022","01","16","12:00","","-20.0","","-25.8","","61","","","","25","","16","","48.3","","101.91","","","","-29","","NA"
"-71.39","46.79","QUEBEC INTL A","7016293","2022-01-16 13:00","2022","01","16","13:00","","-18.8","","-25.7","","55","","","","25","","14","","48.3","","101.82","","","","-27","","Clear"
"-71.39","46.79","QUEBEC INTL A","7016293","2022-01-16 14:00","2022","01","16","14:00","","-18.1","","-25.4","","53","","","","25","","12","","48.3","","101.75","","","","-26","","NA"
"-71.39","46.79","QUEBEC INTL A","7016293","2022-01-16 15:00","2022","01","16","15:00","","-17.6","","-25.7","","50","","","","22","","5","","48.3","","101.65","","","","-22","","NA"
"-71.39","46.79","QUEBEC INTL A","7016293","2022-01-16 16:00","2022","01","16","16:00","","-18.2","","-25.5","","54","","","","","","0","","32.2","","101.56","","","","","","Mainly Clear"
"-71.39","46.79","QUEBEC INTL A","7016293","2022-01-16 17:00","2022","01","16","17:00","","-19.8","","-25.9","","59","","","","","","0","","40.2","","101.49","","","","","","NA"
"-71.39","46.79","QUEBEC INTL A","7016293","2022-01-16 18:00","2022","01","16","18:00","","-20.5","","-25.9","","63","","","","36","","7","","24.1","","101.45","","","","-26","","NA"
"-71.39","46.79","QUEBEC INTL A","7016293","2022-01-16 19:00","2022","01","16","19:00","","-18.8","","-25.3","","57","","","","1","","14","","24.1","","101.34","","","","-27","","Clear"
"-71.39","46.79","QUEBEC INTL A","7016293","2022-01-16 20:00","2022","01","16","20:00","","-18.6","","-25.0","","58","","","","2","","11","","24.1","","101.29","","","","-26","","NA"
"-71.39","46.79","QUEBEC INTL A","7016293","2022-01-16 21:00","2022","01","16","21:00","","-18.3","","-25.1","","56","","","","2","","15","","24.1","","101.23","","","","-27","","NA"
"-71.39","46.79","QUEBEC INTL A","7016293","2022-01-16 22:00","2022","01","16","22:00","","-18.8","","-24.6","","61","","","","1","","12","","24.1","","101.07","","","","-27","","Mostly Cloudy"
"-71.39","46.79","QUEBEC INTL A","7016293","2022-01-16 23:00","2022","01","16","23:00","","-18.1","","-24.2","","59","","","","1","","12","","24.1","","101.07","","","","-26","","NA"
"-71.39","46.79","QUEBEC INTL A","7016293","2022-01-17 00:00","2022","01","17","00:00","","-18.0","","-23.8","","61","","","","1","","8","","24.1","","101.00","","","","-24","","NA"
"-71.39","46.79","QUEBEC INTL A","7016293","2022-01-17 01:00","2022","01","17","01:00","","-17.2","","-23.3","","60","","","","36","","13","","24.1","","100.88","","","","-25","","Cloudy"
"-71.39","46.79","QUEBEC INTL A","7016293","2022-01-17 02:00","2022","01","17","02:00","","-16.1","","-22.2","","60","","","","35","","15","","24.1","","100.79","","","","-24","","NA"
"-71.39","46.79","QUEBEC INTL A","7016293","2022-01-17 03:00","2022","01","17","03:00","","-16.1","","-22.1","","60","","","","2","","8","","24.1","","100.72","","","","-22","","NA"
"-71.39","46.79","QUEBEC INTL A","7016293","2022-01-17 04:00","2022","01","17","04:00","","-16.8","","-21.4","","68","","","","3","","8","","24.1","","100.54","","","","-22","","Cloudy"
"-71.39","46.79","QUEBEC INTL A","7016293","2022-01-17 05:00","2022","01","17","05:00","","-15.5","","-20.0","","69","","","","5","","7","","24.1","","100.41","","","","-20","","NA"
"-71.39","46.79","QUEBEC INTL A","7016293","2022-01-17 06:00","2022","01","17","06:00","","-13.5","","-17.9","","70","","","","3","","11","","24.1","","100.28","","","","-20","","NA"
"-71.39","46.79","QUEBEC INTL A","7016293","2022-01-17 07:00","2022","01","17","07:00","","-11.1","","-13.9","","80","","","","6","","26","","24.1","","100.04","","","","-20","","Cloudy"
"-71.39","46.79","QUEBEC INTL A","7016293","2022-01-17 08:00","2022","01","17","08:00","","-10.0","","-12.8","","80","","","","6","","31","","4.0","","99.90","","","","-20","","Snow"
"-71.39","46.79","QUEBEC INTL A","7016293","2022-01-17 09:00","2022","01","17","09:00","","-9.2","","-11.2","","86","","","","6","","30","","3.2","","99.72","","","","-18","","Snow,Blowing Snow"
"-71.39","46.79","QUEBEC INTL A","7016293","2022-01-17 10:00","2022","01","17","10:00","","-7.1","","-8.3","","91","","","","6","","44","","0.6","","99.37","","","","-17","","Moderate Snow,Blowing Snow"
"-71.39","46.79","QUEBEC INTL A","7016293","2022-01-17 11:00","2022","01","17","11:00","","-6.4","","-7.6","","91","","","","6","","44","","1.0","","99.01","","","","-16","","Snow,Blowing Snow"
"-71.39","46.79","QUEBEC INTL A","7016293","2022-01-17 12:00","2022","01","17","12:00","","-5.4","","-6.9","","89","","","","7","","49","","9.7","","98.56","","","","-15","","Snow,Blowing Snow"
"-71.39","46.79","QUEBEC INTL A","7016293","2022-01-17 13:00","2022","01","17","13:00","","-5.6","","-7.1","","89","","","","7","","49","","2.0","","98.24","","","","-16","","Snow,Blowing Snow"
"-71.39","46.79","QUEBEC INTL A","7016293","2022-01-17 14:00","2022","01","17","14:00","","-5.0","","-7.2","","85","","","","7","","36","","4.8","","97.90","","","","-14","","Snow,Blowing Snow"
"-71.39","46.79","QUEBEC INTL A","7016293","2022-01-17 15:00","2022","01","17","15:00","","-5.1","","-7.0","","87","","","","7","","64","","4.8","","97.69","","","","-16","","Snow,Blowing Snow"
"-71.39","46.79","QUEBEC INTL A","7016293","2022-01-17 16:00","2022","01","17","16:00","","-4.4","","-7.2","","81","","","","7","","44","","3.2","","97.52","","","","-14","","Snow,Blowing Snow"
"-71.39","46.79","QUEBEC INTL A","7016293","2022-01-17 17:00","2022","01","17","17:00","","-4.7","","-6.7","","85","","","","7","","44","","3.2","","97.40","","","","-14","","Snow,Blowing Snow"
"-71.39","46.79","QUEBEC INTL A","7016293","2022-01-17 18:00","2022","01","17","18:00","","-4.9","","-6.5","","89","","","","7","","44","","4.8","","97.25","","","","-14","","Snow"
"-71.39","46.79","QUEBEC INTL A","7016293","2022-01-17 19:00","2022","01","17","19:00","","-4.8","","-6.2","","90","","","","8","","44","","1.0","","97.19","","","","-14","","Snow"
"-71.39","46.79","QUEBEC INTL A","7016293","2022-01-17 20:00","2022","01","17","20:00","","-4.2","","-5.9","","88","","","","7","","18","","4.8","","97.28","","","","-10","","Snow"
"-71.39","46.79","QUEBEC INTL A","7016293","2022-01-17 21:00","2022","01","17","21:00","","-4.6","","-6.0","","90","","","","9","","18","","4.8","","97.27","","","","-11","","Snow"
"-71.39","46.79","QUEBEC INTL A","7016293","2022-01-17 22:00","2022","01","17","22:00","","-4.6","","-5.9","","91","","","","","","0","","6.4","","97.40","","","","","","Snow"
"-71.39","46.79","QUEBEC INTL A","7016293","2022-01-17 23:00","2022","01","17","23:00","","-4.6","","-5.5","","93","","","","24","","14","","4.8","","97.49","","","","-10","","Freezing Drizzle,Snow"
"-71.39","46.79","QUEBEC INTL A","7016293","2022-01-18 00:00","2022","01","18","00:00","","-7.1","","-8.9","","87","","","","24","","26","","6.4","","97.55","","","","-15","","Snow,Blowing Snow"
"-71.39","46.79","QUEBEC INTL A","7016293","2022-01-18 01:00","2022","01","18","01:00","","-7.7","","-10.0","","84","","","","24","","26","","14.5","","97.70","","","","-16","","Snow,Blowing Snow"
"-71.39","46.79","QUEBEC INTL A","7016293","2022-01-18 02:00","2022","01","18","02:00","","-8.7","","-11.9","","78","","","","25","","29","","24.1","","97.85","","","","-18","","Blowing Snow"
"-71.39","46.79","QUEBEC INTL A","7016293","2022-01-18 03:00","2022","01","18","03:00","","-9.6","","-13.0","","76","","","","24","","25","","24.1","","98.10","","","","-18","","NA"
"-71.39","46.79","QUEBEC INTL A","7016293","2022-01-18 04:00","2022","01","18","04:00","","-9.7","","-13.4","","74","","","","26","","25","","24.1","","98.30","","","","-18","","Mostly Cloudy"
"-71.39","46.79","QUEBEC INTL A","7016293","2022-01-18 05:00","2022","01","18","05:00","","-9.9","","-14.4","","70","","","","26","","21","","24.1","","98.44","","","","-18","","NA"
"-71.39","46.79","QUEBEC INTL A","7016293","2022-01-18 06:00","2022","01","18","06:00","","-10.3","","-16.0","","63","","","","27","","27","","24.1","","98.69","","","","-19","","NA"
"-71.39","46.79","QUEBEC INTL A","7016293","2022-01-18 07:00","2022","01","18","07:00","","-12.0","","-16.0","","73","","","","26","","29","","24.1","","98.82","","","","-22","","Mostly Cloudy"
"-71.39","46.79","QUEBEC INTL A","7016293","2022-01-18 08:00","2022","01","18","08:00","","-13.4","","-18.1","","68","","","","25","","31","","24.1","","98.97","","","","-24","","Blowing Snow"
"-71.39","46.79","QUEBEC INTL A","7016293","2022-01-18 09:00","2022","01","18","09:00","","-13.4","","-19.2","","62","","","","27","","33","","24.1","","99.15","","","","-24","","Blowing Snow"
"-71.39","46.79","QUEBEC INTL A","7016293","2022-01-18 10:00","2022","01","18","10:00","","-13.8","","-20.2","","59","","","","27","","26","","24.1","","99.30","","","","-24","","Blowing Snow"
"-71.39","46.79","QUEBEC INTL A","7016293","2022-01-18 11:00","2022","01","18","11:00","","-13.2","","-20.0","","57","","","","27","","27","","24.1","","99.40","","","","-23","","NA"
"-71.39","46.79","QUEBEC INTL A","7016293","2022-01-18 12:00","2022","01","18","12:00","","-13.8","","-20.3","","58","","","","26","","28","","40.2","","99.46","","","","-24","","NA"
"-71.39","46.79","QUEBEC INTL A","7016293","2022-01-18 13:00","2022","01","18","13:00","","-13.8","","-21.4","","53","","","","26","","27","","24.1","","99.58","","","","-24","","Blowing Snow"
"-71.39","46.79","QUEBEC INTL A","7016293","2022-01-18 14:00","2022","01","18","14:00","","-14.1","","-22.5","","50","","","","27","","19","","24.1","","99.73","","","","-23","","Blowing Snow"
"-71.39","46.79","QUEBEC INTL A","7016293","2022-01-18 15:00","2022","01","18","15:00","","-15.0","","-23.0","","51","","","","27","","24","","24.1","","99.94","","","","-25","","Blowing Snow"
"-71.39","46.79","QUEBEC INTL A","7016293","2022-01-18 16:00","2022","01","18","16:00","","-16.1","","-23.6","","53","","","","27","","17","","24.1","","100.15","","","","-25","","Blowing Snow"
"-71.39","46.79","QUEBEC INTL A","7016293","2022-01-18 17:00","2022","01","18","17:00","","-17.5","","-24.1","","57","","","","27","","23","","24.1","","100.34","","","","-28","","Blowing Snow"
"-71.39","46.79","QUEBEC INTL A","7016293","2022-01-18 18:00","2022","01","18","18:00","","-18.4","","-24.2","","61","","","","25","","31","","24.1","","100.57","","","","-31","","NA"
"-71.39","46.79","QUEBEC INTL A","7016293","2022-01-18 19:00","2022","01","18","19:00","","-18.9","","-24.8","","60","","","","26","","23","","24.1","","100.71","","","","-30","","Clear"
"-71.39","46.79","QUEBEC INTL A","7016293","2022-01-18 20:00","2022","01","18","20:00","","-19.6","","-25.1","","62","","","","26","","25","","24.1","","100.81","","","","-31","","NA"
"-71.39","46.79","QUEBEC INTL A","7016293","2022-01-18 21:00","2022","01","18","21:00","","-20.6","","-25.9","","63","","","","25","","21","","24.1","","100.88","","","","-31","","NA"
"-71.39","46.79","QUEBEC INTL A","7016293","2022-01-18 22:00","2022","01","18","22:00","","-20.9","","-26.1","","64","","","","26","","22","","24.1","","100.98","","","","-32","","Clear"
"-71.39","46.79","QUEBEC INTL A","7016293","2022-01-18 23:00","2022","01","18","23:00","","-21.2","","-26.5","","63","","","","27","","14","","24.1","","101.06","","","","-30","","NA"
"-71.39","46.79","QUEBEC INTL A","7016293","2022-01-19 00:00","2022","01","19","00:00","","-21.7","","-26.6","","65","","","","23","","12","","24.1","","101.07","","","","-30","","NA"
"-71.39","46.79","QUEBEC INTL A","7016293","2022-01-19 01:00","2022","01","19","01:00","","-22.9","","-27.2","","69","","","","23","","13","","24.1","","101.06","","","","-32","","Clear"
"-71.39","46.79","QUEBEC INTL A","7016293","2022-01-19 02:00","2022","01","19","02:00","","-23.9","","-27.8","","71","","","","25","","11","","24.1","","101.08","","","","-32","","NA"
"-71.39","46.79","QUEBEC INTL A","7016293","2022-01-19 03:00","2022","01","19","03:00","","-24.4","","-27.8","","74","","","","33","","6","","24.1","","101.08","","","","-30","","NA"
"-71.39","46.79","QUEBEC INTL A","7016293","2022-01-19 04:00","2022","01","19","04:00","","-23.4","","-27.4","","70","","","","","","0","","24.1","","101.05","","","","","","Mainly Clear"
"-71.39","46.79","QUEBEC INTL A","7016293","2022-01-19 05:00","2022","01","19","05:00","","-23.1","","-26.9","","71","","","","35","","3","","24.1","","100.98","","","","-26","","NA"
"-71.39","46.79","QUEBEC INTL A","7016293","2022-01-19 06:00","2022","01","19","06:00","","-21.6","","-26.8","","64","","","","3","","5","","24.1","","101.00","","","","-26","","NA"
"-71.39","46.79","QUEBEC INTL A","7016293","2022-01-19 07:00","2022","01","19","07:00","","-21.3","","-26.1","","66","","","","4","","9","","12.9","","100.93","","","","-28","","Cloudy"
"-71.39","46.79","QUEBEC INTL A","7016293","2022-01-19 08:00","2022","01","19","08:00","","-20.5","","-23.5","","77","","","","5","","15","","2.4","","100.81","","","","-30","","Snow"
"-71.39","46.79","QUEBEC INTL A","7016293","2022-01-19 09:00","2022","01","19","09:00","","-19.8","","-22.4","","80","","","","6","","22","","0.6","","100.65","","","","-31","","Moderate Snow"
"-71.39","46.79","QUEBEC INTL A","7016293","2022-01-19 10:00","2022","01","19","10:00","","-19.0","","-21.7","","80","","","","4","","18","","2.4","","100.52","","","","-29","","Snow"
"-71.39","46.79","QUEBEC INTL A","7016293","2022-01-19 11:00","2022","01","19","11:00","","-17.7","","-20.4","","80","","","","6","","23","","1.2","","100.34","","","","-28","","Snow"
"-71.39","46.79","QUEBEC INTL A","7016293","2022-01-19 12:00","2022","01","19","12:00","","-16.6","","-19.3","","80","","","","7","","26","","1.6","","100.18","","","","-27","","Snow"
"-71.39","46.79","QUEBEC INTL A","7016293","2022-01-19 13:00","2022","01","19","13:00","","-15.1","","-17.5","","82","","","","6","","23","","1.6","","100.04","","","","-25","","Snow"
"-71.39","46.79","QUEBEC INTL A","7016293","2022-01-19 14:00","2022","01","19","14:00","","-14.4","","-16.7","","83","","","","7","","28","","2.4","","99.94","","","","-25","","Snow"
"-71.39","46.79","QUEBEC INTL A","7016293","2022-01-19 15:00","2022","01","19","15:00","","-13.9","","-16.1","","84","","","","7","","23","","1.6","","99.90","","","","-23","","Snow"
"-71.39","46.79","QUEBEC INTL A","7016293","2022-01-19 16:00","2022","01","19","16:00","","-13.7","","-15.8","","84","","","","7","","21","","2.4","","99.90","","","","-23","","Snow"
"-71.39","46.79","QUEBEC INTL A","7016293","2022-01-19 17:00","2022","01","19","17:00","","-13.3","","-15.7","","83","","","","6","","22","","6.4","","99.91","","","","-22","","Snow"
"-71.39","46.79","QUEBEC INTL A","7016293","2022-01-19 18:00","2022","01","19","18:00","","-13.2","","-15.4","","83","","","","6","","21","","2.4","","99.86","","","","-22","","Snow"
"-71.39","46.79","QUEBEC INTL A","7016293","2022-01-19 19:00","2022","01","19","19:00","","-12.9","","-15.1","","84","","","","7","","21","","8.1","","99.82","","","","-22","","Snow"
"-71.39","46.79","QUEBEC INTL A","7016293","2022-01-19 20:00","2022","01","19","20:00","","-12.7","","-14.8","","85","","","","2","","9","","2.4","","99.82","","","","-18","","Snow"
"-71.39","46.79","QUEBEC INTL A","7016293","2022-01-19 21:00","2022","01","19","21:00","","-12.5","","-14.2","","87","","","","5","","5","","6.4","","99.85","","","","-16","","Snow"
"-71.39","46.79","QUEBEC INTL A","7016293","2022-01-19 22:00","2022","01","19","22:00","","-12.3","","-14.0","","88","","","","21","","7","","9.7","","99.96","","","","-17","","Snow"
"-71.39","46.79","QUEBEC INTL A","7016293","2022-01-19 23:00","2022","01","19","23:00","","-12.4","","-14.2","","87","","","","31","","6","","9.7","","100.00","","","","-16","","Snow"
"-71.39","46.79","QUEBEC INTL A","7016293","2022-01-20 00:00","2022","01","20","00:00","","-12.3","","-13.8","","89","","","","24","","9","","24.1","","100.11","","","","-18","","Snow"
"-71.39","46.79","QUEBEC INTL A","7016293","2022-01-20 01:00","2022","01","20","01:00","","-11.9","","-13.8","","86","","","","24","","20","","16.1","","100.16","","","","-20","","Snow"
"-71.39","46.79","QUEBEC INTL A","7016293","2022-01-20 02:00","2022","01","20","02:00","","-11.4","","-13.3","","86","","","","24","","24","","16.1","","100.26","","","","-20","","Snow"
"-71.39","46.79","QUEBEC INTL A","7016293","2022-01-20 03:00","2022","01","20","03:00","","-11.5","","-13.5","","85","","","","24","","19","","16.1","","100.36","","","","-20","","Snow"
"-71.39","46.79","QUEBEC INTL A","7016293","2022-01-20 04:00","2022","01","20","04:00","","-11.0","","-14.4","","76","","","","25","","23","","24.1","","100.46","","","","-20","","Snow"
"-71.39","46.79","QUEBEC INTL A","7016293","2022-01-20 05:00","2022","01","20","05:00","","-12.3","","-18.4","","61","","","","29","","13","","24.1","","100.65","","","","-19","","NA"
"-71.39","46.79","QUEBEC INTL A","7016293","2022-01-20 06:00","2022","01","20","06:00","","-14.2","","-21.1","","57","","","","27","","16","","24.1","","100.77","","","","-22","","NA"
"-71.39","46.79","QUEBEC INTL A","7016293","2022-01-20 07:00","2022","01","20","07:00","","-15.9","","-22.2","","59","","","","28","","7","","24.1","","100.97","","","","-21","","Mainly Clear"
"-71.39","46.79","QUEBEC INTL A","7016293","2022-01-20 08:00","2022","01","20","08:00","","-17.3","","-23.8","","58","","","","29","","7","","40.2","","101.15","","","","-23","","NA"
"-71.39","46.79","QUEBEC INTL A","7016293","2022-01-20 09:00","2022","01","20","09:00","","-17.0","","-24.3","","54","","","","29","","12","","40.2","","101.27","","","","-24","","NA"
"-71.39","46.79","QUEBEC INTL A","7016293","2022-01-20 10:00","2022","01","20","10:00","","-16.1","","-24.0","","51","","","","29","","8","","40.2","","101.35","","","","-22","","Clear"
"-71.39","46.79","QUEBEC INTL A","7016293","2022-01-20 11:00","2022","01","20","11:00","","-16.0","","-23.2","","55","","","","25","","21","","40.2","","101.45","","","","-26","","NA"
"-71.39","46.79","QUEBEC INTL A","7016293","2022-01-20 12:00","2022","01","20","12:00","","-15.3","","-22.3","","56","","","","24","","22","","48.3","","101.43","","","","-25","","NA"
"-71.39","46.79","QUEBEC INTL A","7016293","2022-01-20 13:00","2022","01","20","13:00","","-15.0","","-21.6","","58","","","","24","","22","","40.2","","101.49","","","","-25","","Clear"
"-71.39","46.79","QUEBEC INTL A","7016293","2022-01-20 14:00","2022","01","20","14:00","","-14.9","","-21.4","","58","","","","24","","25","","48.3","","101.53","","","","-25","","NA"
"-71.39","46.79","QUEBEC INTL A","7016293","2022-01-20 15:00","2022","01","20","15:00","","-14.9","","-21.4","","58","","","","24","","23","","40.2","","101.58","","","","-25","","Blowing Snow"
"-71.39","46.79","QUEBEC INTL A","7016293","2022-01-20 16:00","2022","01","20","16:00","","-15.4","","-21.8","","59","","","","24","","23","","40.2","","101.66","","","","-25","","Blowing Snow"
"-71.39","46.79","QUEBEC INTL A","7016293","2022-01-20 17:00","2022","01","20","17:00","","-16.7","","-22.2","","63","","","","24","","18","","40.2","","101.72","","","","-26","","NA"
"-71.39","46.79","QUEBEC INTL A","7016293","2022-01-20 18:00","2022","01","20","18:00","","-17.7","","-22.5","","67","","","","24","","21","","24.1","","101.82","","","","-28","","NA"
"-71.39","46.79","QUEBEC INTL A","7016293","2022-01-20 19:00","2022","01","20","19:00","","-18.8","","-23.2","","69","","","","24","","16","","24.1","","101.92","","","","-28","","Clear"
"-71.39","46.79","QUEBEC INTL A","7016293","2022-01-20 20:00","2022","01","20","20:00","","-20.4","","-24.4","","71","","","","26","","21","","24.1","","102.01","","","","-31","","NA"
"-71.39","46.79","QUEBEC INTL A","7016293","2022-01-20 21:00","2022","01","20","21:00","","-20.0","","-24.3","","69","","","","26","","21","","24.1","","102.11","","","","-31","","NA"
"-71.39","46.79","QUEBEC INTL A","7016293","2022-01-20 22:00","2022","01","20","22:00","","-21.0","","-25.4","","68","","","","25","","16","","24.1","","102.20","","","","-31","","Clear"
"-71.39","46.79","QUEBEC INTL A","7016293","2022-01-20 23:00","2022","01","20","23:00","","-21.8","","-25.6","","72","","","","25","","5","","24.1","","102.25","","","","-26","","NA"
"-71.39","46.79","QUEBEC INTL A","7016293","2022-01-21 00:00","2022","01","21","00:00","","-23.3","","-27.0","","72","","","","26","","12","","24.1","","102.28","","","","-32","","NA"
"-71.39","46.79","QUEBEC INTL A","7016293","2022-01-21 01:00","2022","01","21","01:00","","-23.2","","-26.9","","72","","","","26","","8","","24.1","","102.32","","","","-30","","Clear"
"-71.39","46.79","QUEBEC INTL A","7016293","2022-01-21 02:00","2022","01","21","02:00","","-24.1","","-27.6","","73","","","","25","","10","","24.1","","102.42","","","","-32","","NA"
"-71.39","46.79","QUEBEC INTL A","7016293","2022-01-21 03:00","2022","01","21","03:00","","-25.6","","-28.8","","75","","","","26","","9","","24.1","","102.41","","","","-33","","NA"
"-71.39","46.79","QUEBEC INTL A","7016293","2022-01-21 04:00","2022","01","21","04:00","","-27.2","","-30.5","","74","","","","25","","13","","24.1","","102.43","","","","-37","","Clear"
"-71.39","46.79","QUEBEC INTL A","7016293","2022-01-21 05:00","2022","01","21","05:00","","-27.1","","-30.4","","74","","","","28","","7","","24.1","","102.44","","","","-34","","NA"
"-71.39","46.79","QUEBEC INTL A","7016293","2022-01-21 06:00","2022","01","21","06:00","","-27.5","","-31.4","","71","","","","23","","10","","24.1","","102.51","","","","-36","","NA"
"-71.39","46.79","QUEBEC INTL A","7016293","2022-01-21 07:00","2022","01","21","07:00","","-26.8","","-30.7","","70","","","","21","","7","","48.3","","102.63","","","","-34","","Clear"
"-71.39","46.79","QUEBEC INTL A","7016293","2022-01-21 08:00","2022","01","21","08:00","","-28.8","","-31.8","","76","","","","","","0","","48.3","","102.74","","","","","","NA"
"-71.39","46.79","QUEBEC INTL A","7016293","2022-01-21 09:00","2022","01","21","09:00","","-27.2","","-31.4","","68","","","","25","","13","","48.3","","102.81","","","","-37","","NA"
"-71.39","46.79","QUEBEC INTL A","7016293","2022-01-21 10:00","2022","01","21","10:00","","-23.5","","-28.0","","67","","","","23","","21","","48.3","","102.85","","","","-35","","Clear"
"-71.39","46.79","QUEBEC INTL A","7016293","2022-01-21 11:00","2022","01","21","11:00","","-22.5","","-27.2","","66","","","","22","","22","","48.3","","102.88","","","","-34","","NA"
"-71.39","46.79","QUEBEC INTL A","7016293","2022-01-21 12:00","2022","01","21","12:00","","-21.4","","-26.7","","63","","","","21","","20","","48.3","","102.85","","","","-32","","NA"
"-71.39","46.79","QUEBEC INTL A","7016293","2022-01-21 13:00","2022","01","21","13:00","","-20.2","","-25.8","","62","","","","22","","23","","48.3","","102.80","","","","-31","","Clear"
"-71.39","46.79","QUEBEC INTL A","7016293","2022-01-21 14:00","2022","01","21","14:00","","-19.1","","-24.7","","62","","","","22","","21","","48.3","","102.78","","","","-30","","NA"
"-71.39","46.79","QUEBEC INTL A","7016293","2022-01-21 15:00","2022","01","21","15:00","","-19.0","","-24.4","","63","","","","22","","24","","48.3","","102.80","","","","-30","","NA"
"-71.39","46.79","QUEBEC INTL A","7016293","2022-01-21 16:00","2022","01","21","16:00","","-19.5","","-24.9","","63","","","","23","","20","","48.3","","102.81","","","","-30","","Clear"
"-71.39","46.79","QUEBEC INTL A","7016293","2022-01-21 17:00","2022","01","21","17:00","","-20.0","","-25.0","","65","","","","24","","17","","48.3","","102.86","","","","-30","","NA"
"-71.39","46.79","QUEBEC INTL A","7016293","2022-01-21 18:00","2022","01","21","18:00","","-22.0","","-26.1","","70","","","","25","","15","","24.1","","102.89","","","","-32","","NA"
"-71.39","46.79","QUEBEC INTL A","7016293","2022-01-21 19:00","2022","01","21","19:00","","-22.1","","-26.6","","68","","","","25","","16","","24.1","","102.90","","","","-32","","Clear"
"-71.39","46.79","QUEBEC INTL A","7016293","2022-01-21 20:00","2022","01","21","20:00","","-22.7","","-26.3","","73","","","","26","","16","","24.1","","102.87","","","","-33","","NA"
"-71.39","46.79","QUEBEC INTL A","7016293","2022-01-21 21:00","2022","01","21","21:00","","-23.5","","-26.9","","74","","","","23","","15","","24.1","","102.84","","","","-33","","NA"
"-71.39","46.79","QUEBEC INTL A","7016293","2022-01-21 22:00","2022","01","21","22:00","","-24.5","","-28.5","","70","","","","26","","11","","24.1","","102.85","","","","-33","","Clear"
"-71.39","46.79","QUEBEC INTL A","7016293","2022-01-21 23:00","2022","01","21","23:00","","-25.9","","-29.0","","76","","","","25","","8","","24.1","","102.83","","","","-33","","NA"
"-71.39","46.79","QUEBEC INTL A","7016293","2022-01-22 00:00","2022","01","22","00:00","","-28.1","","-30.8","","78","","","","","","0","","24.1","","102.80","","","","","","NA"
"-71.39","46.79","QUEBEC INTL A","7016293","2022-01-22 01:00","2022","01","22","01:00","","-29.6","","-32.5","","76","","","","30","","5","","24.1","","102.77","","","","-35","","Mainly Clear"
"-71.39","46.79","QUEBEC INTL A","7016293","2022-01-22 02:00","2022","01","22","02:00","","-30.2","","-33.1","","76","","","","","","0","","24.1","","102.73","","","","","","NA"
"-71.39","46.79","QUEBEC INTL A","7016293","2022-01-22 03:00","2022","01","22","03:00","","-32.2","","-35.4","","73","","","","","","0","","24.1","","102.68","","","","","","NA"
"-71.39","46.79","QUEBEC INTL A","7016293","2022-01-22 04:00","2022","01","22","04:00","","-31.3","","-34.2","","76","","","","","","0","","24.1","","102.59","","","","","","Mainly Clear"
"-71.39","46.79","QUEBEC INTL A","7016293","2022-01-22 05:00","2022","01","22","05:00","","-31.9","","-35.2","","73","","","","29","","3","","24.1","","102.54","","","","-35","","NA"
"-71.39","46.79","QUEBEC INTL A","7016293","2022-01-22 06:00","2022","01","22","06:00","","-31.9","","-35.1","","74","","","","","","0","","24.1","","102.49","","","","","","NA"
"-71.39","46.79","QUEBEC INTL A","7016293","2022-01-22 07:00","2022","01","22","07:00","","-29.8","","-32.9","","75","","","","28","","4","","0.4","","102.42","","","","-34","","Ice Crystals,Freezing Fog"
"-71.39","46.79","QUEBEC INTL A","7016293","2022-01-22 08:00","2022","01","22","08:00","","-30.1","","-33.3","","75","","","","","","0","","0.4","","102.38","","","","","","Ice Crystals,Freezing Fog"
"-71.39","46.79","QUEBEC INTL A","7016293","2022-01-22 09:00","2022","01","22","09:00","","-27.5","","-29.7","","82","","","","36","","3","","3.2","","102.26","","","","-31","","Fog"
"-71.39","46.79","QUEBEC INTL A","7016293","2022-01-22 10:00","2022","01","22","10:00","","-24.5","","-26.9","","81","","","","26","","4","","32.2","","102.20","","","","-28","","Mainly Clear"
"-71.39","46.79","QUEBEC INTL A","7016293","2022-01-22 11:00","2022","01","22","11:00","","-21.9","","-24.5","","80","","","","21","","4","","32.2","","102.11","","","","-26","","NA"
"-71.39","46.79","QUEBEC INTL A","7016293","2022-01-22 12:00","2022","01","22","12:00","","-19.9","","-23.9","","71","","","","25","","4","","32.2","","101.98","","","","-23","","NA"
"-71.39","46.79","QUEBEC INTL A","7016293","2022-01-22 13:00","2022","01","22","13:00","","-17.7","","-23.0","","64","","","","1","","3","","32.2","","101.77","","","","-20","","Mainly Clear"
"-71.39","46.79","QUEBEC INTL A","7016293","2022-01-22 14:00","2022","01","22","14:00","","-16.8","","-23.1","","59","","","","24","","4","","48.3","","101.66","","","","-20","","NA"
"-71.39","46.79","QUEBEC INTL A","7016293","2022-01-22 15:00","2022","01","22","15:00","","-15.4","","-22.5","","55","","","","19","","7","","48.3","","101.47","","","","-20","","NA"
"-71.39","46.79","QUEBEC INTL A","7016293","2022-01-22 16:00","2022","01","22","16:00","","-16.4","","-22.1","","62","","","","22","","6","","48.3","","101.36","","","","-21","","Mostly Cloudy"
"-71.39","46.79","QUEBEC INTL A","7016293","2022-01-22 17:00","2022","01","22","17:00","","-19.6","","-23.8","","70","","","","31","","3","","40.2","","101.24","","","","-22","","NA"
"-71.39","46.79","QUEBEC INTL A","7016293","2022-01-22 18:00","2022","01","22","18:00","","-19.5","","-23.1","","74","","","","6","","3","","24.1","","101.11","","","","-22","","NA"
"-71.39","46.79","QUEBEC INTL A","7016293","2022-01-22 19:00","2022","01","22","19:00","","-21.3","","-24.2","","78","","","","1","","3","","24.1","","100.95","","","","-24","","Mostly Cloudy"
"-71.39","46.79","QUEBEC INTL A","7016293","2022-01-22 20:00","2022","01","22","20:00","","-21.6","","-24.4","","78","","","","34","","4","","24.1","","100.82","","","","-25","","NA"
"-71.39","46.79","QUEBEC INTL A","7016293","2022-01-22 21:00","2022","01","22","21:00","","-18.1","","-22.5","","69","","","","4","","6","","24.1","","100.65","","","","-23","","NA"
"-71.39","46.79","QUEBEC INTL A","7016293","2022-01-22 22:00","2022","01","22","22:00","","-17.4","","-22.4","","66","","","","36","","7","","24.1","","100.54","","","","-23","","Cloudy"
"-71.39","46.79","QUEBEC INTL A","7016293","2022-01-22 23:00","2022","01","22","23:00","","-16.5","","-21.8","","64","","","","2","","8","","24.1","","100.42","","","","-22","","NA"
"-71.39","46.79","QUEBEC INTL A","7016293","2022-01-23 00:00","2022","01","23","00:00","","-17.1","","-21.7","","68","","","","2","","6","","24.1","","100.28","","","","-22","","NA"
"-71.39","46.79","QUEBEC INTL A","7016293","2022-01-23 01:00","2022","01","23","01:00","","-15.4","","-20.9","","63","","","","1","","5","","24.1","","100.16","","","","-19","","Snow"
"-71.39","46.79","QUEBEC INTL A","7016293","2022-01-23 02:00","2022","01","23","02:00","","-15.0","","-19.3","","70","","","","36","","3","","4.8","","100.10","","","","-17","","Snow"
"-71.39","46.79","QUEBEC INTL A","7016293","2022-01-23 03:00","2022","01","23","03:00","","-14.9","","-17.1","","84","","","","36","","3","","1.6","","99.98","","","","-17","","Snow"
"-71.39","46.79","QUEBEC INTL A","7016293","2022-01-23 04:00","2022","01","23","04:00","","-14.6","","-16.6","","85","","","","36","","7","","1.6","","99.89","","","","-19","","Snow"
"-71.39","46.79","QUEBEC INTL A","7016293","2022-01-23 05:00","2022","01","23","05:00","","-14.3","","-16.2","","85","","","","1","","5","","2.0","","99.80","","","","-18","","Snow"
"-71.39","46.79","QUEBEC INTL A","7016293","2022-01-23 06:00","2022","01","23","06:00","","-13.3","","-15.2","","86","","","","35","","4","","3.2","","99.80","","","","-16","","Snow"
"-71.39","46.79","QUEBEC INTL A","7016293","2022-01-23 07:00","2022","01","23","07:00","","-13.5","","-15.2","","87","","","","21","","6","","1.6","","99.81","","","","-18","","Snow"
"-71.39","46.79","QUEBEC INTL A","7016293","2022-01-23 08:00","2022","01","23","08:00","","-12.7","","-14.6","","86","","","","24","","16","","2.0","","99.77","","","","-20","","Snow"
"-71.39","46.79","QUEBEC INTL A","7016293","2022-01-23 09:00","2022","01","23","09:00","","-12.4","","-14.3","","86","","","","25","","13","","1.6","","99.69","","","","-19","","Snow"
"-71.39","46.79","QUEBEC INTL A","7016293","2022-01-23 10:00","2022","01","23","10:00","","-11.2","","-13.5","","83","","","","24","","16","","9.7","","99.66","","","","-18","","Snow"
"-71.39","46.79","QUEBEC INTL A","7016293","2022-01-23 11:00","2022","01","23","11:00","","-10.2","","-13.5","","77","","","","25","","29","","24.1","","99.61","","","","-20","","Snow"
"-71.39","46.79","QUEBEC INTL A","7016293","2022-01-23 12:00","2022","01","23","12:00","","-9.9","","-13.6","","75","","","","24","","23","","24.1","","99.56","","","","-18","","NA"
"-71.39","46.79","QUEBEC INTL A","7016293","2022-01-23 13:00","2022","01","23","13:00","","-9.9","","-13.6","","75","","","","23","","25","","19.3","","99.57","","","","-19","","Mostly Cloudy"
"-71.39","46.79","QUEBEC INTL A","7016293","2022-01-23 14:00","2022","01","23","14:00","","-8.9","","-14.0","","67","","","","22","","25","","24.1","","99.57","","","","-17","","NA"
"-71.39","46.79","QUEBEC INTL A","7016293","2022-01-23 15:00","2022","01","23","15:00","","-9.4","","-13.9","","70","","","","24","","21","","32.2","","99.63","","","","-17","","Snow Showers,Blowing Snow"
"-71.39","46.79","QUEBEC INTL A","7016293","2022-01-23 16:00","2022","01","23","16:00","","-10.5","","-13.8","","77","","","","26","","16","","16.1","","99.70","","","","-18","","Snow Showers,Blowing Snow"
"-71.39","46.79","QUEBEC INTL A","7016293","2022-01-23 17:00","2022","01","23","17:00","","-12.2","","-18.6","","60","","","","27","","11","","19.3","","99.77","","","","-18","","NA"
"-71.39","46.79","QUEBEC INTL A","7016293","2022-01-23 18:00","2022","01","23","18:00","","-13.0","","-18.9","","62","","","","29","","9","","24.1","","99.84","","","","-18","","NA"
"-71.39","46.79","QUEBEC INTL A","7016293","2022-01-23 19:00","2022","01","23","19:00","","-14.2","","-20.2","","61","","","","28","","9","","24.1","","99.91","","","","-20","","Clear"
"-71.39","46.79","QUEBEC INTL A","7016293","2022-01-23 20:00","2022","01","23","20:00","","-15.6","","-21.6","","61","","","","22","","6","","24.1","","100.00","","","","-20","","NA"
"-71.39","46.79","QUEBEC INTL A","7016293","2022-01-23 21:00","2022","01","23","21:00","","-16.5","","-22.2","","62","","","","30","","7","","24.1","","100.04","","","","-22","","NA"
"-71.39","46.79","QUEBEC INTL A","7016293","2022-01-23 22:00","2022","01","23","22:00","","-18.7","","-23.5","","67","","","","26","","7","","24.1","","100.11","","","","-24","","Clear"
"-71.39","46.79","QUEBEC INTL A","7016293","2022-01-23 23:00","2022","01","23","23:00","","-21.7","","-24.7","","77","","","","25","","5","","24.1","","100.13","","","","-26","","NA"
"-71.39","46.79","QUEBEC INTL A","7016293","2022-01-24 00:00","2022","01","24","00:00","","-23.1","","-25.5","","81","","","","26","","7","","24.1","","100.18","","","","-29","","NA"
"-71.39","46.79","QUEBEC INTL A","7016293","2022-01-24 01:00","2022","01","24","01:00","","-24.3","","-26.5","","82","","","","25","","11","","24.1","","100.21","","","","-33","","Clear"
"-71.39","46.79","QUEBEC INTL A","7016293","2022-01-24 02:00","2022","01","24","02:00","","-25.5","","-28.4","","77","","","","28","","5","","24.1","","100.21","","","","-31","","NA"
"-71.39","46.79","QUEBEC INTL A","7016293","2022-01-24 03:00","2022","01","24","03:00","","-22.0","","-25.2","","75","","","","27","","8","","24.1","","100.24","","","","-29","","NA"
"-71.39","46.79","QUEBEC INTL A","7016293","2022-01-24 04:00","2022","01","24","04:00","","-24.7","","-27.6","","77","","","","28","","4","","24.1","","100.26","","","","-29","","Clear"
"-71.39","46.79","QUEBEC INTL A","7016293","2022-01-24 05:00","2022","01","24","05:00","","-28.2","","-30.8","","79","","","","","","0","","24.1","","100.35","","","","","","NA"
"-71.39","46.79","QUEBEC INTL A","7016293","2022-01-24 06:00","2022","01","24","06:00","","-26.5","","-29.2","","79","","","","20","","4","","24.1","","100.39","","","","-31","","NA"
"-71.39","46.79","QUEBEC INTL A","7016293","2022-01-24 07:00","2022","01","24","07:00","","-28.9","","-31.8","","77","","","","4","","5","","48.3","","100.44","","","","-34","","Clear"
"-71.39","46.79","QUEBEC INTL A","7016293","2022-01-24 08:00","2022","01","24","08:00","","-28.8","","-31.7","","76","","","","6","","8","","48.3","","100.51","","","","-37","","NA"
"-71.39","46.79","QUEBEC INTL A","7016293","2022-01-24 09:00","2022","01","24","09:00","","-25.2","","-27.9","","79","","","","20","","4","","48.3","","100.54","","","","-29","","NA"
"-71.39","46.79","QUEBEC INTL A","7016293","2022-01-24 10:00","2022","01","24","10:00","","-22.5","","-25.2","","80","","","","25","","8","","48.3","","100.59","","","","-29","","Clear"
"-71.39","46.79","QUEBEC INTL A","7016293","2022-01-24 11:00","2022","01","24","11:00","","-19.7","","-22.7","","78","","","","23","","7","","48.3","","100.59","","","","-25","","NA"
"-71.39","46.79","QUEBEC INTL A","7016293","2022-01-24 12:00","2022","01","24","12:00","","-17.2","","-22.5","","64","","","","22","","14","","48.3","","100.54","","","","-25","","NA"
"-71.39","46.79","QUEBEC INTL A","7016293","2022-01-24 13:00","2022","01","24","13:00","","-16.3","","-22.0","","62","","","","22","","16","","48.3","","100.51","","","","-25","","Mostly Cloudy"
"-71.39","46.79","QUEBEC INTL A","7016293","2022-01-24 14:00","2022","01","24","14:00","","-15.8","","-22.9","","55","","","","25","","11","","48.3","","100.44","","","","-23","","NA"
"-71.39","46.79","QUEBEC INTL A","7016293","2022-01-24 15:00","2022","01","24","15:00","","-16.1","","-23.1","","56","","","","25","","13","","48.3","","100.44","","","","-24","","NA"
"-71.39","46.79","QUEBEC INTL A","7016293","2022-01-24 16:00","2022","01","24","16:00","","-16.0","","-22.8","","56","","","","24","","6","","48.3","","100.46","","","","-20","","Mostly Cloudy"
"-71.39","46.79","QUEBEC INTL A","7016293","2022-01-24 17:00","2022","01","24","17:00","","-17.4","","-22.7","","64","","","","34","","5","","40.2","","100.46","","","","-21","","NA"
"-71.39","46.79","QUEBEC INTL A","7016293","2022-01-24 18:00","2022","01","24","18:00","","-17.8","","-23.0","","64","","","","","","0","","24.1","","100.49","","","","","","NA"
"-71.39","46.79","QUEBEC INTL A","7016293","2022-01-24 19:00","2022","01","24","19:00","","-16.8","","-22.5","","62","","","","1","","4","","24.1","","100.53","","","","-20","","Cloudy"
"-71.39","46.79","QUEBEC INTL A","7016293","2022-01-24 20:00","2022","01","24","20:00","","-17.1","","-22.4","","64","","","","36","","8","","24.1","","100.54","","","","-23","","NA"
"-71.39","46.79","QUEBEC INTL A","7016293","2022-01-24 21:00","2022","01","24","21:00","","-17.9","","-22.0","","70","","","","3","","5","","24.1","","100.53","","","","-22","","NA"
"-71.39","46.79","QUEBEC INTL A","7016293","2022-01-24 22:00","2022","01","24","22:00","","-17.3","","-22.2","","66","","","","1","","7","","24.1","","100.51","","","","-23","","Cloudy"
"-71.39","46.79","QUEBEC INTL A","7016293","2022-01-24 23:00","2022","01","24","23:00","","-17.3","","-22.4","","65","","","","36","","8","","24.1","","100.47","","","","-23","","NA"
"-71.39","46.79","QUEBEC INTL A","7016293","2022-01-25 00:00","2022","01","25","00:00","","-16.9","","-21.9","","66","","","","1","","7","","11.3","","100.42","","","","-22","","Snow"
"-71.39","46.79","QUEBEC INTL A","7016293","2022-01-25 01:00","2022","01","25","01:00","","-16.5","","-20.5","","72","","","","36","","8","","11.3","","100.37","","","","-22","","Snow"
"-71.39","46.79","QUEBEC INTL A","7016293","2022-01-25 02:00","2022","01","25","02:00","","-16.1","","-19.1","","78","","","","2","","9","","8.1","","100.31","","","","-22","","Snow"
"-71.39","46.79","QUEBEC INTL A","7016293","2022-01-25 03:00","2022","01","25","03:00","","-15.6","","-18.2","","81","","","","3","","8","","8.1","","100.27","","","","-21","","Snow"
"-71.39","46.79","QUEBEC INTL A","7016293","2022-01-25 04:00","2022","01","25","04:00","","-15.4","","-17.6","","83","","","","2","","4","","3.2","","100.23","","","","-18","","Snow"
"-71.39","46.79","QUEBEC INTL A","7016293","2022-01-25 05:00","2022","01","25","05:00","","-15.0","","-17.1","","84","","","","36","","6","","4.8","","100.18","","","","-19","","Snow"
"-71.39","46.79","QUEBEC INTL A","7016293","2022-01-25 06:00","2022","01","25","06:00","","-14.6","","-16.8","","84","","","","36","","6","","4.8","","100.21","","","","-19","","Snow"
"-71.39","46.79","QUEBEC INTL A","7016293","2022-01-25 07:00","2022","01","25","07:00","","-14.4","","-16.6","","84","","","","35","","7","","3.2","","100.23","","","","-19","","Snow"
"-71.39","46.79","QUEBEC INTL A","7016293","2022-01-25 08:00","2022","01","25","08:00","","-14.2","","-16.4","","83","","","","36","","7","","8.1","","100.29","","","","-19","","Snow"
"-71.39","46.79","QUEBEC INTL A","7016293","2022-01-25 09:00","2022","01","25","09:00","","-13.9","","-17.0","","78","","","","36","","7","","16.1","","100.33","","","","-19","","Snow"
"-71.39","46.79","QUEBEC INTL A","7016293","2022-01-25 10:00","2022","01","25","10:00","","-12.9","","-16.7","","74","","","","5","","6","","24.1","","100.32","","","","-17","","Mainly Clear"
"-71.39","46.79","QUEBEC INTL A","7016293","2022-01-25 11:00","2022","01","25","11:00","","-11.5","","-14.6","","78","","","","36","","3","","32.2","","100.35","","","","-13","","NA"
"-71.39","46.79","QUEBEC INTL A","7016293","2022-01-25 12:00","2022","01","25","12:00","","-10.4","","-13.7","","77","","","","","","0","","32.2","","100.34","","","","","","NA"
"-71.39","46.79","QUEBEC INTL A","7016293","2022-01-25 13:00","2022","01","25","13:00","","-9.2","","-13.6","","71","","","","25","","4","","32.2","","100.31","","","","-11","","Mainly Clear"
"-71.39","46.79","QUEBEC INTL A","7016293","2022-01-25 14:00","2022","01","25","14:00","","-8.8","","-13.4","","70","","","","22","","12","","32.2","","100.30","","","","-14","","NA"
"-71.39","46.79","QUEBEC INTL A","7016293","2022-01-25 15:00","2022","01","25","15:00","","-9.4","","-13.9","","70","","","","22","","15","","32.2","","100.33","","","","-16","","NA"
"-71.39","46.79","QUEBEC INTL A","7016293","2022-01-25 16:00","2022","01","25","16:00","","-8.9","","-13.3","","71","","","","23","","12","","32.2","","100.37","","","","-15","","Mostly Cloudy"
"-71.39","46.79","QUEBEC INTL A","7016293","2022-01-25 17:00","2022","01","25","17:00","","-9.0","","-12.2","","78","","","","24","","14","","24.1","","100.45","","","","-15","","Snow"
"-71.39","46.79","QUEBEC INTL A","7016293","2022-01-25 18:00","2022","01","25","18:00","","-9.3","","-11.5","","84","","","","25","","21","","16.1","","100.55","","","","-17","","Snow"
"-71.39","46.79","QUEBEC INTL A","7016293","2022-01-25 19:00","2022","01","25","19:00","","-9.3","","-11.4","","85","","","","26","","23","","8.1","","100.64","","","","-18","","Snow"
"-71.39","46.79","QUEBEC INTL A","7016293","2022-01-25 20:00","2022","01","25","20:00","","-10.8","","-12.9","","85","","","","25","","18","","24.1","","100.71","","","","-18","","Snow"
"-71.39","46.79","QUEBEC INTL A","7016293","2022-01-25 21:00","2022","01","25","21:00","","-11.0","","-13.6","","81","","","","23","","14","","24.1","","100.79","","","","-18","","NA"
"-71.39","46.79","QUEBEC INTL A","7016293","2022-01-25 22:00","2022","01","25","22:00","","-14.3","","-17.2","","79","","","","26","","16","","24.1","","100.85","","","","-22","","Mainly Clear"
"-71.39","46.79","QUEBEC INTL A","7016293","2022-01-25 23:00","2022","01","25","23:00","","-14.2","","-18.2","","72","","","","26","","16","","24.1","","100.93","","","","-22","","NA"
"-71.39","46.79","QUEBEC INTL A","7016293","2022-01-26 00:00","2022","01","26","00:00","","-14.6","","-18.4","","73","","","","22","","18","","24.1","","101.00","","","","-23","","NA"
"-71.39","46.79","QUEBEC INTL A","7016293","2022-01-26 01:00","2022","01","26","01:00","","-17.3","","-21.1","","73","","","","25","","16","","24.1","","101.03","","","","-26","","Mainly Clear"
"-71.39","46.79","QUEBEC INTL A","7016293","2022-01-26 02:00","2022","01","26","02:00","","-18.0","","-23.6","","62","","","","","","0","","24.1","","101.16","","","","","","NA"
"-71.39","46.79","QUEBEC INTL A","7016293","2022-01-26 03:00","2022","01","26","03:00","","-19.3","","-25.5","","58","","","","30","","7","","24.1","","101.23","","","","-25","","NA"
"-71.39","46.79","QUEBEC INTL A","7016293","2022-01-26 04:00","2022","01","26","04:00","","-20.2","","-26.8","","57","","","","29","","4","","24.1","","101.34","","","","-24","","Clear"
"-71.39","46.79","QUEBEC INTL A","7016293","2022-01-26 05:00","2022","01","26","05:00","","-23.8","","-29.2","","61","","","","36","","3","","24.1","","101.42","","","","-27","","NA"
"-71.39","46.79","QUEBEC INTL A","7016293","2022-01-26 06:00","2022","01","26","06:00","","-24.0","","-29.1","","63","","","","28","","6","","24.1","","101.50","","","","-30","","NA"
"-71.39","46.79","QUEBEC INTL A","7016293","2022-01-26 07:00","2022","01","26","07:00","","-22.2","","-29.3","","53","","","","30","","9","","48.3","","101.60","","","","-29","","Mainly Clear"
"-71.39","46.79","QUEBEC INTL A","7016293","2022-01-26 08:00","2022","01","26","08:00","","-23.9","","-29.5","","60","","","","","","0","","48.3","","101.72","","","","","","NA"
"-71.39","46.79","QUEBEC INTL A","7016293","2022-01-26 09:00","2022","01","26","09:00","","-22.5","","-29.3","","55","","","","22","","5","","48.3","","101.81","","","","-27","","NA"
"-71.39","46.79","QUEBEC INTL A","7016293","2022-01-26 10:00","2022","01","26","10:00","","-21.1","","-28.1","","54","","","","22","","9","","48.3","","101.88","","","","-28","","Mainly Clear"
"-71.39","46.79","QUEBEC INTL A","7016293","2022-01-26 11:00","2022","01","26","11:00","","-19.1","","-26.5","","53","","","","22","","11","","48.3","","101.95","","","","-27","","NA"
"-71.39","46.79","QUEBEC INTL A","7016293","2022-01-26 12:00","2022","01","26","12:00","","-18.4","","-25.9","","52","","","","21","","16","","48.3","","101.91","","","","-27","","NA"
"-71.39","46.79","QUEBEC INTL A","7016293","2022-01-26 13:00","2022","01","26","13:00","","-18.1","","-24.3","","59","","","","22","","22","","48.3","","101.90","","","","-29","","Mainly Clear"
"-71.39","46.79","QUEBEC INTL A","7016293","2022-01-26 14:00","2022","01","26","14:00","","-17.9","","-24.5","","57","","","","23","","23","","48.3","","101.89","","","","-29","","NA"
"-71.39","46.79","QUEBEC INTL A","7016293","2022-01-26 15:00","2022","01","26","15:00","","-18.0","","-24.5","","58","","","","22","","26","","48.3","","101.92","","","","-29","","NA"
"-71.39","46.79","QUEBEC INTL A","7016293","2022-01-26 16:00","2022","01","26","16:00","","-18.3","","-25.3","","55","","","","23","","20","","48.3","","101.99","","","","-28","","Clear"
"-71.39","46.79","QUEBEC INTL A","7016293","2022-01-26 17:00","2022","01","26","17:00","","-19.3","","-25.9","","57","","","","24","","22","","48.3","","102.02","","","","-30","","NA"
"-71.39","46.79","QUEBEC INTL A","7016293","2022-01-26 18:00","2022","01","26","18:00","","-20.4","","-26.0","","61","","","","23","","18","","24.1","","102.08","","","","-30","","NA"
"-71.39","46.79","QUEBEC INTL A","7016293","2022-01-26 19:00","2022","01","26","19:00","","-22.4","","-26.5","","70","","","","25","","16","","24.1","","102.13","","","","-32","","Clear"
"-71.39","46.79","QUEBEC INTL A","7016293","2022-01-26 20:00","2022","01","26","20:00","","-22.5","","-26.4","","71","","","","23","","16","","24.1","","102.19","","","","-32","","NA"
"-71.39","46.79","QUEBEC INTL A","7016293","2022-01-26 21:00","2022","01","26","21:00","","-22.6","","-26.4","","71","","","","24","","15","","24.1","","102.21","","","","-32","","NA"
"-71.39","46.79","QUEBEC INTL A","7016293","2022-01-26 22:00","2022","01","26","22:00","","-22.8","","-26.9","","70","","","","23","","17","","24.1","","102.24","","","","-33","","Clear"
"-71.39","46.79","QUEBEC INTL A","7016293","2022-01-26 23:00","2022","01","26","23:00","","-23.4","","-26.9","","73","","","","23","","10","","24.1","","102.24","","","","-31","","NA"
"-71.39","46.79","QUEBEC INTL A","7016293","2022-01-27 00:00","2022","01","27","00:00","","-29.2","","-32.1","","77","","","","28","","3","","24.1","","102.24","","","","-33","","NA"
"-71.39","46.79","QUEBEC INTL A","7016293","2022-01-27 01:00","2022","01","27","01:00","","-31.4","","-34.5","","75","","","","30","","5","","24.1","","102.21","","","","-37","","Clear"
"-71.39","46.79","QUEBEC INTL A","7016293","2022-01-27 02:00","2022","01","27","02:00","","-31.6","","-34.4","","77","","","","","","0","","24.1","","102.19","","","","","","NA"
"-71.39","46.79","QUEBEC INTL A","7016293","2022-01-27 03:00","2022","01","27","03:00","","-30.3","","-33.4","","75","","","","","","0","","24.1","","102.13","","","","","","NA"
"-71.39","46.79","QUEBEC INTL A","7016293","2022-01-27 04:00","2022","01","27","04:00","","-29.9","","-33.0","","75","","","","","","0","","24.1","","102.11","","","","","","Mainly Clear"
"-71.39","46.79","QUEBEC INTL A","7016293","2022-01-27 05:00","2022","01","27","05:00","","-28.0","","-31.1","","75","","","","6","","5","","24.1","","102.08","","","","-33","","NA"
"-71.39","46.79","QUEBEC INTL A","7016293","2022-01-27 06:00","2022","01","27","06:00","","-30.8","","-34.0","","74","","","","","","0","","24.1","","102.05","","","","","","NA"
"-71.39","46.79","QUEBEC INTL A","7016293","2022-01-27 07:00","2022","01","27","07:00","","-29.0","","-32.1","","76","","","","6","","3","","48.3","","102.01","","","","-32","","Mostly Cloudy"
"-71.39","46.79","QUEBEC INTL A","7016293","2022-01-27 08:00","2022","01","27","08:00","","-29.0","","-32.2","","74","","","","","","0","","48.3","","101.96","","","","","","NA"
"-71.39","46.79","QUEBEC INTL A","7016293","2022-01-27 09:00","2022","01","27","09:00","","-25.3","","-28.9","","73","","","","5","","7","","48.3","","101.83","","","","-32","","NA"
"-71.39","46.79","QUEBEC INTL A","7016293","2022-01-27 10:00","2022","01","27","10:00","","-22.1","","-27.1","","65","","","","10","","8","","40.2","","101.74","","","","-29","","Mostly Cloudy"
"-71.39","46.79","QUEBEC INTL A","7016293","2022-01-27 11:00","2022","01","27","11:00","","-19.7","","-25.4","","61","","","","6","","8","","40.2","","101.62","","","","-26","","NA"
"-71.39","46.79","QUEBEC INTL A","7016293","2022-01-27 12:00","2022","01","27","12:00","","-17.5","","-24.4","","56","","","","7","","6","","40.2","","101.43","","","","-22","","NA"
"-71.39","46.79","QUEBEC INTL A","7016293","2022-01-27 13:00","2022","01","27","13:00","","-16.3","","-23.3","","55","","","","7","","7","","40.2","","101.26","","","","-21","","Mostly Cloudy"
"-71.39","46.79","QUEBEC INTL A","7016293","2022-01-27 14:00","2022","01","27","14:00","","-14.8","","-22.6","","52","","","","13","","5","","40.2","","101.11","","","","-18","","NA"
"-71.39","46.79","QUEBEC INTL A","7016293","2022-01-27 15:00","2022","01","27","15:00","","-14.8","","-22.1","","54","","","","36","","3","","40.2","","101.06","","","","-17","","NA"
"-71.39","46.79","QUEBEC INTL A","7016293","2022-01-27 16:00","2022","01","27","16:00","","-15.4","","-22.4","","56","","","","33","","3","","40.2","","100.97","","","","-18","","Mostly Cloudy"
"-71.39","46.79","QUEBEC INTL A","7016293","2022-01-27 17:00","2022","01","27","17:00","","-14.7","","-19.5","","67","","","","36","","3","","32.2","","100.95","","","","-17","","NA"
"-71.39","46.79","QUEBEC INTL A","7016293","2022-01-27 18:00","2022","01","27","18:00","","-13.5","","-18.9","","64","","","","","","0","","24.1","","100.86","","","","","","NA"
"-71.39","46.79","QUEBEC INTL A","7016293","2022-01-27 19:00","2022","01","27","19:00","","-13.6","","-18.2","","69","","","","22","","3","","24.1","","100.81","","","","-16","","Cloudy"
"-71.39","46.79","QUEBEC INTL A","7016293","2022-01-27 20:00","2022","01","27","20:00","","-13.4","","-19.3","","62","","","","28","","7","","24.1","","100.81","","","","-18","","NA"
"-71.39","46.79","QUEBEC INTL A","7016293","2022-01-27 21:00","2022","01","27","21:00","","-13.2","","-17.2","","72","","","","","","0","","8.1","","100.80","","","","","","Snow"
"-71.39","46.79","QUEBEC INTL A","7016293","2022-01-27 22:00","2022","01","27","22:00","","-13.1","","-15.4","","83","","","","5","","3","","6.4","","100.76","","","","-15","","Snow"
"-71.39","46.79","QUEBEC INTL A","7016293","2022-01-27 23:00","2022","01","27","23:00","","-12.6","","-14.5","","86","","","","36","","3","","4.8","","100.71","","","","-15","","Snow"
"-71.39","46.79","QUEBEC INTL A","7016293","2022-01-28 00:00","2022","01","28","00:00","","-12.2","","-13.8","","88","","","","","","0","","4.8","","100.65","","","","","","Snow"
"-71.39","46.79","QUEBEC INTL A","7016293","2022-01-28 01:00","2022","01","28","01:00","","-11.4","","-12.8","","89","","","","6","","3","","6.4","","100.60","","","","-13","","Snow"
"-71.39","46.79","QUEBEC INTL A","7016293","2022-01-28 02:00","2022","01","28","02:00","","-10.6","","-12.1","","89","","","","36","","4","","8.1","","100.57","","","","-13","","Snow"
"-71.39","46.79","QUEBEC INTL A","7016293","2022-01-28 03:00","2022","01","28","03:00","","-10.6","","-12.2","","89","","","","5","","5","","8.1","","100.55","","","","-14","","Snow"
"-71.39","46.79","QUEBEC INTL A","7016293","2022-01-28 04:00","2022","01","28","04:00","","-10.7","","-12.1","","90","","","","","","0","","6.4","","100.54","","","","","","Snow"
"-71.39","46.79","QUEBEC INTL A","7016293","2022-01-28 05:00","2022","01","28","05:00","","-10.7","","-12.2","","88","","","","","","0","","4.8","","100.60","","","","","","Snow"
"-71.39","46.79","QUEBEC INTL A","7016293","2022-01-28 06:00","2022","01","28","06:00","","-11.1","","-12.4","","90","","","","21","","10","","6.4","","100.63","","","","-17","","Snow"
"-71.39","46.79","QUEBEC INTL A","7016293","2022-01-28 07:00","2022","01","28","07:00","","-10.3","","-12.3","","85","","","","23","","14","","9.7","","100.75","","","","-17","","Snow"
"-71.39","46.79","QUEBEC INTL A","7016293","2022-01-28 08:00","2022","01","28","08:00","","-11.3","","-13.6","","84","","","","23","","10","","24.1","","100.86","","","","-17","","NA"
"-71.39","46.79","QUEBEC INTL A","7016293","2022-01-28 09:00","2022","01","28","09:00","","-11.4","","-16.6","","66","","","","33","","8","","40.2","","100.99","","","","-16","","NA"
"-71.39","46.79","QUEBEC INTL A","7016293","2022-01-28 10:00","2022","01","28","10:00","","-11.7","","-18.9","","55","","","","30","","13","","40.2","","101.08","","","","-18","","Mostly Cloudy"
"-71.39","46.79","QUEBEC INTL A","7016293","2022-01-28 11:00","2022","01","28","11:00","","-11.2","","-19.9","","49","","","","30","","14","","40.2","","101.14","","","","-18","","NA"
"-71.39","46.79","QUEBEC INTL A","7016293","2022-01-28 12:00","2022","01","28","12:00","","-11.4","","-19.4","","52","","","","24","","14","","48.3","","101.19","","","","-18","","NA"
"-71.39","46.79","QUEBEC INTL A","7016293","2022-01-28 13:00","2022","01","28","13:00","","-10.8","","-19.4","","49","","","","22","","14","","40.2","","101.19","","","","-17","","Mainly Clear"
"-71.39","46.79","QUEBEC INTL A","7016293","2022-01-28 14:00","2022","01","28","14:00","","-10.9","","-18.7","","53","","","","21","","20","","48.3","","101.22","","","","-19","","NA"
"-71.39","46.79","QUEBEC INTL A","7016293","2022-01-28 15:00","2022","01","28","15:00","","-11.7","","-19.8","","51","","","","18","","9","","40.2","","101.33","","","","-17","","NA"
"-71.39","46.79","QUEBEC INTL A","7016293","2022-01-28 16:00","2022","01","28","16:00","","-12.7","","-19.1","","59","","","","19","","12","","40.2","","101.41","","","","-19","","Mainly Clear"
"-71.39","46.79","QUEBEC INTL A","7016293","2022-01-28 17:00","2022","01","28","17:00","","-14.3","","-19.7","","64","","","","15","","10","","48.3","","101.50","","","","-20","","NA"
"-71.39","46.79","QUEBEC INTL A","7016293","2022-01-28 18:00","2022","01","28","18:00","","-15.4","","-20.5","","65","","","","18","","7","","24.1","","101.60","","","","-20","","NA"
"-71.39","46.79","QUEBEC INTL A","7016293","2022-01-28 19:00","2022","01","28","19:00","","-18.4","","-22.2","","72","","","","","","0","","24.1","","101.67","","","","","","Mainly Clear"
"-71.39","46.79","QUEBEC INTL A","7016293","2022-01-28 20:00","2022","01","28","20:00","","-22.6","","-25.1","","80","","","","1","","5","","24.1","","101.74","","","","-27","","NA"
"-71.39","46.79","QUEBEC INTL A","7016293","2022-01-28 21:00","2022","01","28","21:00","","-23.1","","-24.8","","86","","","","14","","3","","24.1","","101.78","","","","-26","","NA"
"-71.39","46.79","QUEBEC INTL A","7016293","2022-01-28 22:00","2022","01","28","22:00","","-25.7","","-28.1","","81","","","","34","","3","","24.1","","101.75","","","","-29","","Mainly Clear"
"-71.39","46.79","QUEBEC INTL A","7016293","2022-01-28 23:00","2022","01","28","23:00","","-22.6","","-24.6","","84","","","","1","","7","","24.1","","101.77","","","","-29","","NA"
"-71.39","46.79","QUEBEC INTL A","7016293","2022-01-29 00:00","2022","01","29","00:00","","-23.2","","-25.4","","82","","","","4","","5","","24.1","","101.88","","","","-28","","NA"
"-71.39","46.79","QUEBEC INTL A","7016293","2022-01-29 01:00","2022","01","29","01:00","","-23.2","","-25.8","","80","","","","34","","7","","19.3","","101.95","","","","-29","","Snow"
"-71.39","46.79","QUEBEC INTL A","7016293","2022-01-29 02:00","2022","01","29","02:00","","-21.1","","-23.6","","81","","","","35","","12","","19.3","","101.89","","","","-29","","Ice Crystals"
"-71.39","46.79","QUEBEC INTL A","7016293","2022-01-29 03:00","2022","01","29","03:00","","-21.6","","-24.3","","79","","","","36","","13","","24.1","","101.75","","","","-30","","Ice Crystals"
"-71.39","46.79","QUEBEC INTL A","7016293","2022-01-29 04:00","2022","01","29","04:00","","-22.0","","-25.4","","75","","","","1","","13","","24.1","","101.68","","","","-31","","Mostly Cloudy"
"-71.39","46.79","QUEBEC INTL A","7016293","2022-01-29 05:00","2022","01","29","05:00","","-22.6","","-25.4","","78","","","","1","","6","","19.3","","101.79","","","","-28","","Ice Crystals"
"-71.39","46.79","QUEBEC INTL A","7016293","2022-01-29 06:00","2022","01","29","06:00","","-20.3","","-23.2","","78","","","","1","","9","","24.1","","101.71","","","","-27","","Ice Crystals"
"-71.39","46.79","QUEBEC INTL A","7016293","2022-01-29 07:00","2022","01","29","07:00","","-21.6","","-24.5","","78","","","","36","","12","","16.1","","101.64","","","","-30","","Cloudy"
"-71.39","46.79","QUEBEC INTL A","7016293","2022-01-29 08:00","2022","01","29","08:00","","-20.6","","-23.9","","75","","","","2","","12","","16.1","","101.53","","","","-29","","NA"
"-71.39","46.79","QUEBEC INTL A","7016293","2022-01-29 09:00","2022","01","29","09:00","","-17.6","","-23.1","","63","","","","6","","33","","32.2","","101.49","","","","-30","","NA"
"-71.39","46.79","QUEBEC INTL A","7016293","2022-01-29 10:00","2022","01","29","10:00","","-17.0","","-22.4","","63","","","","7","","36","","32.2","","101.42","","","","-30","","Mostly Cloudy"
"-71.39","46.79","QUEBEC INTL A","7016293","2022-01-29 11:00","2022","01","29","11:00","","-16.2","","-20.9","","68","","","","7","","44","","32.2","","101.27","","","","-30","","Blowing Snow"
"-71.39","46.79","QUEBEC INTL A","7016293","2022-01-29 12:00","2022","01","29","12:00","","-15.9","","-21.6","","62","","","","6","","35","","32.2","","101.03","","","","-28","","Blowing Snow"
"-71.39","46.79","QUEBEC INTL A","7016293","2022-01-29 13:00","2022","01","29","13:00","","-15.3","","-22.2","","56","","","","7","","27","","32.2","","100.79","","","","-26","","Cloudy"
"-71.39","46.79","QUEBEC INTL A","7016293","2022-01-29 14:00","2022","01","29","14:00","","-14.8","","-22.5","","53","","","","4","","17","","32.2","","100.57","","","","-23","","NA"
"-71.39","46.79","QUEBEC INTL A","7016293","2022-01-29 15:00","2022","01","29","15:00","","-14.3","","-23.0","","48","","","","7","","16","","32.2","","100.44","","","","-22","","NA"
"-71.39","46.79","QUEBEC INTL A","7016293","2022-01-29 16:00","2022","01","29","16:00","","-13.9","","-22.6","","49","","","","7","","9","","32.2","","100.27","","","","-20","","Mostly Cloudy"
"-71.39","46.79","QUEBEC INTL A","7016293","2022-01-29 17:00","2022","01","29","17:00","","-14.5","","-22.1","","53","","","","28","","7","","48.3","","100.12","","","","-19","","NA"
"-71.39","46.79","QUEBEC INTL A","7016293","2022-01-29 18:00","2022","01","29","18:00","","-15.0","","-20.8","","62","","","","26","","8","","24.1","","100.06","","","","-20","","NA"
"-71.39","46.79","QUEBEC INTL A","7016293","2022-01-29 19:00","2022","01","29","19:00","","-14.7","","-19.6","","67","","","","22","","6","","24.1","","100.00","","","","-19","","Cloudy"
"-71.39","46.79","QUEBEC INTL A","7016293","2022-01-29 20:00","2022","01","29","20:00","","-14.5","","-21.0","","58","","","","26","","8","","24.1","","99.86","","","","-20","","NA"
"-71.39","46.79","QUEBEC INTL A","7016293","2022-01-29 21:00","2022","01","29","21:00","","-13.5","","-23.9","","42","","","","35","","9","","24.1","","99.72","","","","-19","","NA"
"-71.39","46.79","QUEBEC INTL A","7016293","2022-01-29 22:00","2022","01","29","22:00","","-13.7","","-24.2","","42","","","","36","","10","","24.1","","99.59","","","","-20","","Cloudy"
"-71.39","46.79","QUEBEC INTL A","7016293","2022-01-29 23:00","2022","01","29","23:00","","-14.1","","-21.6","","54","","","","34","","9","","12.9","","99.53","","","","-20","","Snow"
"-71.39","46.79","QUEBEC INTL A","7016293","2022-01-30 00:00","2022","01","30","00:00","","-14.9","","-18.3","","76","","","","34","","8","","2.0","","99.43","","","","-20","","Snow"
"-71.39","46.79","QUEBEC INTL A","7016293","2022-01-30 01:00","2022","01","30","01:00","","-14.2","","-19.7","","63","","","","34","","9","","9.7","","99.27","","","","-20","","Snow"
"-71.39","46.79","QUEBEC INTL A","7016293","2022-01-30 02:00","2022","01","30","02:00","","-14.7","","-22.9","","50","","","","30","","8","","24.1","","99.20","","","","-20","","NA"
"-71.39","46.79","QUEBEC INTL A","7016293","2022-01-30 03:00","2022","01","30","03:00","","-14.6","","-22.8","","51","","","","31","","16","","24.1","","99.19","","","","-23","","NA"
"-71.39","46.79","QUEBEC INTL A","7016293","2022-01-30 04:00","2022","01","30","04:00","","-14.7","","-23.9","","46","","","","29","","13","","24.1","","99.22","","","","-22","","Mostly Cloudy"
"-71.39","46.79","QUEBEC INTL A","7016293","2022-01-30 05:00","2022","01","30","05:00","","-16.2","","-22.4","","60","","","","25","","27","","24.1","","99.24","","","","-27","","NA"
"-71.39","46.79","QUEBEC INTL A","7016293","2022-01-30 06:00","2022","01","30","06:00","","-17.8","","-23.8","","60","","","","24","","34","","24.1","","99.26","","","","-30","","NA"
"-71.39","46.79","QUEBEC INTL A","7016293","2022-01-30 07:00","2022","01","30","07:00","","-19.0","","-24.6","","62","","","","24","","34","","32.2","","99.35","","","","-32","","Blowing Snow"
"-71.39","46.79","QUEBEC INTL A","7016293","2022-01-30 08:00","2022","01","30","08:00","","-19.1","","-24.8","","61","","","","24","","28","","48.3","","99.45","","","","-31","","NA"
"-71.39","46.79","QUEBEC INTL A","7016293","2022-01-30 09:00","2022","01","30","09:00","","-18.3","","-24.8","","57","","","","23","","28","","48.3","","99.52","","","","-30","","NA"
"-71.39","46.79","QUEBEC INTL A","7016293","2022-01-30 10:00","2022","01","30","10:00","","-16.6","","-24.2","","53","","","","23","","25","","48.3","","99.64","","","","-27","","Mainly Clear"
"-71.39","46.79","QUEBEC INTL A","7016293","2022-01-30 11:00","2022","01","30","11:00","","-14.2","","-22.6","","50","","","","24","","27","","48.3","","99.69","","","","-25","","NA"
"-71.39","46.79","QUEBEC INTL A","7016293","2022-01-30 12:00","2022","01","30","12:00","","-12.2","","-22.0","","44","","","","26","","35","","48.3","","99.73","","","","-23","","NA"
"-71.39","46.79","QUEBEC INTL A","7016293","2022-01-30 13:00","2022","01","30","13:00","","-10.8","","-22.7","","37","","","","27","","22","","48.3","","99.76","","","","-19","","Mainly Clear"
"-71.39","46.79","QUEBEC INTL A","7016293","2022-01-30 14:00","2022","01","30","14:00","","-10.8","","-20.2","","47","","","","25","","28","","48.3","","99.83","","","","-20","","NA"
"-71.39","46.79","QUEBEC INTL A","7016293","2022-01-30 15:00","2022","01","30","15:00","","-10.4","","-20.6","","44","","","","28","","18","","48.3","","99.94","","","","-18","","NA"
"-71.39","46.79","QUEBEC INTL A","7016293","2022-01-30 16:00","2022","01","30","16:00","","-10.3","","-20.4","","44","","","","27","","19","","48.3","","100.06","","","","-18","","Mostly Cloudy"
"-71.39","46.79","QUEBEC INTL A","7016293","2022-01-30 17:00","2022","01","30","17:00","","-10.9","","-21.0","","44","","","","27","","15","","48.3","","100.18","","","","-18","","NA"
"-71.39","46.79","QUEBEC INTL A","7016293","2022-01-30 18:00","2022","01","30","18:00","","-12.4","","-20.5","","51","","","","26","","13","","24.1","","100.32","","","","-19","","NA"
"-71.39","46.79","QUEBEC INTL A","7016293","2022-01-30 19:00","2022","01","30","19:00","","-14.1","","-20.1","","61","","","","25","","9","","24.1","","100.46","","","","-20","","Mainly Clear"
"-71.39","46.79","QUEBEC INTL A","7016293","2022-01-30 20:00","2022","01","30","20:00","","-13.9","","-20.0","","60","","","","25","","12","","24.1","","100.52","","","","-21","","NA"
"-71.39","46.79","QUEBEC INTL A","7016293","2022-01-30 21:00","2022","01","30","21:00","","-13.2","","-19.1","","62","","","","24","","16","","24.1","","100.58","","","","-21","","NA"
"-71.39","46.79","QUEBEC INTL A","7016293","2022-01-30 22:00","2022","01","30","22:00","","-14.5","","-19.2","","68","","","","24","","15","","24.1","","100.68","","","","-22","","Mostly Cloudy"
"-71.39","46.79","QUEBEC INTL A","7016293","2022-01-30 23:00","2022","01","30","23:00","","-15.2","","-19.2","","72","","","","25","","17","","24.1","","100.74","","","","-24","","NA"
"-71.39","46.79","QUEBEC INTL A","7016293","2022-01-31 00:00","2022","01","31","00:00","","-17.6","","-20.6","","78","","","","23","","13","","24.1","","100.79","","","","-25","","NA"
"-71.39","46.79","QUEBEC INTL A","7016293","2022-01-31 01:00","2022","01","31","01:00","","-16.8","","-19.4","","80","","","","26","","8","","24.1","","100.85","","","","-22","","Mostly Cloudy"
"-71.39","46.79","QUEBEC INTL A","7016293","2022-01-31 02:00","2022","01","31","02:00","","-16.7","","-19.6","","78","","","","24","","12","","24.1","","100.92","","","","-24","","NA"
"-71.39","46.79","QUEBEC INTL A","7016293","2022-01-31 03:00","2022","01","31","03:00","","-18.5","","-20.3","","86","","","","22","","16","","24.1","","100.98","","","","-28","","NA"
"-71.39","46.79","QUEBEC INTL A","7016293","2022-01-31 04:00","2022","01","31","04:00","","-17.7","","-20.0","","83","","","","22","","14","","24.1","","101.07","","","","-26","","Mostly Cloudy"
"-71.39","46.79","QUEBEC INTL A","7016293","2022-01-31 05:00","2022","01","31","05:00","","-18.4","","-20.7","","82","","","","23","","7","","24.1","","101.15","","","","-24","","NA"
"-71.39","46.79","QUEBEC INTL A","7016293","2022-01-31 06:00","2022","01","31","06:00","","-20.3","","-22.6","","83","","","","26","","13","","24.1","","101.24","","","","-29","","NA"
"-71.39","46.79","QUEBEC INTL A","7016293","2022-01-31 07:00","2022","01","31","07:00","","-19.4","","-22.7","","76","","","","22","","16","","48.3","","101.35","","","","-29","","Mostly Cloudy"
"-71.39","46.79","QUEBEC INTL A","7016293","2022-01-31 08:00","2022","01","31","08:00","","-19.9","","-23.1","","76","","","","31","","5","","48.3","","101.48","","","","-24","","NA"
"-71.39","46.79","QUEBEC INTL A","7016293","2022-01-31 09:00","2022","01","31","09:00","","-17.3","","-21.6","","70","","","","24","","19","","48.3","","101.55","","","","-27","","NA"
"-71.39","46.79","QUEBEC INTL A","7016293","2022-01-31 10:00","2022","01","31","10:00","","-16.3","","-21.5","","65","","","","25","","19","","48.3","","101.65","","","","-26","","Mainly Clear"
"-71.39","46.79","QUEBEC INTL A","7016293","2022-01-31 11:00","2022","01","31","11:00","","-14.6","","-21.7","","55","","","","25","","18","","48.3","","101.69","","","","-23","","NA"
"-71.39","46.79","QUEBEC INTL A","7016293","2022-01-31 12:00","2022","01","31","12:00","","-13.7","","-20.6","","57","","","","22","","23","","48.3","","101.70","","","","-23","","NA"
"-71.39","46.79","QUEBEC INTL A","7016293","2022-01-31 13:00","2022","01","31","13:00","","-13.4","","-19.9","","59","","","","22","","21","","48.3","","101.72","","","","-22","","Clear"
"-71.39","46.79","QUEBEC INTL A","7016293","2022-01-31 14:00","2022","01","31","14:00","","-12.8","","-20.0","","55","","","","21","","22","","48.3","","101.77","","","","-22","","NA"
"-71.39","46.79","QUEBEC INTL A","7016293","2022-01-31 15:00","2022","01","31","15:00","","-12.7","","-20.3","","54","","","","22","","23","","48.3","","101.84","","","","-22","","NA"
"-71.39","46.79","QUEBEC INTL A","7016293","2022-01-31 16:00","2022","01","31","16:00","","-13.1","","-20.5","","54","","","","22","","22","","48.3","","101.93","","","","-22","","Clear"
"-71.39","46.79","QUEBEC INTL A","7016293","2022-01-31 17:00","2022","01","31","17:00","","-13.7","","-21.1","","54","","","","24","","18","","40.2","","102.02","","","","-22","","NA"
"-71.39","46.79","QUEBEC INTL A","7016293","2022-01-31 18:00","2022","01","31","18:00","","-14.6","","-21.6","","56","","","","24","","14","","24.1","","102.14","","","","-22","","NA"
"-71.39","46.79","QUEBEC INTL A","7016293","2022-01-31 19:00","2022","01","31","19:00","","-17.0","","-23.3","","59","","","","25","","13","","24.1","","102.24","","","","-25","","Clear"
"-71.39","46.79","QUEBEC INTL A","7016293","2022-01-31 20:00","2022","01","31","20:00","","-18.7","","-23.6","","66","","","","28","","10","","24.1","","102.32","","","","-26","","NA"
"-71.39","46.79","QUEBEC INTL A","7016293","2022-01-31 21:00","2022","01","31","21:00","","-21.6","","-25.5","","71","","","","","","0","","24.1","","102.39","","","","","","NA"
"-71.39","46.79","QUEBEC INTL A","7016293","2022-01-31 22:00","2022","01","31","22:00","","-23.1","","-26.1","","77","","","","","","0","","24.1","","102.43","","","","","","Clear"
"-71.39","46.79","QUEBEC INTL A","7016293","2022-01-31 23:00","2022","01","31","23:00","","-20.2","","-24.5","","69","","","","33","","10","","24.1","","102.48","","","","-27","","NA"
